status,station_no,name,district,address,parking_spaces,lat,lng
1,0001,捷運市政府站(3號出口),信義區,忠孝東路/松仁路(東南側),180,25.0408578889,121.567904444
1,0002,捷運國父紀念館站(2號出口),大安區,忠孝東路四段/光復南路口(西南側),48,25.041254,121.55742
1,0003,台北市政府,信義區,台北市政府東門(松智路) (鄰近信義商圈/台北探索館),40,25.0377972222,121.565169444
1,0004,市民廣場,信義區,市府路/松壽路(西北側)(鄰近台北101/台北世界貿易中心/台北探索館),60,25.0360361111,121.562325
1,0005,興雅國中,信義區,松仁路/松仁路95巷(東南側)(鄰近信義商圈/台北信義威秀影城),60,25.0365638889,121.5686639
1,0006,臺北南山廣場,信義區,松智路/松廉路(東北側) (鄰近台北101/信義商圈/台北信義威秀影城),80,25.034047,121.565973
1,0007,信義廣場(台北101),信義區,松智路/信義路(東北側) (鄰近台北101),80,25.0330388889,121.565619444
1,0008,世貿三館,信義區,市府路/松壽路(東南側) (鄰近台北101/台北世界貿易中心/台北探索館),60,25.0352138889,121.563688889
1,0009,松德站,信義區,台北市信義區松德路300號,40,25.031785,121.57448
1,0010,台北市災害應變中心,信義區,台北市信義區莊敬路391巷11弄2號,54,25.0286611111,121.566116667
1,0011,三張犁,信義區,光復南路/基隆路一段364巷(鄰近大安親子館),50,25.034937,121.55762
1,0012,臺北醫學大學,信義區,台北醫學大學(吳興街220巷59弄)(鄰近台北醫學大學),48,25.026679,121.561747
1,0013,福德公園,信義區,大道路/福德街路口北西側,58,25.03809,121.58367
1,0014,榮星花園,中山區,五常街/龍江路口(西南側)(鄰近榮星公園(原榮星花園)),32,25.06424,121.54037
1,0016,松山家商,信義區,林口街/福德街(東南側),48,25.036084,121.579135
1,0017,民生光復路口,松山區,光復北路/民生東路(西北側),34,25.05862,121.55514
1,0018,臺北市藝文推廣處,松山區,北寧路34號 對側(鄰近台北田徑場),40,25.049408,121.55261
1,0019,象山公園,信義區,松仁路153巷17號對面(鄰近象山步道),30,25.02863,121.56981
1,0020,捷運科技大樓站,大安區,科技大樓站對面(復興南路2段西側)(鄰近資訊科學展示中心),58,25.025896,121.543293
1,0021,民生敦化路口,松山區,敦化民生路口公車站旁,66,25.057985,121.548982
1,0022,松山車站,信義區,松山車站西出口外自行車格內(鄰近饒河街夜市/五分埔),44,25.048824,121.57845
1,0023,東新國小,南港區,東新國小側門(東明街62號前),32,25.055074,121.602798
1,0024,信義建國路口,大安區,信義路三段/建國南路二段(西南側)(鄰近大安森林公園),46,25.03293,121.53747
1,0025,永吉松信路口,信義區,松信路/永吉路南西側人行道,30,25.04543,121.57205
1,0026,捷運昆陽站(1號出口),南港區,捷運昆陽站1號出口外停車場旁,72,25.050142,121.592375
1,0027,捷運南港展覽館站(5號出口),南港區,捷運南港展覽館站（5號出口）南側,38,25.05469,121.61669
1,0028,五常公園,信義區,松隆路/虎林街30巷口(西南側),32,25.04814,121.57467
1,0029,金山愛國路口,大安區,愛國東路/金山南路(西南側),54,25.03164,121.52655
1,0030,基隆長興路口,大安區,基隆路/長興街(東南側),74,25.017054,121.544352
1,0031,辛亥新生路口,大安區,辛亥路/新生南路(高架橋下),30,25.022413,121.53456
1,0032,捷運六張犁站,大安區,捷運出口外和平東路側,38,25.023884,121.553161
1,0033,中崙高中,松山區,八德路四段91巷(中崙高中)旁(鄰近京華城/中保寶貝城(BabyBoss City)),46,25.04878,121.56087
1,0034,捷運行天宮站(1號出口),中山區,捷運行天宮1號出口後方(松江路側),32,25.058369,121.532934
1,0035,捷運行天宮站(3號出口),中山區,捷運行天宮站3號出口站外,30,25.059978,121.533302
1,0036,臺大資訊大樓,大安區,辛亥路二段(臺大外語學院外),72,25.02101,121.54153
1,0037,捷運東門站(4號出口),大安區,信義路/麗水街口(鄰近永康街),46,25.0337,121.528988
1,0038,臺灣師範大學(圖書館),大安區,和平東路/師大路口(北側)(鄰近臺灣師範大學),32,25.026603,121.529440
1,0039,南港世貿公園,南港區,三重路/經貿二路88巷(東北側),26,25.058,121.61422
1,0040,玉成公園,南港區,玉成街247號前,34,25.04287,121.58640
1,0041,中研公園,南港區,研究院路二段12巷/研究院路二段12巷58弄(西南側),30,25.047425,121.613706
1,0042,捷運後山埤站(1號出口),信義區,中坡北路/忠孝東路五段(西北側),38,25.04431,121.58174
1,0043,凌雲市場,南港區,研究院路三段68巷/凌雲街(東北側),30,25.035639,121.614154
1,0044,捷運南港軟體園區站(2號出口),南港區,捷運南港軟體園區站2號出口外,36,25.05973,121.616187
1,0045,捷運公館站(2號出口),大安區,羅斯福路四段/舟山路(東北側)(鄰近公館夜市),30,25.01476,121.534538
1,0046,南港國小,南港區,惠民街/興東街(南側停車場),58,25.056504,121.611389
2,0047,捷運忠孝新生站(4號出口),大安區,忠孝東路三段 / 新生南路一段口 東北側(鄰近國立台北科技大學),34,25.042275,121.533939
1,0048,南港車站(忠孝東路),南港區,忠孝東路七段與忠孝東路七段415巷交叉口(鄰近南港高鐵站),38,25.05247,121.608202
1,0049,龍門廣場,大安區,忠孝東路/敦化南路(西南側廣場）(鄰近東區地下街),52,25.040901,121.548252
1,0050,民權運動公園,松山區,民權東路四段/新中街交叉口,52,25.062002,121.560186
1,0051,建國農安街口,中山區,建國北路/農安街口(中油旁邊空地)(鄰近榮星公園(原榮星花園)),44,25.065031,121.536775
1,0052,建國長春路口,中山區,建國北路/長春路口(北側),30,25.054761,121.536925
1,0053,八德市場,中山區,建國南路一段/市民大道交叉口(北側) (鄰近國立台北科技大學),26,25.044781,121.536609
1,0054,臺北市立圖書館(總館),大安區,建國南路二段/建國南路二段151巷(東北側),30,25.028798,121.538073
1,0055,臺北田徑場,松山區,敦化北路3號(鄰近臺北小巨蛋/台北田徑場),46,25.049505,121.549408
1,0056,仁愛林森路口,中正區,林森南路/仁愛路一段路口(東北側)(鄰近臺北市青少年發展處/中正親子館),42,25.038954,121.522334
1,0057,新生和平路口,大安區,新生南路二段/和平東路二段(東北側),46,25.026217,121.53519
2,0058,捷運善導寺站(1號出口),中正區,天津街/忠孝東路一段(東北側)(鄰近台北國際藝術村/蝴蝶宮昆蟲博物館/台北希望廣場),48,25.045267,121.522200
1,0059,林森公園,中山區,林森北路/南京東路一段(鄰近林森公園/康樂公園),32,25.052227,121.525805
1,0060,中山行政中心,中山區,松江路/農安街口(鄰近行天宮),30,25.064317,121.533487
1,0061,台灣科技大學,大安區,基隆路四段/基隆路四段73巷交叉口(鄰近國立台灣科技大學),86,25.0131,121.539723
1,0062,南昌公園,中正區,和平西路一段/南昌路,34,25.026827,121.520258
1,0063,仁愛醫院,大安區,大安路一段/仁愛路四段,36,25.037569,121.545632
1,0064,國家圖書館,中正區,中山南路/貴陽街口(西南側)(鄰近台北賓館),50,25.037773,121.517029
1,0065,青年公園3號出口,萬華區,青年路/青年路106巷(東側)(鄰近青年公園),38,25.022725,121.502708
1,0066,師範大學公館校區,文山區,師大公館校區校門口(汀州路側),42,25.007528,121.537188
1,0067,捷運臺大醫院(4號出口),中正區,公園路/襄陽路(西南側)(鄰近二二八和平紀念公園/國立臺灣博物館/台北賓館),48,25.042973,121.516428
1,0068,國興青年路口,萬華區,國興路/青年路(西南側)(鄰近萬華親子館),36,25.025865,121.506536
1,0069,興豐公園,文山區,興隆路二段123巷/興隆路二段(西北側),34,24.999837,121.547778
1,0070,捷運台北101/世貿站,信義區,莊敬路/信義路五段(東南側)(鄰近台北世界貿易中心(世貿)/台北國際會議中心/信義公民會館(四四南村)/信義親子館),52,25.032752,121.561645
1,0071,捷運信義安和站(4號出口),大安區,通化街/信義路四段(西南側)(鄰近臨江街夜市(通化夜市)/大安親子館),30,25.032985,121.554204
1,0072,新生長安路口,中山區,新生北路一段/長安東路二段交叉口(北側),42,25.048611,121.529346
1,0073,酒泉延平路口,大同區,延平北路四段/酒泉街(西北側),32,25.072228,121.510195
1,0074,信義連雲街口,中正區,信義路二段/連雲街(東北側),40,25.033817,121.530547
1,0075,基隆光復路口,信義區,基隆路二段/光復南路(東北側)(鄰近通化夜市),30,25.0300508,121.557635
1,0076,新生長春路口,中山區,新生北路二段/新生北路二段68巷交叉口(新生橋下),36,25.056387,121.527522
1,0077,民生活動中心,松山區,民生東路五段/三民路口(西北側)(鄰近松山親子館),32,25.059147,121.56297
1,0078,捷運圓山站(2號出口),大同區,承德路三段/庫倫街(東南側)(鄰近台北孔廟/花博公園圓山園區/花博圓山公園區-爭艷館/中山親子館),52,25.071824,121.519287
1,0079,捷運民權西路站(3號出口),大同區,民權西路70巷37號對面,50,25.061285,121.520205
1,0080,華江高中,萬華區,東園街/東園街35巷(東北側),44,25.02751,121.495869
1,0081,捷運台電大樓站(2號出口),大安區,羅斯福路/辛亥路交叉口(古亭國小前),40,25.020547,121.528552
1,0082,捷運西門站(3號出口),中正區,中華路一段/寶慶路(東南側)(鄰近國軍歷史文物館/中山堂/西門紅樓),60,25.041778,121.508693
1,0083,捷運大安森林公園站,大安區,信義路三段31巷/信義路三段(南側)(鄰近大安森林公園),74,25.033344,121.534236
1,0084,復華花園新城,萬華區,西藏路115號/西藏路(東南側),38,25.029705,121.502899
1,0085,信義敦化路口,大安區,信義路四段/敦化南路一段(東北側),46,25.033362,121.54911
1,0086,民權復興路口,松山區,復興北路/民權東路三段(東北側),36,25.062344,121.545138
1,0087,捷運大安站,大安區,復興南路/信義路三段(西南側),48,25.033078,121.543057
1,0088,捷運象山站,信義區,信義路五段/信義路五段91巷(西北側),62,25.032922,121.57087
1,0089,和平重慶路口,中正區,重慶南路三段/和平西路一段(東北側),44,25.027323,121.516385
1,0090,老松國小,萬華區,康定路/桂林路(東南側)(鄰近艋舺龍山寺/艋舺清水巖祖師廟/台北市鄉土教育中心(剝皮寮歷史街區)),44,25.037783,121.501708
1,0091,市立美術館,中山區,中山北路三段/酒泉街(西南側)(鄰近台北市立美術館/花博公園美術園區/台北故事館/花博公園圓山園區/花博圓山公園區-爭艷館/中山親子館),36,25.070629,121.523268
1,0092,開封西寧路口,萬華區,開封街二段/西寧南路(東北側)(鄰近西門町),42,25.046618,121.507169
1,0093,吳興公車總站,信義區,松仁路/吳興街交叉口,56,25.023877,121.569836
1,0094,捷運景美站,文山區,羅斯福路六段/景中街交叉口(東北側)(鄰近景美夜市),52,24.993254,121.541059
1,0095,東園國小,萬華區,東園街/萬大路344巷(東南側),32,25.023393,121.497679
1,0096,三民公園,松山區,撫遠街/富錦街(東南側),30,25.061567,121.566558
1,0097,捷運劍潭站(2號出口),士林區,基河路18號對面(鄰近劍潭公園),52,25.082825,121.524721
1,0098,羅斯福景隆街口,文山區,羅斯福路六段/景隆街交叉口(東南側),42,24.999378,121.540197
2,0099,捷運雙連站(2號出口),大同區,民生西路/萬全街(東北側),42,25.057866,121.520711
1,0100,金山市民路口,中正區,金山北路/市民大道三段(南側)(鄰近華山文化創意產業園區/光華數位新天地(光華商場)/三創生活園區),40,25.045753,121.530697
2,0101,華山文創園區,中正區,忠孝東路二段41號前(鄰近華山文化創意產業園區/光華數位新天地(光華商場)/三創生活園區),50,25.043668,121.528487
1,0102,臺北市客家文化主題公園,中正區,師大路/汀州路交叉口(鄰近客家文化主題公園(原兒童交通博物館)),32,25.02043,121.525322
1,0103,萬華車站,萬華區,艋舺大道83號(對側),60,25.033639,121.503028
1,0104,台北花木批發市場,文山區,萬盛街/興隆路一段(西北側),38,25.004023,121.54074
1,0105,峨嵋停車場,萬華區,昆明街/西寧南路50巷(東南側)(鄰近西門町/台北市電影主題公園/西門紅樓),42,25.044412,121.505409
1,0106,西園艋舺路口,萬華區,西園路二段/艋舺大道(西南側),44,25.032932,121.497674
1,0107,捷運小南門站(1號出口),中正區,博愛路/愛國西路交叉口(西北側),54,25.036402,121.509422
1,0108,臺北孔廟,大同區,哈密街59巷/哈密街(東北側)(鄰近台北孔廟/保安宮),32,25.073306,121.515843
1,0109,林安泰古厝,中山區,濱江街5號對面(鄰近林安泰古厝/花博公園新生園區),36,25.071606,121.530805
1,0110,文湖國小,內湖區,文湖街21巷/文湖街(東北側),44,25.086376,121.560888
1,0111,捷運忠孝復興站(2號出口),大安區,復興南路一段/仁愛路三段123巷13弄(西北側),54,25.040184,121.543497
1,0112,捷運新北投站,北投區,大業路/中和街交叉口(鄰近凱達格蘭文化館/北投復興公園),48,25.137456,121.503124
1,0113,仁愛逸仙路口,信義區,仁愛路四段/逸仙路(西北側)(鄰近國父紀念館/台北探索館),38,25.037724,121.561178
1,0114,蘭雅公園,士林區,忠誠路二段/忠誠路二段40巷(西南側),30,25.109908,121.530386
1,0115,臺北轉運站,中正區,中山北路一段/市民大道一段(西北側)(鄰近台北當代藝術館/台北轉運站(京站時尚廣場)/國父史蹟紀念館(逸仙公園)/台北國際藝術村),68,25.048222,121.520526
1,0116,福林公園,士林區,志成街/中正路(南側)(鄰近志成公園/福林公園),44,25.096122,121.530215
1,0117,捷運北投站,北投區,光明路2巷/光明路交叉口(鄰近北投親子館),58,25.132581,121.498618
1,0118,大業大同街口,北投區,大業路/大同街口,36,25.136929,121.499152
1,0119,捷運劍南路站(2號出口),中山區,敬業二路/植福路(東北側)(鄰近美麗華百樂園/劍潭古寺),68,25.08418,121.555116
1,0120,捷運龍山寺站(1號出口),萬華區,和平西路三段/和平西路三段109巷(西北側)(鄰近艋舺龍山寺/艋舺夜市(萬華夜市)),46,25.035479,121.50026
1,0121,龍江南京路口,中山區,龍江路110號對面停車場,66,25.05298,121.540568
1,0122,捷運港墘站(2號出口),內湖區,內湖路一段/港墘路(東南側),50,25.079666,121.57584
1,0123,天母運動公園,士林區,忠誠路二段/忠誠路二段207巷(東南側),44,25.116325,121.534136
1,0124,振華公園,北投區,振華街36號對面,36,25.115863,121.518163
1,0125,華西公園,萬華區,華西街/桂林路(東北側)(鄰近艋舺龍山寺/華西街夜市/艋舺青山宮/艋舺夜市(萬華夜市)),30,25.038609,121.498495
1,0126,敦化基隆路口,大安區,敦化南路二段/基隆路二段交叉口,30,25.022073,121.548336
1,0127,東湖國中,內湖區,康樂街/康樂街125巷(東南側),40,25.073277,121.619521
1,0128,成功國宅,大安區,四維路198巷/和平東路三段1巷,36,25.026808,121.546726
1,0129,捷運文德站(2號出口),內湖區,文德路220巷/文德路(西南側),50,25.078424,121.58456
1,0130,羅斯福寧波東街口,中正區,羅斯福路一段/寧波東街(東南側)(鄰近愛國東路婚紗街),26,25.031445,121.519411
1,0131,洲子二號公園,內湖區,瑞光路500號對面,52,25.079322,121.568688
1,0132,羅斯福新生南路口,大安區,羅斯福路四段/新生南路三段交叉口(鄰近公館夜市),88,25.01603085,121.5331757
1,0133,蘭興公園,士林區,中山北路六段/士東路(西北側),40,25.111839,121.525888
1,0134,捷運芝山站(2號出口),士林區,福華路/福華路162巷(東南側),64,25.10336,121.522629
1,0135,捷運石牌站(2號出口),北投區,東華街一段/裕民二路(西側)	,54,25.114513,121.515677
1,0136,國立臺北護理健康大學,北投區,石牌路二段100號(北側),30,25.117457,121.51668
1,0137,國防大學,北投區,中央北路二段/豐年路二段交叉口,46,25.137976,121.493066
1,0138,捷運永春站(2號出口),信義區,忠孝東路五段420號旁(東側巷道上),30,25.040558,121.575372
1,0139,永樂市場,大同區,民樂街/南京西路233巷(西北側)(鄰近迪化街/永樂市場(永樂布業商場)/霞海城隍廟),38,25.054501,121.510549
1,0140,捷運大橋頭站(2號出口),大同區,民權西路/重慶北路三段(東北側)(鄰近延三夜市(大橋頭夜市)),46,25.063404,121.512909
1,0141,文山行政中心,文山區,木柵路三段220號前,36,24.989902,121.569984
1,0142,捷運木柵站,文山區,木柵路四段82巷18號前(捷運橋樑下),52,24.997996,121.57444
1,0143,捷運動物園站(2號出口),文山區,新光路二段28號前(鄰近台北市立動物園(木柵動物園)),72,24.997659,121.578752
1,0144,國立政治大學,文山區,萬壽路16巷6號前(鄰近國立政治大學),58,24.988363,121.576536
1,0145,樹德公園,大同區,大龍街/大龍街85巷(東北側),40,25.066688,121.516149
1,0146,捷運士林站(2號出口),士林區,中正路247巷/中山北路五段505巷(東南側),46,25.092546,121.526556
1,0147,士林運動中心,士林區,承德路四段/大南路(東北側),32,25.089175,121.521814
1,0148,捷運明德站,北投區,致遠一路一段46巷/西安街一段(東南側),68,25.110331,121.518316
1,0149,北投運動中心,北投區,石牌路一段39巷100號前,62,25.116665,121.509621
1,0150,松德公園,信義區,松德路168巷20號前,38,25.036568,121.57343
1,0151,考試院,文山區,試院路(雙號)/木柵路一段(東北側)(鄰近文山親子館),34,24.987507,121.549827
1,0152,百齡國小,士林區,前港街100巷/前港街(北方),40,25.08521,121.519175
1,0153,蔣渭水紀念公園,大同區,錦西街51號對面,36,25.059885,121.516299
1,0154,中正基河路口,士林區,中正路420號前(鄰近台北市立天文科學教育館),38,25.093396,121.519867
1,0155,瑞光港墘路口,內湖區,瑞光路/港墘路(西南側),30,25.076193,121.57505
1,0156,東湖國小,內湖區,東湖路/東湖路119巷(西北側),38,25.068530,121.61538
1,0157,麗山國小,內湖區,內湖路一段411巷/內湖路一段411巷19弄(東北側),42,25.082703,121.571467
1,0158,捷運東湖站,內湖區,安康路315巷/五分街14巷(西側),48,25.067026,121.61355
1,0159,捷運西湖站(1號出口),內湖區,環山路一段9巷/內湖路一段285巷(西南側),36,25.082866,121.566695
1,0161,大豐公園,北投區,磺港路/大興街(東北側),56,25.131143,121.503768
1,0162,捷運中山國小站(4號出口),中山區,民權東路一段/新生北路三段(北側)(新生高架橋下),70,25.062924,121.52772
1,0163,捷運麟光站,大安區,和平東路三段/和平東路三段416巷(捷運高架橋下)(鄰近富陽自然生態公園),72,25.018097,121.559279
1,0164,捷運奇岩站,北投區,北投路一段/三合街二段(東北側),56,25.126286,121.500801
1,0165,捷運唭哩岸站(2號出口),北投區,西安街二段/立農街一段257巷(鄰近慈生宮),62,25.120788,121.505693
1,0166,臺北市立景美女中,文山區,木新路三段/一壽街(西北側),34,24.980602,121.556177
1,0167,臺北市立天文館,士林區,基河路363號前(鄰近台北市立天文科學教育館/國立台灣科學教育館),50,25.095714,121.518046
1,0168,河堤國小,中正區,金門街12巷23弄1號旁,44,25.02288,121.522855
1,0169,植物園,中正區,和平西路二段100號前(鄰近台北植物園/國立歷史博物館/131 Fun心玩親子館),44,25.030015,121.509813
1,0170,新東公園,松山區,民生東路五段/塔悠路(西南側),50,25.059245,121.568883
1,0171,文山運動中心,文山區,興隆路三段/興隆路三段192巷8弄,38,24.996842,121.559651
1,0172,捷運南京三民站(1號出口),松山區,南京東路五段/三民路(西北側),24,25.051562,121.562891
1,0173,捷運松江南京站(7號出口),中山區,松江路/南京東路二段(東北側)(鄰近四平陽光商圈),56,25.052181,121.533211
1,0174,捷運小巨蛋站(5號出口),松山區,南京東路四段/健康路(東北側)(鄰近台北田徑場),48,25.051702,121.553057
1,0175,捷運南京復興站(5號出口),松山區,南京東路三段/南京東路三段256巷(東南側),52,25.051618,121.544847
1,0176,興安華城,中山區,興安街/遼寧街,94,25.055997,121.542318
1,0177,葫蘆國小,士林區,環河北路三段/葫蘆街(東北側),40,25.082538,121.507495
1,0178,延平國宅,士林區,延平北路五段一巷40號前,32,25.078908,121.510306
1,0179,南港公園,南港區,福德街383號對面(南港公園出口前),52,25.041355,121.59073
1,0180,福華商場,內湖區,民權東路六段/民權東路六段180巷(石潭平面停車場內)(鄰近防災科學教育館),40,25.068770,121.592654
1,0181,建國和平路口,大安區,建國南路二段/和平東路二段(西北側),52,25.025850,121.537383
1,0182,捷運古亭站(2號出口),中正區,羅斯福路二段/羅斯福路二段174巷(捷運古亭站2號出口前),50,25.025300,121.523537
1,0183,圓環站,大同區,南京西路/重慶北路一段(西南側)(鄰近寧夏夜市),32,25.053790,121.514179
1,0184,劍潭社區,中山區,通北街143號前,42,25.084759,121.537892
2,0185,瑠公公園,大安區,大安路一段/大安路一段75巷(西側)(鄰近東區地下街),30,25.042342,121.546050
1,0186,臺北市立大學,中正區,愛國西路/公園路(西北側)(鄰近台北市立教育大學),82,25.035414,121.514218
1,0187,仁愛延吉街口,大安區,仁愛路四段/延吉街(東南側)(鄰近大安親子館),34,25.037465,121.555769
1,0188,社子國小,士林區,延平北路六段/社中街(社子國小對面跨提便道橋下),56,25.090293,121.501890
1,0189,金瑞公園(金龍路),內湖區,金龍路213巷1弄7號前,38,25.087987,121.58781
1,0190,捷運大直站(3號出口),中山區,北安路458巷41弄/北安路536巷(捷運大直站3號出口前人行道),40,25.079278,121.546683
1,0191,捷運大湖公園站(2號出口),內湖區,成功路五段/大湖山莊街(大湖公園地下停車場旁)(鄰近大湖公園),58,25.083873,121.60206
1,0192,捷運葫洲站(1號出口),內湖區,康寧路三段/成功路五段450巷21弄(西北側)(捷運葫洲站1號出口前自行車停放區),44,25.072485,121.607955
1,0193,舊莊區民活動中心,南港區,舊莊街一段91巷/舊莊街一段91巷12弄(舊莊區民活動中心前)(鄰近胡適公園),36,25.041277,121.619350
1,0194,市民林森路口,中山區,市民大道二段/林森北路(東北側)(鄰近台北國際藝術村/台北希望廣場),50,25.047958,121.524388
1,0195,信義杭州路口(中華電信總公司),中正區,信義路一段/杭州南路一段(西北側)(鄰近國立中正紀念堂),50,25.035851,121.523987
1,0196,新湖國小,內湖區,民權東路六段/成功路二段320巷31弄(東南側)(鄰近防災科學教育館),20,25.068744,121.589233
1,0197,饒河夜市(八德路側),松山區,八德路/松信路(西南側),34,25.049845,121.571885
1,0201,東陽公園,南港區,重陽路125巷26號至36-2號對面人行道,44,25.057164,121.597924
1,0202,捷運關渡站,北投區,大度路三段270巷/立功街55巷(西南側人行道),60,25.124646,121.467336
1,0203,古亭國中,萬華區,中華路二段465號對面人行道(古亭國中),40,25.024487,121.510570
1,0204,臺北市立大學(天母校區),士林區,士東路276號至280號對面人行道,42,25.113625,121.537420
1,0205,木柵光輝路口,文山區,木柵路一段290號西側人行道(木柵光輝路口),24,24.988241,121.555610
1,0206,捷運辛亥站,文山區,辛亥路四段114號旁人行道(捷運辛亥站),32,25.005386,121.55716
1,0207,福安國中,士林區,延平北路七段250號前人行道(福安國中),30,25.103242,121.487477
1,0208,龍山國小,萬華區,和平西路三段280號對面人行道(龍山國小)(鄰近艋舺夜市(萬華夜市)),46,25.035555,121.495342
1,0209,捷運復興崗站,北投區,中央北路三段17-1號對面人行道 (中央北路三段53巷側),42,25.137837,121.486071
1,0210,樂群二敬業四路口,中山區,樂群二路180號前廣場,60,25.079766,121.558135
1,0211,星雲金湖街口,內湖區,星雲街210巷11號旁平面停車場 ,40,25.080915,121.597339
1,0212,北安大直街口,中山區,北安路676號前人行道 ,50,25.084223,121.549452
1,0213,蘭雅國小,士林區,磺溪街80號~82號對面人行道(蘭雅國小東側),30,25.107782,121.523107
1,0214,基河一期國宅,內湖區,南京東路六段131號至137號對面綠地,54,25.055935,121.578645
1,0215,捷運北門站(3號出口),大同區,鄭州路/塔城街(西南側)(捷運北門站3號出口)(鄰近海關博物館/北門-承恩門),62,25.049930,121.510367
1,0216,培英公園,中山區,崇實路/大直街62巷(東南側),50,25.082553,121.544601
1,0217,臺北花市,內湖區,新湖三路28號前人行道(鄰近台北花市),40,25.062645,121.574267
1,0218,松山高中,信義區,基隆路一段172巷15號對面人行道(松山高中),42,25.043299,121.564108
1,0219,大理高中,萬華區,環河南路二段300號對面人行道(大理高中),38,25.031147,121.490740
1,0220,大稻埕公園,大同區,安西街1巷15號對面人行道(大稻埕公園),36,25.059162,121.510512
1,0221,泰和公園,信義區,吳興街583巷67弄(泰和公園),40,25.019276,121.57107
1,0222,撫順公園,中山區,中山北路2段180號對面(鄰近大同大學/雙城街夜市),30,25.064108,121.522065
1,0223,清江國小,北投區,三合街一段/公館路西南側人行道(清江國小),40,25.127400,121.507267
1,0224,社正公園,士林區,社中街43號對面停車場(社正公園),40,25.088243,121.510535
1,0225,臥龍樂業街口,大安區,臥龍街267號對面人行道(臥龍樂業街口),40,25.018600,121.554839
1,0226,向陽南港路口,南港區,向陽路49號旁人行道(向陽南港路口),32,25.054365,121.594228
1,0227,麗山高中,內湖區,環山路二段131號對面人行道(麗山高中),40,25.084244,121.576680
1,0228,捷運萬芳社區站,文山區,萬芳路60號西側廣場,32,24.998811,121.56789
1,0229,市民太原路口,大同區,鄭州路23號東側人行道(市民太原路口)(鄰近台北地下街/台北車站),34,25.049394,121.514611
1,0230,湖光國宅,內湖區,文德路22巷67號對面綠地,36,25.075366,121.580811
1,0231,內政部營建署,松山區,八德路二段342號東側人行道(鄰近微風廣場/黑松世界),40,25.047805,121.545022
1,0232,中山天母路口,士林區,天母西路3-55號前人行道,44,25.118843,121.529738
1,0233,捷運忠義站,北投區,中央北路四段262號對面人行道,50,25.131411,121.474155
1,0234,永欣綠地,北投區,行義路1號對面停車場,38,25.124162,121.526071
1,0235,市民東興路口,松山區,市民大道五段193號前方人行道(鄰近台北機廠),30,25.048460,121.565928
1,0236,關渡自然公園,北投區,關渡路68號對面人行道,36,25.119292,121.469138
1,0237,文山第二行政中心,文山區,興隆路二段130巷30號對面人行道,38,25.001149,121.551418
1,0238,瑞湖陽光街口,內湖區,瑞湖街101號對面人行道,32,25.073119,121.575965
1,0239,新明路262巷口,內湖區,新明路/新明路262巷口(東側),18,25.056641,121.583403
2,0240,南京建國路口,中山區,南京東路二段/建國北路二段(北側)(鄰近袖珍博物館),58,25.052141,121.536802
1,0241,林口公園,信義區,林口街72號對面公園(林口公園),38,25.038943,121.579146
1,0242,關渡宮,北投區,大度路三段301巷223-5號西北側停車場(鄰近關渡宮),40,25.117472,121.463161
1,0243,社子公園,士林區,永平街20巷37弄/永平街20巷11弄(社子公園南側),30,25.090202,121.506219
1,0244,復興市民路口,中山區,復興南路一段36-9號前人行道(復興市民路口)(鄰近微風廣場/黑松世界),46,25.045908,121.543736
1,0245,捷運中山國中站,中山區,復興北路370號前方人行道(捷運中山國中站),44,25.060632,121.544028
1,0246,國立故宮博物院,士林區,至善路二段155號對面停車場(鄰近至德園),40,25.098743,121.548086
1,0247,木柵公園,文山區,興隆路四段50號前人行道(木柵公園),34,24.987144,121.560627
1,0248,喬治工商,大安區,基隆路二段166號前(喬治工商),32,25.027123,121.555566
1,0249,中華桂林路口,萬華區,中華路一段206號前方廣場(鄰近國軍歷史文物館),32,25.037706,121.506624
1,0250,忠孝東路三段217巷口,大安區,忠孝東路三段221號前方人行道,38,25.041840,121.539873
1,0251,華齡公園,士林區,劍潭路80對面公園(華齡公園),36,25.083023,121.520692
1,0252,大安運動中心,大安區,辛亥路三段55號前方人行道(大安運動中心)(鄰近國立臺北教育大學),34,25.020544,121.545608
1,0253,芝山抽水站,士林區,至誠路二段80號對面人行道(芝山抽水站)(鄰近雙溪生活水岸自行車道),34,25.101423,121.527990
1,0254,立功立德路口,北投區,立功街/立德路(西南側人行道),58,25.125377,121.471482
1,0255,光復南路22巷口,松山區,光復南路23號對面人行道,30,25.046914,121.557674
1,0256,中山中正路口,士林區,中山北路五段609-625號前人行道(中山中正路口)(鄰近福林公園),40,25.096507,121.527526
1,0257,錦德公園,萬華區,德昌街243號對面公園(錦德公園),34,25.023316,121.492637
1,0258,聯合醫院中興院區,大同區,長安西路299-2號對面人行道(鄰近海關博物館),40,25.052096,121.507979
1,0259,南京遼寧街口,中山區,南京東路三段189號對面(南京遼寧街口東南側)(鄰近遼寧夜市),36,25.051761,121.542168
1,0260,民權瑞光路口,內湖區,民權東路六段50號前人行道,36,25.068616,121.583991
1,0261,健康新城,松山區,健康路177號前人行道(健康新城),44,25.054095,121.560928
1,0262,永安藝文館-表演36房,文山區,木新路二段156號前人行道(永安市場),28,24.984144,121.569064
1,0263,至善臨溪路口,士林區,至善路一段/臨溪路(東南側),38,25.097103,121.542153
1,0264,秀山區民活動中心,北投區,秀山路50號北側道路路側,28,25.145936,121.493009
1,0265,中央北路四段30巷口,北投區,中央北路四段30巷8號對面路側(鄰近北投行天宮),30,25.135394,121.478000
1,0266,洲子一號公園,內湖區,基湖路32號南側公園,34,25.080258,121.564806
1,0267,八德中坡路口,南港區,八德路四段869號前方人行道(鄰近饒河街夜市),38,25.050620,121.580194
1,0268,南港高工,南港區,興中路29號前方人行道,30,25.056655,121.607055
1,0269,三軍總醫院,內湖區,成功路二段/成功路二段323巷東北角人行道(鄰近防災科學教育館),30,25.070723,121.590304
1,0270,雨農國小,士林區,忠義街6號對面人行道(雨農國小)(鄰近芝山岩/芝山巖惠濟宮/芝山文化生態綠園),34,25.105429,121.529217
1,0271,伊通長安路口,中山區,伊通街/長安東路二段(交叉口西南側路側)(鄰近袖珍博物館/樹火紀念紙博物館),28,25.048334,121.534693
1,0272,忠順區民活動中心,文山區,忠順街二段22號前方人行道(忠順區民活動中心),32,24.984707,121.563125
1,0273,芝山國小,士林區,德行東路/德行東路283巷東北角人行道(芝山國小),38,25.110437,121.535954
1,0274,扶輪親恩公園,內湖區,民權東路六段13之15號對面人行道(民權大橋)(鄰近華生水水體驗館),34,25.066997,121.579833
1,0275,西本願寺廣場,萬華區,中華路一段/長沙街二段路口西南側人行道(西本願寺)(鄰近國軍歷史文物館/中山堂/西門紅樓),58,25.040988,121.507688
1,0276,三興公園,信義區,吳興街118巷35弄28號前方(三興公園),38,25.028679,121.559320
1,0277,中山堂,中正區,延平南路/武昌街一段東南角人行道(延平武昌街口)(鄰近中山堂/西門町),32,25.044091,121.510250
1,0278,明美公園,內湖區,石潭路/南京東路六段451巷口西南人行道綠帶(明美公園),32,25.062557,121.586065
1,0279,南港車站(興華路),南港區,市民大道八段/興華路口西北側人行道(鄰近南港高鐵站),48,25.053432,121.606331
1,0280,士林新天地,士林區,大南路325號前方人行道,28,25.089034,121.517320
1,0281,松江公園,中山區,松江路/松江路84巷(西北側路側)(鄰近樹火紀念紙博物館),32,25.050245,121.532725
1,0282,富台公園,信義區,松信路209號前人行道,30,25.041935,121.571999
1,0283,中央北路四段540巷口,北投區,中央北路四段529號對面,32,25.127959,121.467700
1,0284,華聲公園,士林區,華聲街17號南側路側(全聯),44,25.096166,121.522096
1,0285,螢橋國小,中正區,泉州街32號對面人行道(螢橋國小),40,25.025966,121.513770
1,0286,德明財經科技大學,內湖區,環山路一段56號對面(德明財經科技大學),44,25.086372,121.565713
1,0287,第二果菜批發市場,中山區,民族東路410巷1號 對面 遷到 民族東路410巷2弄20號 東側,40,25.066424,121.537354
1,0288,濟南紹興路口,中正區,濟南路一段/紹興南街口東南側(鄰近蝴蝶宮昆蟲博物館/國立台北商業技術學院),62,25.041928,121.524591
1,0289,牯嶺公園,中正區,廈門街113巷/牯嶺街口西側,44,25.023377,121.518835
1,0290,新生公園,中山區,民族東路/吉林路口(西北側)(鄰近花博公園新生園區),26,25.068387,121.530188
1,0291,捷運松山站(3號出口),松山區,松山路/市民大道六段(西北側捷運3號出口)(鄰近饒河街夜市/彩虹橋),50,25.049616,121.577459
1,0292,合心廣場,南港區,玉成街80號(對面),40,25.046361,121.582848
1,0293,自來水園區,中正區,中正區思源街16號對面人行道(鄰近自來水博物館/自來水園區),40,25.013284,121.530037
1,0294,朱崙商場,中山區,龍江路15號前方人行道(鄰近遼寧夜市),36,25.047617,121.540431
1,0295,敦親公園,大安區,和平東路二段96巷8之1號(前方)(鄰近資訊科學展示中心),26,25.023473,121.541083
1,0296,萬和二號公園,文山區,萬隆街255號(對面),32,25.001545,121.536446
1,0297,長沙公園,萬華區,環河南路一段280號之1(東側)(鄰近艋舺青山宮),26,25.041702,121.499922
1,0298,太原五原路口,大同區,太原路 / 五原路口(東南側)(鄰近寧夏夜市),32,25.056458,121.516976
1,0299,萬華國中,萬華區,西藏路 / 莒光路299巷口(東南側),32,25.029264,121.499358
1,0300,信義基隆路口,信義區,信義路四段401號(前方)(鄰近台北國際會議中心),28,25.033209,121.558731
1,0301,林森長春路口,中山區,林森北路/長春路口西北角人行道(林森長春路口)(鄰近林森公園/康樂公園),28,25.055062,121.525383
1,0302,敦北公園,松山區,敦化北路 / 富錦街口(東北側),40,25.060746,121.550711
1,0303,安泰街83巷,內湖區,安泰街83巷3號對面,34,25.076691,121.617085
1,0304,金華公園,大安區,金華街251號對面(金華公園)(鄰近永康街),32,25.029902,121.531235
1,0305,碧山公園,內湖區,內湖路三段60巷8弄1號(東南側),46,25.087413,121.592253
1,0306,捷運古亭站(6號出口),大安區,羅斯福路二段 / 羅斯福路二段15巷口(西側),52,25.027781,121.521980
1,0307,仁愛安和路口,大安區,仁愛路四段 / 仁愛路四段222巷(東南側),30,25.037570,121.552076
1,0308,西松高中,松山區,健康路325巷 / 健康路325巷12弄口(東北側),30,25.055672,121.567127
1,0309,三軍總醫院(松山分院),松山區,光復北路 / 光復北路190巷口(東南側),38,25.054470,121.556098
1,0310,國立臺北大學(臺北校區),中山區,民生東路三段 / 復興北路280巷10弄口(西北側),32,25.057923,121.542732
1,0311,捷運忠孝新生站(2號出口),中正區,忠孝東路二段123號對面(捷運忠孝新生站2號出口)(鄰近光華數位新天地(光華商場)),30,25.042392,121.532229
1,0312,捷運信義安和站(1號出口),大安區,信義路四段 / 安和路一段口(東北側),34,25.033323,121.552787
1,0313,光華商場,中正區,市民大道三段/新生北路一段路口西南側人行道(光華商場)(鄰近光華數位新天地(光華商場)/三創生活園區),64,25.045150,121.532738
1,0314,敦化長春路口,松山區,敦化北路 / 敦化北路120巷口(西南側)(鄰近臺北小巨蛋),34,25.053614,121.548720
1,0315,捷運萬隆站(1號出口),文山區,羅斯福路五段 / 羅斯福路五段236巷口(南側),38,25.001447,121.539037
1,0316,民有一號公園,松山區,敦化北路244巷 / 民權東路三段160巷口(西南側),34,25.060911,121.547630
1,0317,雙園國中,萬華區,西園路二段320巷 / 興義街(西北側),30,25.026823,121.491675
1,0318,成功金龍路口,內湖區,成功路四段/金龍路口(捷運內湖站1號出口),30,25.084135,121.594840
1,0319,民族林森路口,中山區,民族東路 / 林森北路口(西北側)(鄰近花博公園美術園區),38,25.068507,121.525322
1,0320,捷運南京三民站(3號出口),松山區,南京東路五段204號(前方),28,25.051287,121.564262
1,0321,莒光大埔街口,中正區,莒光路/大埔街口東北側(莒光大埔街口)(鄰近南機場夜市),32,25.031334,121.505085
1,0322,永盛公園(民生東路一段23巷),中山區,民生東路一段23巷 / 民生東路一段27巷口(北側),30,25.058835,121.525040
1,0323,新興公園,中山區,錦州街13巷 / 中山北路二段137巷口(東南側)(鄰近雙城街夜市),26,25.061568,121.524392
1,0324,市立圖書館葫蘆堵分館,士林區,延平北路5段136巷4號對面,24,25.082210,121.510800
1,0325,南京東路六段368巷,內湖區,南京東路六段368巷30號對面人行道,40,25.058270,121.587070
1,0326,基隆路一段101巷口,信義區,基隆路一段 / 基隆路一段101巷口(東南側),30,25.045250,121.567090
1,0327,重慶南海路口,中正區,重慶南路二段45號前方(郵政博物館前)(鄰近郵政博物館/國立台灣藝術教育館),24,25.031580,121.514640
1,0328,一江公園,中山區,一江街 / 松江路132巷口(西北側)(鄰近四平陽光商圈),36,25.053160,121.531460
1,0329,樂群二明水路口,中山區,樂群二路 / 明水路口(東側),34,25.079830,121.552360
1,0330,迪化休閒運動公園,大同區,延平北路四段200號(南側),28,25.074910,121.511500
1,0331,民族玉門街口,中山區,民族西路 / 民族西路31巷口(東北側)(鄰近大同大學/花博公園圓山園區/花博圓山公園區-爭艷館/中山親子館),34,25.068590,121.519740
1,0332,捷運中山站(2號出口),中山區,南京西路6號(前方)(鄰近台北之家(光點台北)),34,25.052250,121.521930
1,0333,復盛公園,松山區,八德路四段106巷6弄2號(東側)(鄰近京華城/中保寶貝城(BabyBoss City)/台北機廠),28,25.047428,121.561182
1,0334,敦化南路二段103巷口,大安區,敦化南路二段97-101號(西側),24,25.028973,121.549024
1,0335,景文中學,文山區,保儀路/木柵路三段102巷口(西南側),32,24.986301,121.567855
1,0336,承德路三段8巷口,大同區,承德路三段12號(前方),22,25.063820,121.518150
1,0337,彩虹橋,內湖區,潭美街27號西側(行善公園東南角)(鄰近饒河街夜市/彩虹橋),30,25.053010,121.575920
1,0338,成德國中,南港區,東新街108巷10之1號(西側),32,25.045730,121.587940
1,0339,重慶國中,大同區,敦煌路68號(北側),34,25.075810,121.518160
1,0340,南京光復路口,松山區,南京東路四段182號(北側),22,25.051430,121.557160
1,0341,捷運芝山站(1號出口),士林區,文林路 / 福華路口(東側),38,25.100940,121.522430
1,0342,文林建民路口,北投區,文林北路224-238號(東南側),30,25.107790,121.514680
1,0343,忠孝東路六段185巷口,南港區,忠孝東路六段187號(東南側),30,25.049040,121.587550
1,0344,捷運忠孝復興站(5號出口),大安區,復興南路一段133號(西南側)(鄰近東區地下街),42,25.042640,121.544010
1,0345,中正運動中心,中正區,信義路一段1號(西側)(鄰近臺北市青少年發展處/中正親子館),52,25.038060,121.519430
1,0346,陽明高中,士林區,中正路510號(西南側),36,25.091570,121.516690
1,0347,博愛寶慶路口,中正區,博愛路 / 寶慶路口(西北側)(鄰近總統府/中山堂),26,25.041340,121.511350
1,0348,民生立體停車場,松山區,民生東路五段82號(東側),24,25.058522,121.55942
1,0349,重慶酒泉街口,大同區,重慶北路三段272號(東側)(鄰近保安宮),28,25.071830,121.513640
1,0350,復興南路二段128巷口,大安區,復興南路二段144-3號前方,32,25.029040,121.543360
1,0351,中山青島路口,中正區,中山南路 / 青島東路口東北側,38,25.044690,121.519540
1,0352,民權迪化街口,大同區,迪化街一段351號(東北側)(鄰近延三夜市(大橋頭夜市)),46,25.063180,121.509440
1,0353,紀州庵,中正區,水源路 / 同安街口 (東側),30,25.020880,121.520490
1,0354,建國濟南路口,大安區,建國南路一段/濟南路三段口(東南側),28,25.040033,121.538084
1,0355,福山公園,南港區,研究院路二段61巷15號(東側),34,25.044780,121.617590
1,0356,臺北市網球中心,內湖區,民權東路六段/民權東路六段210巷口(西南側),32,25.067400,121.597490
1,0357,松友公園,信義區,信義路六段76巷2弄16號(南側),26,25.034230,121.576360
1,0358,新明成功路口,內湖區,新明路/成功路二段口(西南側),30,25.060580,121.591100
1,0359,健安新城,松山區,三民路41號(東側),34,25.056010,121.563580
1,0360,民權建國路口,中山區,民權東路三段/建國北路三段口(東北側)(鄰近建國假日花市),44,25.062520,121.537540
1,0361,振興醫院,北投區,振興街/明德路口(西北側)(鄰近國立臺北護理健康大學),32,25.117700,121.522200
1,0362,和平金山路口,大安區,和平東路一段 / 金山南路二段口(西南側)(鄰近臺灣師範大學),30,25.026720,121.525330
1,0363,復興南路一段340巷口,大安區,復興南路一段322號(東南側),32,25.036170,121.543500
1,0364,嘉興公園,大安區,樂業街101巷 / 樂業街口(北側側),38,25.021090,121.552190
1,0365,陽明大學,北投區,東華街二段136號(南側),50,25.119120,121.512230
1,0366,碧湖公園,內湖區,內湖路二段/內湖路二段103巷口(東北側)(鄰近碧湖公園),42,25.079880,121.582870
1,0367,豐年公園,北投區,大業路539號(東側),30,25.135970,121.497019
1,0368,臺灣戲曲中心,士林區,文林路751號(南側)(鄰近臺灣戲曲中心),44,25.102080,121.519790
1,0369,世新大學,文山區,木柵路一段17巷1號(西側),34,24.988620,121.543610
1,0370,新和國小,萬華區,中華路二段416巷/萬大路277巷37弄口(東側),32,25.026560,121.502420
1,0371,南門國中,中正區,廣州街8巷/廣州街口(東南側),38,25.035320,121.508340
1,0372,重慶民族路口,大同區,重慶北路三段154號(前方/東側),26,25.068250,121.513590
1,0373,中崙福成宮,松山區,市民大道四段63號(鄰近微風廣場/黑松世界),32,25.045250,121.546635
1,0374,麗湖國小,內湖區,金湖路363巷5號對側,34,25.073322,121.602225
1,0375,銘傳大學,士林區,中山北路五段250號(銘傳大學對側)(鄰近銘傳大學/士林夜市),48,25.087714,121.526766
1,0376,民生建國路口,中山區,民生東路三段 / 建國北路二段口,36,25.057778,121.536915
1,0377,南港路二段178巷口,南港區,南港路二段 / 南港路二段178巷口(北側),30,25.053675,121.599693
2,0378,陽光街321巷口,內湖區,陽光街321巷 / 陽光街口(南側),42,25.073193,121.578691
1,0379,春光公園,信義區,忠孝東路五段721號(對側),38,25.042619,121.580762
1,0380,塔悠疏散門,松山區,塔悠路 / 撫遠街389巷口(南側),30,25.064713,121.567899
1,0381,民權東路六段15巷,內湖區,民權東路六段15巷35號,30,25.068530,121.578125
1,0382,聯合醫院和平院區,中正區,中華路二段33號(南側),42,25.035160,121.506390
1,0383,一壽橋,文山區,樟新街64號前方,26,24.978480,121.555450
1,0384,松基公園,松山區,長春路339巷 / 復興北路189巷口,30,25.054910,121.544800
1,0385,和興路26巷口,文山區,和興路44巷 / 和興路26巷口,40,24.985600,121.545310
1,0386,錦州吉林路口,中山區,錦州街162號前方,30,25.060290,121.529810
1,0387,吳興街260巷,信義區,吳興街260巷 / 吳興街260巷19弄口(鄰近台北醫學大學),32,25.026100,121.563160
1,0388,景華街128巷口,文山區,景華街126號前方,24,24.995563,121.547092
1,0389,福德國小,信義區,福德街251巷2號(對面/東側),30,25.038324,121.586245
1,0390,稻香重三路口,北投區,稻香路 / 稻香路43巷口(西北側),34,25.139937,121.489594
1,0391,景仁公園,文山區,景仁街 / 羅斯福路六段142巷口(北側),30,24.996600,121.540295
1,0392,南京東興路口,松山區,南京東路五段 / 東興路口(北側),30,25.051489,121.565347
1,0393,內溝溪生態展示館,內湖區,康樂街236之3號(西北側),24,25.087217,121.623062
1,0394,松德虎林街口,信義區,松德路71號前方,32,25.038352,121.576248
1,0395,安強公園,信義區,虎林街212巷58號(西南側),28,25.036844,121.575413
1,0396,新東街51巷口,松山區,三民路 / 新東街51巷口(東側)(鄰近松山親子館),28,25.061501,121.563318
1,0397,劍潭海外青年活動中心,士林區,通河街 / 通河街2巷(南側)(鄰近圓山大飯店/劍潭公園)(鄰近芝山岩/芝山巖惠濟宮/芝山文化生態綠園),36,25.079603,121.523700
1,0398,聯合醫院陽明院區,士林區,雨聲街105號(南側),30,25.104546,121.531949
1,0399,和平龍泉街口,大安區,和平東路一段178號(前側)(鄰近臺灣師範大學),34,25.026404,121.529460
1,0400,和平敦化路口,大安區,和平東路三段 / 敦化南路二段口(東側),34,25.024440,121.549076
1,0401,南京新生路口,中山區,新生北路一段 / 南京東路一段口(橋墩下方)(鄰近林森公園/康樂公園),34,25.051944,121.527661
1,0402,下灣公園,內湖區,民權東路六段206巷 / 民權東路六段190巷75弄口,28,25.065159,121.595611
1,0403,捷運內湖站(1號出口),內湖區,成功路四段182巷 / 成功路四段182巷6弄口(東南側),28,25.083868,121.593929
1,0404,民族延平路口,大同區,民族西路 310 號前方,30,25.068653,121.510569
1,1001,大鵬華城,新店區,新北市新店區中正路700巷3號,38,24.99116,121.53398
1,1002,汐止火車站,汐止區,南昌街/新昌路口(西側廣場),56,25.068914,121.662748
1,1003,汐止區公所,汐止區,新台五路一段/仁愛路口(新台五路側汐止地政事務所前機車停車場),46,25.064162,121.658301
1,1004,國泰綜合醫院,汐止區,建成路78號對面停車場,56,25.07315,121.662555
1,1005,裕隆公園,新店區,寶中路/品牌路口(東南側),40,24.979649,121.546319
1,1006,捷運大坪林站(5號出口),新店區,中興路三段224號(對面),94,24.982830,121.543620
1,1007,汐科火車站(北),汐止區,大同路二段184巷/龍安路202巷(西側)(汐科火車站北站出口前),34,25.064106,121.653019
1,1008,興華公園,三重區,重陽路一段120巷/中華路2巷,40,25.060125,121.483101
1,1009,三重國民運動中心,三重區,集美街/重新路四段184巷,68,25.054391,121.488489
1,1010,捷運三重站(3號出口),三重區,捷運路/捷運路37巷,34,25.055883,121.484739
1,1011,樟樹國小,汐止區,樟樹二路/樟樹一路141巷,48,25.066688,121.640367
1,1012,金龍國小,汐止區,中興路/民族六街,52,25.0688,121.628908
1,1013,白雲國小,汐止區,民權街二段90號,46,25.047578,121.618888
1,1014,東勢宜興活動中心,汐止區,東勢街/芳園街,52,25.039031,121.624333
1,1015,後港公園,新莊區,建安街/建安街57巷,40,25.025358,121.428348
1,1016,福營行政中心,新莊區,四維路17號-20號,42,25.0241250,121.423870
1,1017,西盛公園,新莊區,新莊區西盛街/西盛街201巷,36,25.017113,121.428048
1,1018,忠誠里(北新路2段97巷),新店區,北新路二段/北新路二段97巷,40,24.974272,121.542779
1,1019,仁愛廣場,蘆洲區,民權路139號旁,50,25.090565,121.471621
1,1020,重陽國小,三重區,中正北路/三民街175巷,42,25.066245,121.484337
1,1021,明志國中,三重區,中正北路107號,50,25.063396,121.488982
1,1022,三重商工,三重區,中正北路/中正北路276巷,64,25.068681,121.480705
1,1023,捷運新莊站(1號出口),新莊區,中正路/中華路一段(鄰近新莊廟街),58,25.036152,121.452069
1,1024,原興廣場,汐止區,原興路/中興路150巷,52,25.065042,121.633149
1,1025,文化白雲公園,汐止區,水源路二段42號訖水源路二段68號,76,25.056875,121.655207
1,1026,秀山國小,中和區,更生街/自立路(西南側),62,24.996151,121.521988
1,1027,捷運永安市場站,中和區,中安街/中和路378巷(東南側),72,25.001013,121.511588
1,1028,福和國中,永和區,永貞路/永亨路(東南側),66,25.005952,121.520930
1,1029,仁愛公園,永和區,仁愛路/保生路(鄰近世界宗教博物館),60,25.009838,121.505825
1,1030,中和公園,中和區,安樂路/得和路(西南側),46,25.000726,121.514350
1,1031,金龍公園,汐止區,湖前街31巷2弄/湖前街31巷,52,25.069473,121.631525
1,1032,重陽公園,蘆洲區,集賢路221巷重陽活動中心(鄰近蘆洲兒童親子分館),50,25.085688,121.483618
1,1033,捷運三民高中站(1號出口),蘆洲區,三民路105號(鄰近湧蓮寺/紫禁城博物館),78,25.085815,121.472722
1,1034,中原公園,蘆洲區,長興路22號前通道,58,25.083316,121.463894
1,1035,丹鳳派出所,新莊區,雙鳳路77巷丹鳳派出所前,38,25.027694,121.414662
1,1036,小金門友誼公園,新店區,民族路/建興街,60,24.977227,121.538140
1,1037,中興寶橋路口,新店區,中興路三段1號旁,52,24.976180,121.546870
1,1038,新莊棒球場,新莊區,和興街75號/復興路一段23號(鄰近新莊綜合運動場),74,25.041603,121.446053
1,1039,頂溪國小,永和區,文化路133號(西側)(鄰近永和親子圖書閱覽室),44,25.015811,121.511261
1,1040,永和國小,永和區,中正路390號至426號對面,38,25.002272,121.517442
1,1041,秀朗國小,永和區,民生路15號至23號對面,48,24.999392,121.522843
1,1042,台北慈濟醫院,新店區,建國路289號旁空地,40,24.985872,121.536887
1,1043,捷運頂溪站(1號出口),永和區,中興街1號對面,36,25.012176,121.515271
1,1044,保安永平路口,永和區,保安路248號至250號對面,42,25.012691,121.506471
1,1045,崇光女中,新店區,三民路14號至三民路18號,36,24.972127,121.539554
1,1046,新店高中,新店區,三民路159巷/三民路108號(對面人行道),42,24.974181,121.534209
1,1047,新莊文化藝術中心,新莊區,中平路133號前(鄰近新莊文化藝術中心),48,25.047150,121.444453
1,1048,中華中原路口,新莊區,中原路/中華路二段,58,25.054232,121.451752
1,1049,新北高中,三重區,三信路1號旁,60,25.087225,121.489525
1,1050,福壽公園,新莊區,福壽街130號至140號(對面福壽公園),36,25.051829,121.457746
1,1051,保長公園,汐止區,保長路/保長路45巷,60,25.079523,121.674342
1,1052,新店公有中央市場,新店區,中央四街64號對面,36,24.975308,121.527287
1,1053,永平高中,永和區,永平路/永平路203巷口(靠學校圍牆路側)(鄰近樂華夜市/世界宗教博物館),34,25.009790,121.509092
1,1054,惠國市場,新店區,中正路75巷至中正路95巷間(鄰近馬公友誼公園),36,24.970415,121.543384
1,1055,陽光橋,新店區,溪園路/中山路,40,24.978494,121.524176
1,1056,中興寶慶街口,新店區,中興路三段/寶慶街,50,24.986942,121.541950
1,1057,東方科學園區,汐止區,新台五路一段90-116號,52,25.061262,121.649512
1,1058,連興龍安路口,汐止區,連興路/龍安路28巷,70,25.062989,121.654430
1,1059,青山國民中小學,汐止區,莊敬街33號,50,25.061034,121.655586
1,1060,汐止區綜合運動場,汐止區,汐科路/秀峰路,44,25.066238,121.659067
1,1061,汐止公園,汐止區,大同路二段451號,52,25.067682,121.659763
1,1062,保順環河西路口,永和區,保順環河西路口,58,25.010786,121.503376
1,1063,台灣科學園區,汐止區,大同路一段237號前空地,40,25.057900,121.634899
1,1064,中正國小,新店區,三民路36號-42-1號前機車格,32,24.971496,121.536296
1,1065,開元市民活動中心,三重區,開元街58號/長元街65巷16弄對面,42,25.066074,121.503557
1,1066,雍和科學園區,汐止區,南陽街185號,44,25.058078,121.626018
1,1067,二重國小,三重區,頂崁街164號至188號(對面二重國小),46,25.065976,121.477656
1,1068,二重國中,三重區,忠孝路三段75巷1號至忠孝路三段75巷11號(對面人行道),70,25.065957,121.480465
1,1069,三重行政中心,三重區,新北大道一段15巷至新北大道一段5巷2弄(區公所人行道),44,25.060566,121.488229
1,1070,新北市立圖書館三重分館,三重區,自強路一段162號至自強路一段二弄4號(對面停車場),50,25.066099,121.495529
1,1071,三張公園,三重區,大智街127號至大智路137號(對面三張公園),40,25.070507,121.490935
1,1072,捷運丹鳳站(1號出口),新莊區,中正路/民安路,46,25.029032,121.422799
1,1073,永福橋,永和區,豫溪街217巷27號對面人行道,50,25.010032,121.524184
1,1074,中港國小,新莊區,中和街70號對面,50,25.045673,121.44780
1,1075,六合公園,三重區,自強路二段74巷27號對面,40,25.069499,121.487588
1,1076,正義公園,三重區,文化北路101號至119號對面,52,25.068551,121.497818
1,1077,捷運徐匯中學站(1號出口),蘆洲區,中山一路3號(捷運徐匯中學站1號出口旁),56,25.080468,121.479852
1,1078,黃城公園,新莊區,中信街74號旁,38,25.052382,121.448239
1,1079,捷運菜寮站(3號出口),三重區,重新路三段67號旁,30,25.060471,121.492198
1,1080,捷運三和國中站(1號出口),三重區,三和路四段95號至97號對面(捷運三和國中站1號出口),88,25.075881,121.487795
1,1081,中和國民運動中心,中和區,和城路一段/中正二橋,50,24.993477,121.487692
1,1082,四維公園,新莊區,四維路181號對面(四維活動中心出口前),40,25.021308,121.422185
1,1083,蘆洲國民運動中心,蘆洲區,長興路237巷/長興路,42,25.091945,121.461613
1,1084,和平公園,三重區,忠孝路二段/忠孝路二段32巷,36,25.070884,121.485712
1,1085,三重綜合體育館,三重區,新北大道一段1號前人行道,52,25.061446,121.491926
1,1086,信義公園,三重區,信義西街18號對面人行道(鄰近三和夜市),36,25.064804,121.498749
1,1087,捷運小碧潭站(1號出口),新店區,捷運小碧潭站1號出口旁西側人行道(環河路側)(鄰近小碧潭景觀廣場),44,24.97152,121.53029
1,1088,秀得里(成功路二段),永和區,成功路二段28號至34號,28,25.000705,121.526729
1,1089,永平公園,蘆洲區,永樂街38巷42弄公園人行道(永平市場南側),44,25.089987,121.459424
1,1090,永康公園,蘆洲區,長安街297號(對面),34,25.084920,121.458210
1,1091,頭前運動公園,新莊區,頭成街165號對面人行道,50,25.052180,121.462124
1,1092,頭前國中,新莊區,中原路3至9號對面人行道,42,25.054464,121.459318
1,1093,建國民權路口,新店區,建國路259號前人行道,46,24.983184,121.537462
2,1094,聯邦公園,三重區,三民街/中華路,48,25.064447,121.483710
1,1095,捷運蘆洲站,蘆洲區,三民路/中正路口,92,25.091637,121.464031
1,1096,集成成功路口,三重區,集成路2號至8號前人行道,32,25.051542,121.488208
1,1097,板橋國民運動中心,板橋區,英士路/智樂路,44,25.022235,121.458152
1,1098,永安公園,板橋區,雙十路一段25號前人行道,38,25.024478,121.477572
1,1099,捷運江子翠站(3號出口),板橋區,文化路二段/雙十路二段(鄰近石雕公園/板橋農村公園),44,25.029729,121.472359
1,1100,音樂公園,板橋區,大同街97號對面公園人行道,48,25.028631,121.480460
1,1101,捷運七張站(1號出口),新店區,北新路二段/北新路二段121巷,42,24.974996,121.542767
1,1102,北新國小,新店區,寶橋路8號前人行道,44,24.974233,121.544428
1,1103,捷運新埔站(2號出口),板橋區,文化路一段318號旁廣場,40,25.022095,121.467598
1,1104,聯合醫院板橋院區,板橋區,龍泉街131號旁人行道(立體停車場前),34,25.023832,121.457773
2,1105,捷運板橋站(3號出口),板橋區,文化路一段117號對面人行道(鄰近板橋高鐵站),68,25.014797,121.462051
1,1106,民生公園,板橋區,民生路一段/民生路一段30巷,42,25.013087,121.475894
2,1107,新北市政府(新府路),板橋區,新府路1號對面人行道(鄰近板橋高鐵站/新北市市民廣場),56,25.012374,121.464224
2,1108,捷運板橋站(1號出口),板橋區,縣民大道二段3號(秀泰影城門口)(鄰近板橋高鐵站),102,25.013174,121.461900
1,1109,板橋地政事務所,板橋區,實踐路5號對面,52,25.007983,121.463387
1,1110,板橋戶政事務所,板橋區,中正路6號前人行道(鄰近林家花園(林本源園邸)/大觀義學(大觀書社)),44,25.012839,121.456308
1,1111,板橋和平公園,板橋區,重慶路355號前廣場,40,24.997679,121.464326
1,1112,碧華公園,三重區,溪尾街303號(對面公園),36,25.083741,121.487491
1,1113,五福里(五華街),三重區,五華街64號對面人行道(碧華國中旁),52,25.081725,121.493902
1,1114,同安公園,三重區,正義南路/同安東街(正義南路側公園廣場)(鄰近新北市眷村文化園區（空軍三重一村）),30,25.057320,121.499067
1,1115,中華里(中華路二段),新莊區,中華路2段31號對面,38,25.045951,121.453766
1,1116,中華自治街口,新莊區,中華路2段/自治街口人行道(中港大排東側),36,25.047855,121.453202
1,1117,捷運府中站(3號出口),板橋區,府中路31號至53號對面(鄰近板橋慈惠宮/府中商圈(板橋後站商圈)),42,25.008999,121.458776
1,1118,捷運亞東醫院站(2號出口),板橋區,南雅南路二段122-23號前人行道,52,24.997830,121.452315
1,1119,新泰公園,新莊區,建中街116巷/建中街116巷3弄,42,25.037200,121.444946
1,1120,上林里(環河東路一段),永和區,環河東路一段/竹林路75巷25弄,38,25.014999,121.520951
1,1121,進安公園,三重區,仁義街258號至290號,34,25.086031,121.493774
1,1122,自強溪尾街口,三重區,自強路4段/溪尾街,40,25.078220,121.490157
1,1123,捷運三重國小站,三重區,仁愛街/三和路3段11巷,52,25.070418,121.497126
1,1124,五堵火車站,汐止區,鄉長路一段人行道側,68,25.077493,121.666869
1,1125,捷運南勢角站(4號出口),中和區,捷運路3號(對面)(鄰近興南夜市),76,24.989420,121.509950
1,1126,柳堤公園,蘆洲區,長樂路125號對面公園通道,42,25.087989,121.462192
1,1127,新北市立圖書館總館,板橋區,貴興路119巷(鄰近新北市立圖書館總館),36,25.001583,121.455524
1,1128,永福國小,三重區,永福街/下竹圍街,36,25.077714,121.480315
1,1129,明志國小,泰山區,明志路二段324號對面人行道(鄰近明志書院),64,25.045729,121.426269
1,1130,蘆洲三民公園,蘆洲區,三民路615號對面人行道(鄰近大台北都會公園),34,25.094306,121.460134
1,1131,臺北醫院,新莊區,思源路131號至137號前人行道,34,25.043536,121.459772
1,1132,重新重安街口,三重區,重新路三段/重安街,36,25.058443,121.489751
1,1133,柴埕市民活動中心,新店區,安民街/安民街65巷,38,24.966775,121.516479
1,1134,思賢國小,新莊區,福樂街66號對面,52,25.046446,121.457716
1,1135,莊敬公園,板橋區,萬板路/民生路二段(鄰近板橋萬板親子圖書閱覽室),38,25.020983,121.470821
1,1136,豐年國小,新莊區,瓊泰路161號對面人行道,34,25.031278,121.443230
1,1137,新海長江路口,板橋區,長江路一段/新海路,36,25.02853,121.457367
1,1138,捷運新埔站(4號出口),板橋區,民生路二段250號前人行道,50,25.023491,121.468559
1,1139,板橋仁愛公園,板橋區,國慶路49巷23號對面,52,24.996430,121.459696
1,1140,泰山國小,泰山區,泰林路2段257號旁人行道,32,25.062345,121.431475
1,1141,縣民民族路口,板橋區,縣民大道一段/民族路(鄰近府中商圈(板橋後站商圈)),36,25.010012,121.461097
1,1142,光華東帝士,新莊區,民安西路370號至376號前,40,25.010795,121.427836
1,1143,廣福公園,板橋區,廣權路/廣和街,38,24.991643,121.462872
1,1144,板橋四維公園,板橋區,陽明街251號至259號對面人行道,54,25.025464,121.462633
1,1145,捷運頂埔站(2號出口),土城區,新北市土城區中央路四段53號(前),52,24.959276,121.419008
1,1146,龍門龍濱路口,三重區,龍濱路192號對面,36,25.073475,121.500977
1,1147,青潭國小,新店區,北宜路2段149號對面,40,24.953101,121.551813
1,1148,金城忠義路口,土城區,金城路一段/忠義路,34,24.969399,121.440808
1,1149,華德公園,板橋區,四川路二段245巷60號對面,38,24.991683,121.453320
1,1150,橋東里(忠孝東路),汐止區,忠孝東路484號至488號前,40,25.073682,121.666257
1,1151,中山國中,板橋區,文化路一段188巷56號,36,25.018559,121.467509
1,1152,捷運土城站(2號出口),土城區,金城路1段/和平路,52,24.972631,121.443563
1,1153,四川遠東路口,板橋區,遠東路5號前人行道(四川路側),48,24.998003,121.457355
1,1154,員林社區公園,土城區,員林街12巷對面,42,24.977883,121.443237
1,1155,中正橋,永和區,環河東路一段/光復街(鄰近楊三郎美術館),30,25.017757,121.516809
1,1156,北港國小,汐止區,汐萬路二段279號,44,25.089027,121.645946
1,1157,捷運新店站,新店區,中興路一段34號前(高架橋下停車場),54,24.958605,121.538659
1,1158,錦和運動公園,中和區,錦和路163號,36,24.992086,121.490671
1,1159,新樹公園,新莊區,新樹路627號對面,32,25.003383,121.433154
1,1160,中和環球購物中心,中和區,中山路三段130號,40,25.006367,121.474223
1,1161,楓樹腳公園,泰山區,楓江路26巷26號前人行道(鄰近泰山親子圖書閱覽室),36,25.061938,121.434939
1,1162,厚德公園,三重區,忠孝路一段37號,36,25.071988,121.491200
1,1163,板橋信義公園,板橋區,四川路二段6號對面(鄰近玉美人孕婦裝觀光工廠),40,24.996183,121.456476
1,1164,國光里(國光路),板橋區,國光路76號旁,34,25.017755,121.458308
1,1165,民生長江路口,板橋區,民生路三段/長江路一段(64高架橋下方),100,25.030904,121.463596
1,1166,華福市民活動中心,中和區,民德路296號對面停車格位,36,24.995482,121.467525
1,1167,浮洲合宜住宅(合安一路),板橋區,合安一路/大觀路二段153巷,34,24.999329,121.446343
1,1168,建福公園,新莊區,建福路/建福路49巷,38,25.027694,121.426685
1,1169,水河里活動中心,蘆洲區,民族路408巷/復興路323巷,52,25.093949,121.473913
2,1170,金城延和路口,土城區,金城路三段/延和路(土城台電變電站),38,24.989155,121.470454
1,1171,國光公園,板橋區,中正路325巷/中正路341巷,48,25.019828,121.453852
1,1172,樹林火車站(後站),樹林區,後站街6巷11號對面,66,24.992553,121.424652
1,1173,文林國小,樹林區,千歲街59號,32,24.997856,121.426360
1,1174,土城綜合體育場,土城區,裕民路195巷旁,44,24.983671,121.454211
1,1175,板橋福德公園,板橋區,新站路1號對面(鄰近新北市市民廣場),32,25.011498,121.467415
1,1176,光華公園,樹林區,保安街2段259號對面(鄰近樹林興仁花園夜市),32,25.005412,121.413157
1,1177,樹林大安活動中心,樹林區,備前街/復興路372巷口,36,24.986391,121.414770
1,1178,三民中山一路口,蘆洲區,三民路8號前(鄰近紫禁城博物館),36,25.082229,121.476004
1,1179,義學國小,泰山區,民生路33號對面人行道,34,25.051762,121.431669
1,1180,自然公園,三重區,如意街/集賢路口,34,25.089840,121.487987
1,1181,板林溪北路口,板橋區,板林路/溪北路,46,24.990555,121.426350
1,1182,新北市藝文中心,板橋區,莊敬路/文化路2段182巷(鄰近新北市藝文中心),40,25.026542,121.472279
1,1183,大安中央路口,土城區,大安路/中央路三段,32,24.965619,121.432610
1,1184,中和地政事務所,中和區,復興路280號,28,24.990393,121.502397
1,1185,華夏科技大學,中和區,工專路111號,64,24.980672,121.507652
1,1186,同興公園,泰山區,仁義路15號對面,34,25.055188,121.432128
1,1187,新五泰國民運動中心,泰山區,全興路214號對面,42,25.055865,121.434262
1,1188,溪洲公園停車場,板橋區,溪崑二街145號,34,24.986723,121.426820
1,1189,崑崙公園,板橋區,大觀路三段212巷70號對面,38,24.993406,121.429636
1,1190,捷運海山站(3號出口),土城區,海山路46號對面機車格位,74,24.986923,121.449335
1,1191,興化公園,新莊區,五工二路/五工三路50巷,38,25.065234,121.461115
1,1192,潤泰社區,板橋區,三民路二段35巷口,36,25.017953,121.479375
1,1193,西盛館,新莊區,新樹路499號前人行道(西盛館),30,25.011905,121.432713
1,1194,秀朗成功路口,中和區,秀朗路三段 / 成功路二段,38,24.995821,121.526550
1,1195,板橋國中,板橋區,中正路441號前人行道(鄰近435藝文特區),54,25.024903,121.454310
1,1196,永豐公園活動中心,板橋區,永豐街221號,32,25.021127,121.476853
1,1197,義仁市民活動中心,泰山區,明志路二段177號,36,25.050479,121.427667
1,1198,鶯歌國中,鶯歌區,建國路420號對面人行道(鄰近新太源藝術工坊),34,24.951734,121.342963
1,1199,捷運迴龍站(3號出口),新莊區,中正路/中正路746巷,60,25.022760,121.413053
1,1200,捷運先嗇宮站(2號出口),三重區,重新路五段515號,50,25.046068,121.470987
1,1201,鶯歌火車站(仁愛路),鶯歌區,仁愛路55號對側人行道(鄰近鶯歌車站/宏德宮(孫臏廟)),58,24.955591,121.354376
2,1202,建國育英路口,鶯歌區,鶯歌區建國路/育英街口機車停車場內(鄰近許新旺陶瓷紀念博物館/鶯歌光點美學館),50,24.952761,121.347193
1,1203,鶯歌陶瓷老街,鶯歌區,鶯歌區尖山埔路/國慶街(停車場內)(鄰近鶯歌陶瓷老街(鶯歌老街)/鶯歌光點美學館),44,24.952226,121.351035
1,1204,立泰里(中環路二段),新莊區,新莊區中環路二段423號(對面橋下)(鄰近新莊文化藝術中心),40,25.045676,121.442133
1,1205,竹圍公園,淡水區,淡水區民生路108號旁公園通道(竹圍公園),28,25.138234,121.463395
1,1206,新北市立鶯歌陶瓷博物館,鶯歌區,鶯歌區文化路407號(鄰近鶯歌陶瓷博物館),40,24.949549,121.352832
1,1207,浮洲合宜住宅(樂群路),板橋區,板橋區合宜路/樂群路口,46,24.9969909,121.4465092
1,1208,尖山公園,鶯歌區,鶯歌區尖山路161號對面,44,24.948220,121.345767
1,1209,崇德橋東活動中心,汐止區,茄苳路84號(崇德橋東里民活動中心前),46,25.070512,121.667002
1,1210,樹林區衛生所,樹林區,新北市樹林區中山路二段80-1號對面機車停車格,38,24.983768,121.415032
1,1211,溪墘公園,蘆洲區,信義路73巷2號對面公園人行道,36,25.079969,121.476205
1,1212,育德國小,樹林區,育德街13號對面人行道,34,24.970656,121.392602
1,1213,彭福國小,樹林區,國凱街130號對面,40,24.980335,121.423104
1,1214,民享藝文特區,中和區,民治街120號對面人行道,36,25.003435,121.475345
1,1215,億光電子(樹林高中),樹林區,中華路 / 樹中二街口(學校側門對面人行道),40,24.983567,121.423601
1,1216,捷運永寧站(2號出口),土城區,承天路11號對面,32,24.965783,121.436227
1,1217,竿蓁市民活動中心,淡水區,中正東路一段3巷2號對面路側(亞太飯店旁)(鄰近淡水百齡公園),48,25.165090,121.450831
1,1218,長壽親子公園,樹林區,樹德街35號對面(公園內縮空間),38,24.991853,121.421371
1,1219,新市國小,淡水區,中山北路二段189巷2號對面人行道(新市國小),36,25.185313,121.444332
1,1220,新北市立圖書館鶯歌分館,鶯歌區,中山路150號(圖書館內停車場),36,24.957195,121.349704
1,1221,德音國小,五股區,明德路2號(德音國小成泰路路側人行道)(鄰近維格餅家鳳梨酥夢工場),36,25.071515,121.435670
1,1222,中山北新春街口,淡水區,中山北路一段/新春街(東南側)(公園籃球場前人行道),40,25.180345,121.444742
2,1223,正德國中,淡水區,北新路116號對面人行道(正德國中),40,25.178512,121.447874
1,1224,金城立體停車場,土城區,金城路2段266號,42,24.984102,121.458595
1,1225,先嗇宮,三重區,五谷王北街77號(後方停車場旁人行道)(鄰近三重先嗇宮),40,25.051190,121.476007
2,1226,板橋第一運動場,板橋區,板橋區海山路23號對面,40,25.009061,121.468352
1,1227,光興國小,三重區,光興街/文化南路口(西南側)(光興街路側)(鄰近新北市眷村文化園區（空軍三重一村）),36,25.060339,121.500103
1,1228,安和市民活動中心,新店區,安興路67號對面空地 (高架橋下),38,24.975317,121.515687
1,1229,景安板南路口,中和區,景安路與板南路口(西南側三角公園),30,24.992249,121.504443
1,1230,新月橋,新莊區,瓊林路1號旁(碧江公園旁)(鄰近新月橋/新莊廟街),50,25.032300,121.450011
1,1231,修德國小,三重區,民生街74號對面人行道,42,25.065295,121.490450
1,1232,福祥里(中和溝),中和區,福祥路90巷7弄1號對側空間,38,25.005933,121.499565
1,1233,輕軌濱海義山站,淡水區,濱海路一段125~219號前人行道,40,25.189448,121.438708
1,1234,鴨母港抽水站,蘆洲區,永安南路二段334號(對面人行道),40,25.082935,121.456728
1,1235,捷運淡水站,淡水區,公明街73巷6號前(淡水老街廣場)(鄰近淡水捷運站/淡水龍山寺/捷運淡水線),106,25.168826,121.444183
1,1236,安成安德街口,新店區,安成街26號至36號對面,36,24.961147,121.509988
1,1237,淡水國民運動中心,淡水區,中山北路2段381巷2號,46,25.186496,121.443261
1,1238,捷運竹圍站,淡水區,民權路105號-115號前人行道,46,25.137658,121.460112
1,1239,龍門公園,三重區,公園街/仁福街 (龍門公園人行道上),38,25.074815,121.498484
1,1240,輕軌淡水行政中心站,淡水區,濱海中山北路口西南側人行道(家樂福廣場前人行道),34,25.188887,121.443505
1,1241,永安圖書館,蘆洲區,永安南路二段150號(對側人行道),36,25.078599,121.462228
1,1242,西盛廣場,新莊區,樹新路251號對面(西盛廣場人行道),34,25.000894,121.431485
1,1243,三峽區公所(三峽老街),三峽區,中山路17號(公所旁徒步區)(鄰近三峽清水祖師廟/三峽歷史文物館/三峽老街),42,24.934187,121.369158
1,1244,仁愛文化二路口,林口區,仁愛路二段559號前方人行道,50,25.077118,121.374258
1,1245,崑崙活力廣場,板橋區,大觀路三段133巷3號對面廣場,42,24.993901,121.432880
1,1246,永盛公園,三重區,車路頭街139巷135號(對面人行道),38,25.076133,121.484304
1,1247,鷺江廣場,蘆洲區,信義路319巷22號(旁邊機車格前),32,25.085621,121.477694
1,1248,六張公園,三重區,安慶街149巷21號 (對面六張公園人行道),36,25.069661,121.494048
1,1249,中山佳林路口,林口區,中山路250-1號前方機車停車格,36,25.079592,121.385587
1,1250,國立臺北大學(三峽校區),三峽區,學勤路大學路口(面校門右側人行道)(鄰近國立台北大學),58,24.945553,121.373260
1,1251,林口區公所,林口區,仁愛路一段378號(林口區公所旁機車停車格),34,25.076742,121.388181
1,1252,新麗園社區,林口區,麗園一街/麗園一街11巷(對面人行道),42,25.070428,121.376882
1,1253,中正富國路口,新莊區,中正路879之16號門口(中國信託前的公車站旁),42,25.025940,121.417694
1,1254,大同國小,樹林區,東榮街91巷(市場旁人行道),36,24.981146,121.416844
1,1255,新北市立圖書館五股成功分館,五股區,西雲路165號圖書館旁空地(鄰近西雲禪寺),42,25.094784,121.446741
1,1256,民德立體停車場,中和區,中和區民德路188 號(立體停車場前方人行空間),32,24.999098,121.468345
1,1257,麗林公有市場,林口區,公園路59號(頂好超市側門),34,25.069123,121.367761
1,1258,南樹林火車站,樹林區,中山路二段東興路口(火車站右側人行道),34,24.980236,121.408605
1,1259,新北市立鶯歌高級工商職業學校,鶯歌區,中正三路235~237號(對面人行道)(鄰近亞洛美精靈國度),40,24.939095,121.334639
1,1260,行政院新莊聯合辦公大樓,新莊區,中平路/榮華路2段,44,25.055969,121.444423
1,1261,柑園五里聯合活動中心,樹林區,佳園路三段128號(活動中心左側人行道),40,24.950576,121.386183
1,1262,中和自強公園,中和區,莒光路181號對側公園人行道旁,30,24.999132,121.472513
1,1263,富貴森林公園,林口區,中山路/富貴路口(富貴路人行道上),36,25.083156,121.378464
1,1264,林口自強公園,林口區,自強三街3號旁人行道,36,25.078126,121.397208
1,1265,永昌里兒一公園,鶯歌區,鶯桃路182巷96弄36-38號對側,36,24.956661,121.339645
1,1266,捷運林口站(1號出口),林口區,文化三路/八德路口 (1號出口旁),60,25.065970,121.361962
1,1267,南興公園,汐止區,南興路62號旁(南興公園內),52,25.059779,121.652549
1,1268,立言公園,林口區,忠孝一路/民族路61巷交叉口,34,25.073427,121.362340
1,1269,溪北公園,板橋區,篤行路二段131巷35號(對面人行道),36,24.990060,121.432281
1,1270,頂新祖田市民活動中心,土城區,中央路四段285號,34,24.952710,121.411768
1,1271,貴和市民活動中心,泰山區,明志路三段353號旁公園,34,25.034961,121.421928
1,1272,頂埔國小,土城區,中央路四段205號(頂埔國小校門口)(鄰近土城親子分館),34,24.956343,121.414421
1,1273,三峽區礁溪行政中心,三峽區,光明路71號(左側),32,24.928438,121.375921
1,1274,林口國小,林口區,林口路77號對面林口國小旁人行道,36,25.080533,121.389307
1,1275,南勢市民活動中心,林口區,南勢二街154號旁,34,25.074035,121.358924
1,1276,青山廣場,土城區,明德路一段240巷1號(雜貨店前人行道),36,24.977837,121.459751
1,1277,林口社區運動公園,林口區,文化一路一段/仁愛路二段口(林口社區運動公園文化一路側人行道),50,25.074150,121.377001
1,1278,捷運新莊站 ( 2號出口 ),新莊區,新莊路214巷(捷運新莊站2號出口旁邊),40,25.036075,121.452792
1,1279,俊英俊保路口,樹林區,俊英街俊保路口(西北側人行道),30,25.009150,121.425183
1,1280,五股國民運動中心,五股區,成泰路三段353號(對面公園內),36,25.095553,121.448652
1,1281,學成大義路口,樹林區,學成路大義路口(西北側人行道),46,24.945099,121.378671
1,1282,捷運頭前庄站(1號出口),新莊區,中正路/思源路(東北側)(捷運頭前庄站1號出口旁廣場),114,25.039365,121.460856
1,1283,文化機車立體停車場,淡水區,文化路57號(立體停車場地下一樓)(鄰近福佑宮/淡水老街/淡水渡船碼頭/淡水白樓紅樓、偕醫館/登峰魚丸博物館/淡水禮拜堂),32,25.172485,121.438806
1,1284,成德公園,五股區,成泰路三段成洲八路口東北側成德公園路側,36,25.105052,121.452963
1,1285,頭湖國小,林口區,民權路101號旁(植栽帶),38,25.081673,121.372687
1,1286,金城立德路口,土城區,金城路三段19-30號(路側人行道),38,24.986691,121.465481
1,1287,恩主公醫院,三峽區,復興路372號(對面公車亭後方人行道),66,24.938912,121.363553
1,1288,中和區公所,中和區,景平路634-2號 ( 中和區公所正門機車格位 ),32,24.998558,121.500533
1,1289,忠山市民活動中心,汐止區,忠三街8號(活動中心旁籃球場空間),36,25.078202,121.624493
1,1290,三重永豐公園,三重區,永福街197巷6之1號,32,25.074629,121.478162
1,1291,臺灣藝術大學,板橋區,大觀路一段51號(郵局旁邊),66,25.007502,121.448000
1,1292,新莊體育館,新莊區,中華路一段136巷對面,40,25.040766,121.452459
1,1293,永和耕莘醫院,永和區,國光路123號 ( 耕莘醫院外路側汽機車格位 ),32,25.011232,121.517701
1,1294,三多國小,樹林區,三福街83-89號(對面人行道),34,25.016405,121.407135
1,1295,永安兒童公園,蘆洲區,永安北路2段/永安北路2段35巷,48,25.082273,121.482236
1,1296,新北市立中和高級中學,中和區,連城路460號(大門旁右側人行空間),36,24.993700,121.478230
1,1297,扶輪公園,林口區,文化二路一段/文化二路一段309巷,40,25.072864,121.369480
1,1298,安邦公園,中和區,安邦街與連勝街口(交叉路口西北側),34,24.996867,121.496647
1,1299,立德公園,林口區,仁愛二路與民族路口交叉口,34,25.076441,121.367223
2,1300,新北市政府(新站路),板橋區,中山路一段161號(東側出口)(鄰近新北市市民廣場),60,25.012614,121.466455
1,1301,清水高中,土城區,土城區明德路一段72號,40,24.982756,121.465444
1,1302,板橋車站,板橋區,新站路/站前路口(十字路口西側)(鄰近板橋高鐵站),98,25.015519,121.463735
1,1303,樹林國民運動中心,樹林區,樹林區中正路188-6號,34,25.004186,121.422847
1,1304,捷運輔大站(4號出口),新莊區,新莊區 中正路510之1號(鄰近輔仁大學),42,25.033025,121.436484
1,1305,民安東民全街口,新莊區,新莊區民安東路48號前人行道,36,25.020774,121.429556
1,1306,中興北街175巷口,三重區,三重區中興北街175巷10號對面(路側),32,25.055970,121.471327
1,1307,仁愛路151巷口,汐止區,汐止區仁愛路153號門口(路側),44,25.064819,121.663885
1,1308,五股工商立體停車場,五股區,五股區中興路四段19-1號(對面人行道),40,25.082494,121.439555
1,1309,沛陂社區公園,土城區,土城區三民路23巷8弄(公園裡面),34,24.963289,121.419672
1,1310,佳和公園,中和區,中和區中山路二段2巷27號(對面公園),34,25.006927,121.503171
1,1311,溪頭公園,板橋區,板橋區溪頭街352號前面人行道,40,25.033086,121.468403
1,1312,龍鳳公園,新莊區,新莊區龍安路72號對面(公園人行道),40,25.021447,121.416497
1,1313,伊吉邦社區,新莊區,新莊區新北大道7段312號(人行道),46,25.030186,121.413402
1,1314,三多第1市民活動中心,樹林區,樹林區福興街17號(活動中心前機車格),34,25.016361,121.404257
1,1315,新北高工,土城區,新北市土城區學府路一段241號,44,24.982770,121.449900
1,1316,瑞芳火車站,瑞芳區,民權路鐵道巷14號(東側機車停車場),38,25.108506,121.806460
1,1317,長風社區,土城區,土城區中華路二段91~95號(人行道),36,24.978108,121.439369
1,1318,永和國民運動中心,永和區,永和區永利路141號(對面人行道),40,25.003555,121.524246
1,1319,民樂人行廣場,中和區,中和區員山路266巷39號(對面路側),36,25.001834,121.482594
1,1320,民生親子公園,樹林區,新北市樹林區保安街一段/保安街一段14巷,30,24.992983,121.428196
1,1321,樹林工業區,樹林區,樹林區保安街二段6號(前面廣場)(鄰近樹林興仁花園夜市),38,25.000868,121.416091
1,1322,龍埔公園,三峽區,新北市三峽區國光街85號,36,24.938911,121.373676
1,1323,尖山國中,鶯歌區,鶯歌區國中街1號(人行道),32,24.944300,121.342089
1,1324,新北市立圖書館新店分館,新店區,新店區北新路三段105巷2號(路側),36,24.982138,121.540903
1,1325,浮洲火車站,板橋區,板橋區僑中二街/大觀路一段38巷(自行車停放區內),48,25.004098,121.444447
1,1326,捷運海山站(1號出口),土城區,土城區海山路(捷運海山站1號出口人行道),80,24.984695,121.448504
1,1327,深坑區公所(深坑老街),深坑區,新北市深坑區文化街45號(兒童公園旁)(鄰近深坑集順廟/深坑老街),50,25.0015,121.616311
1,1328,東南科技大學,深坑區,深坑區北深路三段170號(對面機車格),34,25.0033,121.602501
1,1329,德光國光街口,中和區,中和區德光國光街口(巷子路側),34,25.003136,121.468087
1,1330,猴硐火車站,瑞芳區,柴寮路36號(旁公園路側),48,25.086470,121.827190
1,1331,永和國父紀念館,永和區,永和區國光路9號(前人行道),30,25.008390,121.520234
1,1332,台北得意GO,五股區,五股區四維路116號(人行道),30,25.074424,121.467852
1,1333,大觀國中,板橋區,板橋區僑中二街8巷(對面人行道),40,25.011210,121.447237
1,1334,太陽公園,三重區,三重區三賢街203號(對面汽車格)(鄰近蘆洲兒童親子分館),32,25.086448,121.485599
1,1335,三重五常公園,三重區,三重區五華街7巷(對面公園人行道),28,25.080648,121.496149
1,1336,三德公園,三重區,三重區仁和街205號(斜對面公園人行道),36,25.074974,121.500542
1,1337,力行大勇街口,三重區,三重區力行路/大勇街口(路側),30,25.071928,121.481508
1,1338,蘆洲延平派出所,蘆洲區,蘆洲區長安街102巷5弄12號(對面),36,25.081620,121.461620
1,1339,永安南路九芎街71巷口,蘆洲區,蘆洲區永安南路/九芎街71巷口(對面人行道),36,25.077564,121.466071
1,1340,福和宮,中和區,中和區廣福路112號(人行道),50,25.001110,121.501991
1,1341,飛駝社區(興南路),中和區,中和區興南路二段159巷4號(人行道),42,24.983471,121.504826
1,1342,保平路214巷,永和區,永和區保平路214巷12弄12號(對面路側)(鄰近樂華夜市/世界宗教博物館),30,25.007010,121.509208
1,1343,汐科火車站(南),汐止區,汐止區大同路二段182號(人行道),64,25.062884,121.646597
1,1344,樹林國小,樹林區,樹林區啟智街/文化街口(啟智街129號),34,24.989136,121.41791
1,1345,永吉國小,鶯歌區,鶯歌區德昌二街39號(對面人行道),36,24.958747,121.333095
1,1346,中園國小,三峽區,三峽區弘園街55號(對面人行道),36,24.927551,121.366919
1,1347,介壽國小,三峽區,三峽區介壽路一段/大同路口(人行道),30,24.930341,121.378835
1,1348,安溪國中,三峽區,三峽區中正路一段/大同路(人行道路橋旁),32,24.926790,121.371957
1,1349,龍埔國小,三峽區,三峽區大學路47號(對面人行道),38,24.941224,121.376763
1,1350,大安路與中山路二段口,樹林區,樹林區大安路622號(前人行道),34,24.983043,121.411318
1,1351,樹林區公所,樹林區,樹林區博愛街198-1~198-5號(對面人行道),40,24.989760,121.424780
1,1352,蘆洲重陽大樓,蘆洲區,重陽二街22號(對面人行道)(鄰近蘆洲兒童親子分館),30,25.085055,121.481887
1,1353,埔墘國小,板橋區,新北市板橋區永豐街44號,34,25.019078,121.473724
1,1354,圓通錦和路口,中和區,中和區圓通路367巷路側(46-52停車格),46,24.989236,121.491482
1,1355,下庄市場,八里區,舊城路19號前,30,25.146498,121.399748
1,1356,亞洲員安路口,土城區,亞洲路94號(對面人行道)(鄰近大黑松小倆口牛軋糖博物館),34,24.972621,121.434796
1,1357,大安路307巷口,樹林區,樹林區大安路307巷口,32,24.992158,121.417726
1,1358,漁人碼頭,淡水區,觀海路199號(右側人行廣場)(鄰近淡水漁人碼頭),50,25.183869,121.411178
1,1359,味王街,樹林區,味王街3號(馬路側),30,24.974674,121.404424
1,1360,福基公園,新莊區,福美街128巷12號,32,25.058100,121.460892
1,1361,振義里公園,板橋區,萬安街55號(對面機車停車格),30,25.023888,121.483965
1,1362,安溪國小,三峽區,中華路61號(對面路側)(鄰近李梅樹紀念館),36,24.930621,121.372344
1,1363,中和安和路口,中和區,中和路與安和路口,34,24.999667,121.506022
1,1364,元氣大鎮社區,中和區,中山路三段與台新街口,28,25.005718,121.478997
1,1365,員勝公園,中和區,員山路591號(巷內),40,25.010284,121.478686
1,1366,永和自由街,永和區,永和區 自由街69號(路側),32,25.005200,121.513339
1,1367,安樂宜安路口,中和區,中和區安樂路101之1號,36,24.995273,121.513506
1,1368,昌隆國小,新莊區,昌平街/昌平街31巷(對面昌隆國小人行道),36,25.052129,121.454891
1,1369,捷運新莊副都心站,新莊區,新莊區新北大道四段/中信街口(捷運副都心站2號出口),46,25.059145,121.446614
1,1370,捷運泰山站,泰山區,新北大道四段389號(捷運泰山站內廣場),34,25.053127,121.439683
1,1371,八里中庄市場綜合大樓,八里區,中山路一段268巷2號(對面汽車停車場),36,25.159934,121.414074
1,1372,江翠國中,板橋區,板橋區松江街63號(對面路側)(鄰近石雕公園),30,25.027987,121.468512
1,1373,捷運新北產業園區站,新莊區,新莊區五工路55號,44,25.062029,121.459184
1,1374,捷運泰山貴和站,泰山區,泰山區新北大道6段/貴陽街(貴陽街12號對面捷運站),36,25.033192,121.422215
1,1375,龍形停車場,八里區,龍米路一段318號(對面停車場),40,25.130410,121.451302
1,1376,捷運紅樹林站,淡水區,淡水區中正東路2段68號(南向廣場),58,25.153578,121.459124
1,1377,大庄一號公園,淡水區,沙崙路97號對面人行道(大庄一號公園),28,25.181957,121.422185
1,1378,三井Outlet,林口區,林口區文化二路一段241巷(三井Outlet北邊出口）(鄰近MITSUI OUTLET PARK 林口),50,25.071574,121.366303
1,1379,貿商國宅,五股區,登林路76-3號(前人行道),40,25.069463,121.43031
1,1380,中正北路193巷(愛買三重店),三重區,中正北路193巷45號(賣場停車場),42,25.071362,121.475985
1,1381,翔譽雙子星,三重區,中正南路251號(右側人行道),36,25.053638,121.492924
1,1382,明志科技大學,泰山區,工專路84號對面人行道,50,25.040434,121.422548
1,1383,三民高中(民權路),蘆洲區,民權路100號(對面人行道),36,25.088024,121.473928
1,1384,環河福德南路口,三重區,福德南路71號(對面人行道),32,25.060285,121.502173
1,1385,文林國小(潭興街),樹林區,潭興街65號(對面汽車停車格),34,24.998601,121.424892
1,1386,林口老街,林口區,中正路115號(東側停車場),42,25.077153,121.393777
1,1387,板橋果菜批發市場,板橋區,板城路/香社一路口,40,25.021153,121.450020
1,1388,安和公園,新店區,安和路二段163號(東南側空地),34,24.974110,121.518853
1,1389,東陽市民活動中心,樹林區,鎮前街467號(活動中心路側),32,24.982192,121.412517
1,1390,遠雄左岸,中和區,中原街90號(對面),40,25.009850,121.487799
1,1391,瓦磘溝(福真里),中和區,中山路二段312巷33弄27號,32,25.004294,121.494692
1,1392,中正路161巷口,中和區,中正路161巷26弄5號(對面空地),46,24.992938,121.499333
1,1394,瑞峰橋,瑞芳區,三爪子坑路115號(對面汽車停車格),44,25.107120,121.810410
1,1395,民族二街明峰街口,汐止區,汐止區明峰街13號(右側路側),30,25.071049,121.635015
1,1401,光復國小,板橋區,長壽街168號(對面人行道),38,25.015064,121.481930
1,1402,世貿國家公園社區,汐止區,長江路101號(對面),30,25.072887,121.658646
1,1403,新店新和國小,新店區,安和路三段113號(對面人行道),40,24.984975,121.517682
1,1404,立德青雲路口,土城區,立德路2號(對面),62,24.988355,121.460675
1,1405,新北市林口行政園區,林口區,忠孝二路55號(鄰近MITSUI OUTLET PARK 林口),42,25.070158,121.363632
1,1406,工建樟樹一路口,汐止區,工建路50 號(對面路側),36,25.063062,121.641033
1,1407,中和青年社會住宅,中和區,景德街7號,32,24.991135,121.519329
1,1408,蘆洲李宅古蹟,蘆洲區,中正路185巷68弄9號(對面人行道)(鄰近蘆洲李宅(李友邦將軍紀念館)),30,25.084959,121.466551
1,1409,捷運府中站(2號出口),板橋區,府中路5號(後方人行道)(鄰近板橋慈惠宮/府中商圈(板橋後站商圈)),38,25.009537,121.460148
1,1410,新莊勞工中心,新莊區,新樹路222號,26,25.020332,121.433736
1,1411,名利橋,永和區,仁愛路352巷96號(對面廣場),32,25.007850,121.500986
1,1412,捷運大坪林站(1號出口),新店區,北新路三段129號(右側人行道),26,24.982755,121.541249
1,1413,福和國中停車場,永和區,永亨路99號(對向人行道),48,25.005011,121.522665
1,1414,捷運中原站,中和區,板南路496號(對面),74,25.007307,121.485051
1,1415,福美公園,新莊區,福美街/福美街62巷口(西北側人行道),40,25.055033,121.461081
1,1416,輔仁大學附設醫院,新莊區,三泰路66號(對面人行道),40,25.039272,121.431004
1,1417,民視數位媒體總部,林口區,信義路99號(前廣場),40,25.079876,121.379259
1,1418,五股郵局,五股區,凌雲路一段80巷9號(對面人行道),32,25.101774,121.451127
1,1419,新市一路一段99巷口,淡水區,新市一路一段99巷21號,46,25.187429,121.431016
1,1420,國泰街111巷口,板橋區,國泰街111巷1號(對面),34,25.006321,121.465773
1,1421,湳雅觀光夜市(津渡橋),板橋區,南雅西路一段152號(對面)(鄰近板橋接雲寺),40,25.007585,121.452440
1,1422,學成公園,土城區,學成路/學成路76巷口,34,24.988246,121.451187
1,1423,鳳祥公園,鶯歌區,鶯桃路413巷65弄4號(對面),30,24.962819,121.330254
2,1424,光明市場,三重區,光明路67-1號(對面),34,25.057335,121.491809
1,1425,中興路二段100巷口,新店區,五峰路63巷/中興路二段100巷口(天橋旁),30,24.971355,121.547496
1,1426,福和橋,永和區,環河東路三段90號前,36,25.004536,121.527850
1,1427,土城國中,土城區,永寧路18號(對面),32,24.962443,121.430347
1,1428,安光公園,新店區,安民街安民街3巷15號(對面公園),34,24.964233,121.514462
1,1429,崇德國小,汐止區,茄苳路183號(對面),58,25.069378,121.669788
1,1430,中華中央路一段242巷口,土城區,中華路一段185號(前),38,24.985510,121.443450
1,1431,公五公園,五股區,芳州五路/芳州二路口(東北側),44,25.086580,121.444520
1,1432,碧潭西岸,新店區,碧潭路2號(旁)(鄰近碧潭風景區),40,24.956562,121.534795
1,1433,樹林大安站,樹林區,大安路118號(外側),56,24.997312,121.421725
1,1434,廣停二停車場,林口區,民富街99號(對面),36,25.075711,121.370261
1,1435,民義公園,五股區,五福路五福路6巷口(五福橋旁公園),40,25.088350,121.434500
1,1436,大崙公園,林口區,南勢二街408號旁,32,25.076613,121.359704
1,1437,成州國小,五股區,成泰路三段493號(東側),28,25.099230,121.450630
1,1438,中興北街42巷17弄,三重區,中興北街42巷17弄8號旁,34,25.050060,121.468920
1,1439,江翠國小,板橋區,文化路二段413號(校門右側人行道),34,25.032480,121.474420
1,1440,華江一華江九路口,板橋區,華江一路/華江九路口(東南側人行道),40,25.032884,121.466442
1,1441,三光國小(金滿意),三重區,大同南路246-1號(對面人行道),36,25.055960,121.496874
1,1442,蘆洲中路公園,蘆洲區,光華路87巷7號(右側),34,25.082299,121.468143
1,1443,林口高中,林口區,仁愛路二段173號(對面),38,25.073840,121.380300
1,1444,雙和橋,永和區,中山路二段3巷2號(對面公園),34,25.005731,121.505743
1,1445,海山高中,板橋區,漢生東路215號(右側人行道),52,25.009108,121.471493
1,1446,環河西路一段95巷口,永和區,環河西路一段/環河西路一段95巷(人行道),32,25.017830,121.511957
1,1447,碧河宮,中和區,連城路/連城路261巷口,40,24.996726,121.493134
1,1448,萬板文聖街口,板橋區,萬板文聖街口,46,25.026295,121.479675
1,1449,明德高中,三峽區,中正路二段/中正路二段395巷口,58,24.907449,121.364848
1,1450,鳳鳴國小,鶯歌區,永和街120號(校門前),32,24.969198,121.334806
1,1451,林本源園邸,板橋區,文昌街24巷1號(對面),42,25.010860,121.455980
1,1452,藍天大樓,三重區,興德路129號(旁),36,25.053098,121.470165
1,1453,忠孝國中,板橋區,成都街30號(右側),46,25.004810,121.461195
1,1454,大智公園,三重區,大同北路56號(對面),30,25.063608,121.494449
1,1455,國際二國際一路口,鶯歌區,國際二路/國際一路口,38,24.976171,121.334938
1,1456,三重高中,三重區,集美街217號(對面),34,25.054777,121.491710
1,1457,昌平公園,新莊區,中央路/福壽街口,40,25.058664,121.458109
1,1458,新北市客家文化園區,三峽區,隆恩街239號(右側),38,24.941729,121.359538
1,1459,台北海洋科技大學,淡水區,濱海路三段150號(校門左側),38,25.191229,121.427011
1,1460,蘭庭序大廈,汐止區,汐萬路一段201號前,30,25.072070,121.652070
1,1461,福和路7巷口,永和區,福和路/福和路7巷口,30,25.008540,121.524732
1,1462,捷運新店區公所站(1 號出口),新店區,中華路3號(對面)(鄰近馬公友誼公園),42,24.967369,121.541011
1,1463,新泰游泳池,新莊區,新泰路478號(對面)(鄰近新莊文化藝術中心),26,25.045414,121.442734
1,1464,森林公園,樹林區,學勤路382號(對面),36,24.948177,121.379760
1,1465,馥華公園,板橋區,僑中二街118號前,34,25.006117,121.445449
1,1466,光復高中,板橋區,長壽街/光環路一段(西南側),42,25.017443,121.482513
1,1467,南雅育智路口,鶯歌區,南雅路491號(對面),46,24.953961,121.345824
1,1468,穀保家商,三重區,疏洪東路三段/中正北路560巷口(鄰近二重環狀自行車道),38,25.068097,121.471028
1,1469,文德國小(公館街),板橋區,公館街258號(對面),38,25.021336,121.459595
1,1470,學成大成路口,樹林區,學成路712號(旁),42,24.946248,121.382719
1,1471,石雕公園,板橋區,吳鳳路50巷36號(旁)(鄰近石雕公園/板橋農村公園),32,25.030261,121.469469
1,1472,民生縣民大道口,板橋區,民生路二段/縣民大道二段口(西南側),40,25.018213,121.471011
1,1473,新北市藝文中心(文化路二段124巷),板橋區,文化路二段124巷32號(對面)(鄰近新北市藝文中心),36,25.025626,121.471401
1,1474,四維公園地下停車場,板橋區,四維路177巷3弄6號(旁),74,25.025618,121.463967
1,1475,廣福派出所,土城區,學府路一段86號前,34,24.988019,121.456247
1,1476,新和活動中心,新店區,新和街116巷5弄(街尾),38,24.986771,121.521829
1,1477,大眾廟,新莊區,中正路82號(旁),30,25.037380,121.457660
1,1478,化成公園,新莊區,思源路166巷4號(前),32,25.047860,121.461962
1,1479,龍恩公園,三峽區,國際一街90號(對面)(鄰近國立台北大學),36,24.941359,121.370524
1,1480,新北市工商展覽中心,五股區,五工六路35號(對面),46,25.064345,121.447585
1,1481,金城裕民路口(中正國中),土城區,金城路二段218號(對面),44,24.982933,121.456229
1,1482,圓通路335巷33弄,中和區,圓通路335巷33弄15號(西側),32,24.988992,121.493033
1,1483,海洋公園,三峽區,大義路/學勤路口(西北側),36,24.947490,121.376895
1,1484,浮洲合宜住宅(合宜一路),板橋區,大觀路二段265巷/合宜一路(東南側),58,24.996520,121.442760
1,1485,文山國中,新店區,北宜路一段118號(對面)(鄰近碧潭風景區),30,24.955310,121.539270
1,1486,臺北大學(資訊中心),三峽區,大學路151號(資訊中心旁),56,24.943170,121.369520
1,1487,捷運府中站(1號出口),板橋區,縣民大道一段/府中路口(西南側)(鄰近板橋慈惠宮/府中商圈(板橋後站商圈)),76,25.008180,121.459010
1,1488,新莊田徑場,新莊區,復興路一段209號 (對面),42,25.043570,121.452440
1,1489,新泰國中,新莊區,新泰路359號(旁),30,25.042880,121.444260
1,1490,碧潭渡船頭,新店區,新店路36號(對面),32,24.953100,121.537460
1,1491,山佳火車站,樹林區,中山路三段108號,32,24.972220,121.392640
1,1492,新北市勞工活動中心,五股區,五工六路9號(前廣場),34,25.061490,121.450980
1,1493,板橋重慶公園,板橋區,重慶路276號(對面),40,25.000080,121.463160
1,1494,林口社區運動公園(公園路),林口區,公園路192號(旁),40,25.074640,121.374400
1,1495,山北公園,中和區,莊敬路33巷36弄2號(對面),32,25.006530,121.500140
1,1496,捷運景平站,中和區,景平路127號(旁),38,24.992020,121.515630
1,1497,中港大排願景館,新莊區,中央路301號(對面),30,25.058940,121.451170
1,1498,頭前國小,新莊區,頭前路93號(對面),30,25.052480,121.465270
1,1499,輕軌淡金北新站,淡水區,淡金路一段547號(前),46,25.180180,121.453330
1,1500,忠孝活動中心,永和區,忠孝街26巷8號(前)(鄰近楊三郎美術館),28,25.016770,121.515280
1,1501,淡水海關碼頭園區,淡水區,中正路261號(旁)(鄰近淡水紅毛城/淡水英國領事館/淡水海關碼頭),40,25.174760,121.431550
1,1502,縣民漢生東路口,板橋區,縣民大道二段112號(前),56,25.015600,121.467090
1,1503,時光公園,板橋區,華江陸橋旁/文化路二段北側公園口,40,25.036150,121.479730
1,1504,積穗國中,中和區,民安街71號(對面),32,24.999770,121.478080
1,1505,員和公園,土城區,中央路二段66號(對面),68,24.979040,121.442540
1,1506,環河公園,板橋區,南雅西路二段301巷41弄5-5號(旁),36,25.016660,121.450640
1,1507,中興中正路口,新店區,中興路二段41號(前),30,24.969910,121.546170
1,1508,新莊國民運動中心,新莊區,公園路66號(對面)(鄰近新莊綜合運動場),40,25.039610,121.449620
2,1509,佳和公園(中山路二段64巷),中和區,中山路二段64巷7弄15-4號(對面),36,25.004690,121.502960
1,1510,三鶯國民運動中心,三峽區,文化路164號(旁)(鄰近三峽清水祖師廟/三峽歷史文物館/三峽老街),32,24.936140,121.369410
1,1511,彩虹兒童公園,蘆洲區,光榮路120巷8弄21號(對面),36,25.088710,121.464600
1,1512,崇林國中,林口區,麗園路121號(對面),34,25.067540,121.371340
1,1513,碧華公園(集勇街),三重區,仁安街2號(對面),30,25.084150,121.485540
2,1514,延吉街47巷口,土城區,延吉街43號(對面),28,24.987690,121.472220
1,1515,大觀路二段19巷,板橋區,大觀路二段19巷115號(旁),30,25.002560,121.450790
1,1516,成泰路一段(中油),五股區,成泰路一段194號(對面),26,25.078430,121.435650
1,1517,清和里(青雲路),土城區,青雲路449號(對面),32,24.975120,121.458740
1,1601,輕軌濱海沙崙站,淡水區,沙崙路一段/濱海路二段(東南側人行道),30,25.189950,121.430600
1,1602,輕軌淡海新市鎮站,淡水區,沙崙路二段/新市三路二段口(東北側人行道),30,25.196230,121.432860
1,1603,輕軌崁頂站,淡水區,沙崙路二段/新市六路二段(東南側人行道),30,25.201250,121.435020
1,1604,輕軌淡江大學站,淡水區,淡金路二段399號(前人行道),40,25.176530,121.456130
1,1605,輕軌新市一路站,淡水區,新市一路三段151號(旁人行道),34,25.183450,121.448370
1,1607,四川忠孝路口,板橋區,四川路一段244號(對面),34,25.001490,121.459240
1,1608,陸光國宅,五股區,民義路1段/民義路1段183巷口,30,25.088810,121.430790
1,1609,仁化文新路口,板橋區,仁化街/文新路口(西北側人行道),36,25.034630,121.479190
1,1610,中山新興街口,樹林區,中山路三段/新興街口(西北側人行道),40,24.974990,121.400230
1,1611,信義公園市民活動中心,板橋區,信義路150巷43號(前),34,24.991700,121.457500
1,1612,文中小停車場,三重區,名源街54號(對面),40,25.058990,121.482550
1,1613,安康高中,新店區,安興路 25 號(前),50,24.968860,121.515050
1,1614,中正路284巷,新店區,中正路284巷2號(對面),28,24.974700,121.538420
1,1615,御史路1巷,五股區,御史路1巷5號(旁),30,25.090440,121.441920
1,1616,新市二路二段,淡水區,新市二路二段98號(前),30,25.195240,121.427930
1,1617,光明街,新店區,光明街185號(對面),28,24.963160,121.540090
1,1618,環河西路三段(日安社區),中和區,環河西路三段66號(旁),32,25.007740,121.493210
1,1619,民生中山路口,板橋區,民生路二段8-1號(前),30,25.016060,121.473460
1,1620,重慶國小,板橋區,廣和街35號(對面),30,24.993730,121.462530
1,1621,板橋真武廟,板橋區,光復街202巷6-1號(前),34,25.020460,121.485940
1,1622,鶯歌國民運動中心,鶯歌區,館前路250號(前),36,24.951340,121.357750
1,1623,南雅公園,板橋區,南雅南路二段1-1號(旁),40,25.003870,121.455160
1,1624,中正民權路口,新店區,中正路489號(旁),96,24.982630,121.533600
1,1625,捷運新埔站(1號出口),板橋區,民生路三段11號(前),60,25.023500,121.467450
1,1626,中原東街(左岸牡丹園),中和區,中原東街/中原二街(東北側人行道),38,25.012900,121.485920
1,1627,土城仁愛社區公園,土城區,仁愛路17巷2號(對面),34,24.980390,121.460620
1,1628,五峰國中,新店區,行政街20號旁,34,24.965910,121.543230
1,1629,大崁國小,八里區,忠八街2號(前),36,25.160640,121.419380
1,1630,東海高中,三重區,忠孝路三段93巷6號(對面),40,25.064840,121.479420
1,1631,中山1號科技總部,土城區,中山路1號(前),42,24.960450,121.412120
1,1632,中平國中,新莊區,中平路385號(旁),40,25.054260,121.444070
1,1633,仁愛街70巷口,蘆洲區,仁愛街95號(對面),32,25.093980,121.471260
1,1634,中印青潭廠,新店區,北宜路二段399號(旁),26,24.954460,121.559470
1,1635,淡江大學(水源街),淡水區,水源街二段104號(對面),62,25.174570,121.452360
1,1636,健華新城社區,板橋區,文化路一段309-6號(前),52,25.019270,121.465300
1,1637,美麗新淡海影城,淡水區,新市五路三段/義山路二段(西北側人行道),32,25.197830,121.438780
1,1638,寶橋路235巷口,新店區,寶橋路235巷2號(旁),36,24.979550,121.552340
1,1639,安康立體停車場,新店區,安德街2號(前),40,24.962610,121.512670
1,1640,全球傳動科技公司,樹林區,三多路123號(前),38,25.008010,121.414810
1,1641,興南路二段34巷口,中和區,興南路二段34巷1號(對面),32,24.985390,121.507010
1,1642,復興民生街口,三峽區,復興路45號(前),38,24.937010,121.373240
1,1643,環河西大漢街口,板橋區,環河西路四段/大漢街(西南側),40,25.031830,121.461200
1,1644,十三行博物館,八里區,博物館路183號(對面),46,25.156970,121.405880
1,1645,莒光國小,板橋區,雙十路2段47巷8弄6號(對面),30,25.025650,121.474650
1,1646,林口郵局,林口區,文化二路一段8號(前),38,25.066670,121.364530
1,1647,竹林山觀音寺,林口區,竹林路/竹林路421巷口,34,25.084520,121.389830
1,1648,青潭河濱公園,新店區,新烏路一段11弄11號(對面),30,24.950910,121.547400
1,1649,捷運中和站,中和區,中山路2段291號(前),36,25.002210,121.495870
1,1650,公23公園,淡水區,新市五路二段1號(對面),30,25.199850,121.428910
1,1651,捷運秀朗橋站,中和區,景平路2號(前),42,24.990390,121.525490
1,1652,板橋中山公園,板橋區,莊敬路134號(對面),30,25.023360,121.471090
1,1653,民有公園,中和區,中山路3段118-6號(對面),40,25.008680,121.474750
1,1654,仁愛街112巷,三重區,仁愛街112巷7號(對面),40,25.074860,121.494880
1,1655,華新街109巷11弄,中和區,華新街109巷11弄(機車格),50,24.979960,121.508730
1,1656,康寧街307巷,汐止區,明峰街281號(對面),40,25.068090,121.626970
1,1657,中興橋(環河南路254巷口),三重區,環河南路253號(對面中興橋下),40,25.050520,121.491380
1,1658,新林國小,林口區,三民街101號(忠孝三路側人行道),40,25.070160,121.359950
1,1659,滬尾藝文休閒園區,淡水區,中正路1段/中正路1段6巷口,26,25.175940,121.428510
1,1660,康福公園,汐止區,福德一路86巷23號(旁),28,25.068940,121.637480
1,1661,新市二路四段,淡水區,新市二路四段58號(前),28,25.192540,121.441850
1,1662,義山新市一路口,淡水區,新市一路一段371號(義山路側),30,25.186230,121.437360
1,1663,中信國小,新莊區,榮華路二段/中富街口(西北側人行道),40,25.055720,121.449570
1,1664,捷運板新站,板橋區,板新路117巷7號(後方廣場),82,25.014090,121.471240
1,1665,三抱竹,板橋區,大觀路二段162號(對面橋下機車格),34,24.998640,121.441390
1,1667,慈愛公園,三重區,仁愛街584號旁公園人行道,30,25.081190,121.484610
1,1668,汐止火車站停車場,汐止區,信義路1號(汐科路側人行道),100,25.067950,121.661680
1,1670,樹林藝文綜合行政大樓,樹林區,保順街139號(對面),60,24.995460,121.429100
1,1671,光華橋(保平路),中和區,中山路2段3巷/保平路口,36,25.004520,121.507900
1,1672,台北花園廣場社區,泰山區,泰林路二段454號(旁),30,25.064140,121.426000
1,1673,民權社區活動中心,永和區,民權路60號(活動中心後方廣場),34,24.997780,121.519680
1,1674,捷運新埔站(5號出口),板橋區,文化路二段1號(旁),56,25.024020,121.468280
1,1675,捷運橋和站,中和區,板南路468號(對面),70,25.005590,121.489210
1,1676,國中二甲路口,鶯歌區,國中街175號(前),30,24.939500,121.338670
1,1677,陽光Park社區,新店區,安興路107號(社區停車場前人行道),32,24.979400,121.515550
1,1678,捷運十四張站,新店區,溪園路205號(旁捷運機廠前人行道),80,24.984500,121.527930
1,1679,芳洲八路,五股區,芳洲八路152號(對面),30,25.088800,121.446370
1,1680,後竹圍市民活動中心,三重區,後竹圍街175巷18號(對面),32,25.072460,121.485760
1,1681,林口國民運動中心,林口區,文化二路二段369號(文化二路二段側人行道),40,25.086010,121.380930
1,1683,深坑松柏街,深坑區,松柏街24號(對面),34,25.010960,121.638520
1,1684,金美國小,金山區,仁愛路37-5號(對面),36,25.219730,121.636330
1,1685,金山八德街,金山區,八德街24號(對面),38,25.223650,121.634690
1,1687,寶橋路78巷口,新店區,寶橋路78巷10號(旁高速公路橋下空間),44,24.973680,121.547600
1,1688,鳳福公園,鶯歌區,鳳吉一街186號(對面),40,24.975720,121.329380
1,1689,林口新創園,林口區,仁愛路496-3號(前),32,25.075830,121.376090
1,1690,漳和國中,中和區,廣福路30號(對面),50,25.002410,121.505000
1,1692,清水社區公園,土城區,延吉街395號(對面),54,24.984000,121.462890
1,1693,國立師範大學林口校區(測試站),林口區,仁愛路1段2號(校門前自行車停車區),16,25.068040,121.397950
1,1694,斬龍山遺址文化公園,土城區,龍山一街/金城路二段(北側公園),50,24.976570,121.447750
1,1695,長安橋(吉祥街12巷),汐止區,吉祥街12巷2號(旁),54,25.080330,121.668460
1,1696,三重商工(後竹圍街),三重區,中正北路165巷53號(後竹圍街路側停車格),36,25.070310,121.479760
1,1698,浮洲合宜住宅(合宜合安一路口),板橋區,合宜路/合安一路(東南側機車停車場),50,24.998490,121.448630
1,1700,德光莒光路口,中和區,德光路12號(前),38,25.004590,121.471340
1,1701,捷運幸福站,新莊區,思源路292號(幸福東路側廣場),54,25.049580,121.460520
1,1702,成泰路4段22巷,五股區,成泰路4段22巷29號(對面),32,25.108260,121.455960
1,1706,中角灣,金山區,海興路174-1號(旁),28,25.239000,121.632340
1,1707,俊興三龍街口,樹林區,俊興街280號(對面),30,25.017040,121.418210
1,1709,捷運景安站,中和區,景平路486號(對面),82,24.993520,121.504720
1,1710,林口婦幼公園,林口區,文化一路一段146號(旁公園),28,25.072310,121.377520
1,1712,湖南市民活動中心,林口區,民權路165號(前人行道),30,25.084230,121.374280
1,1713,埤墘公園,板橋區,萬板路108號(前公園路側),30,25.023320,121.474220
1,1714,德泰公園,五股區,成泰路一段79號(旁),28,25.068020,121.434730
1,2001,中央大學圖書館,中壢區,中大路300號(中央大學校內圖書館前),60,24.968128,121.194666
1,2002,中壢高中,中壢區,中央西路二段215號對面人行道,52,24.960815,121.212038
1,2003,中正公園(中美路),中壢區,中美路101-113號對面人行道,54,24.959113,121.224805
1,2004,中壢火車站(前站),中壢區,中和路139號對面圓環,114,24.953874,121.2256
1,2005,中原大學,中壢區,中北路200號(中原大學校內懷恩樓後方空地),82,24.957943,121.240201
1,2006,銀河廣場,中壢區,九和一街48號對面銀河廣場人行道,58,24.961716,121.224241
1,2007,中壢區公所,中壢區,環北路380號旁人行道,40,24.965697,121.224696
1,2008,光明公園,中壢區,民權路322號對面停車場,96,24.962812,121.217385
1,2009,翠堤橋,中壢區,義民路105號旁人行道,46,24.953265,121.215878
1,2010,中壢國小,中壢區,康樂路61號旁公園,46,24.954097,121.220349
1,2011,莒光公園,中壢區,寧夏二街43號對面莒光公園入口圓環,30,24.951472,121.235693
1,2012,中壢火車站(後站),中壢區,新興路68-94號對面人行道,106,24.952352,121.224325
1,2013,桃園市立圖書館桃園分館,桃園區,民權路32號前方人行道,82,24.993040,121.310863
1,2014,捷運長庚醫院站(A8),龜山區,文化一路10巷旁停車場前人行道,58,25.060061,121.370974
1,2015,文化三復興一路口,龜山區,復興一路227-235號前方人行道,48,25.057653,121.364843
1,2016,大坪頂公園,龜山區,公園路32號對面大坪頂公園旁人行道,36,25.054611,121.366915
1,2017,中正公園(元化路),中壢區,元化路197巷對面中正公園旁人行道,40,24.960415,121.227300
1,2018,中壢區聯合辦公大樓,中壢區,溪洲街298號前方人行道,38,24.962068,121.230027
1,2019,民族公園,桃園區,汕頭街15號對面民族公園旁人行道,44,24.995946,121.306636
1,2020,朝陽森林公園,桃園區,朝陽街104-108號對面機車停車場,40,24.999107,121.312820
1,2021,桃園延平公園,桃園區,大豐路187號對面延平公園旁人行道,70,24.980482,121.314998
1,2022,福豐公園,桃園區,建國路昆明路口(西北側),38,24.985652,121.311513
1,2023,桃園火車站(後站),桃園區,延平路26號對面人行道,70,24.987795,121.314279
1,2024,桃園建國公園,桃園區,桃鶯路93號對面建國公園旁人行道,38,24.987418,121.317759
1,2025,國立陽明高中,桃園區,德壽街8號前方人行道,60,24.980404,121.303296
1,2026,夢幻公園,中壢區,榮安十三街榮民路口(西南側),46,24.962541,121.261596
1,2027,內壢自強公園,中壢區,強國路46號旁自強公園側人行道,50,24.967686,121.259279
1,2028,內壢復興公園,中壢區,復華街191號對面復興公園旁人行道,40,24.973630,121.248114
1,2029,元智大學,中壢區,遠東路135號(面元智大學左側人行道),64,24.970346,121.263249
1,2030,同德國中,桃園區,南平路479號對面同德國中旁人行道,38,25.016130,121.293908
1,2031,桃園展演中心(同德六街),桃園區,同德六街藝文二街口東南側廣場,50,25.016551,121.299970
1,2032,東溪綠園,桃園區,成功路二段1號旁小公園,70,24.993122,121.313558
1,2033,桃園市立圖書館平鎮分館,平鎮區,環南路三段88號右前方人行道,56,24.940031,121.218322
1,2034,新勢公園,平鎮區,延平路一段181號對面新勢公園旁人行道,48,24.950692,121.216686
1,2035,三民運動公園,桃園區,三民路一段200號前方人行道,50,25.000577,121.319691
1,2036,復興廣德街口,平鎮區,復興街廣德街口西南側人行道,36,24.954375,121.205035
1,2037,桃園展演中心(南平路),桃園區,南平路336號對面人行道,42,25.018038,121.298235
2,2038,國強公園,桃園區,國強一街益壽一街口(東北側人行道),56,24.993077,121.289327
1,2039,新埔公園,桃園區,同安街203號對面人行道,34,25.015195,121.303725
1,2040,信義國小,中壢區,成都路36號對面人行道,30,24.951017,121.231454
1,2041,桃園市立圖書館大林分館,桃園區,樹仁二街37號後方人行道,46,24.977812,121.321076
1,2042,桃園火車站(前站),桃園區,中正路1號面火車站右方人行道,60,24.989618,121.313022
1,2043,瑞慶公園,桃園區,中埔一街362號對面瑞慶公園旁人行道,40,25.019129,121.292954
1,2044,中寧公園,桃園區,同德二街177號對面中寧公園旁人行道,32,25.009993,121.299560
1,2045,陽明運動公園,桃園區,介壽路199號前方人行道,42,24.982285,121.308126
1,2046,大業國小,桃園區,民光東路280號對面人行道,42,25.006896,121.314760
1,2047,大有國中,桃園區,大有路民光東路口西北側人行道,48,25.008585,121.319869
1,2048,莊敬廣場,中壢區,莊敬路38-1號對面自行車停放區,48,24.971851,121.257255
1,2049,吉林路吉利六街口,中壢區,吉林路吉利六街口東南側人行道,42,24.982900,121.250406
1,2050,龍岡森林公園,中壢區,龍岡路三段289號對面龍岡森林公園旁人行道,44,24.933974,121.235924
1,2051,君臨公園,八德區,忠勇六街1號對面人行道,42,24.964524,121.305469
1,2052,中國科技大樓,龜山區,復興一路361號前方人行道,36,25.055570,121.361496
1,2053,光明國小,蘆竹區,南昌路忠孝西路口東北側人行道,42,25.041275,121.290229
1,2054,桃園龍岡公園,桃園區,國豐一街101號對面龍岡公園旁人行道,34,24.99039,121.281064
1,2055,桃園龍鳳公園,桃園區,國豐五街51號對面龍鳳公園旁人行道,40,24.989688,121.278943
1,2056,桃園市政府文化局,桃園區,縣府路21號面文化局左側路側,46,24.994184,121.300537
1,2057,成功春日路口,桃園區,成功路二段春日路口東南側人行道,100,24.994177,121.317130
1,2058,忠孝廣場,中壢區,忠孝路8-22號對面路側,50,24.972516,121.256853
1,2059,忠福廣場,中壢區,南園二路292號對面忠福廣場旁人行道,40,24.971805,121.227697
1,2060,健行科技大學,中壢區,健行路229號(商學大樓後人行道),66,24.946778,121.229011
1,2061,啟英高中,中壢區,西園路76號對面啟英高中旁人行道,50,24.975610,121.234553
1,2062,內壢文化公園,中壢區,文化路長春二路西北側公園旁人行道,42,24.979567,121.250102
1,2063,萬能科技大學,中壢區,萬能路1號(萬芳樓後方人行道),60,24.992749,121.229925
1,2064,中德里休閒廣場,桃園區,國際一路國際二路口西南側停車場,34,24.962275,121.293209
1,2065,桃園巨蛋,桃園區,三民路100號對面人行道,72,24.995393,121.323924
1,2066,龜山區公所,龜山區,中山街26號前方人行道,40,24.992532,121.337660
1,2067,龜山國中,龜山區,自強西路66號前方人行道,36,24.997536,121.339485
1,2068,西門綠園,桃園區,文康街61號對面人行道,32,24.993968,121.303884
1,2069,衛福部桃園醫院,桃園區,龍壽街60號對面人行道,34,24.979389,121.268981
1,2070,環中東永福路口,中壢區,環中東路325號前人行道,44,24.962030,121.255168
1,2071,南崁高中,蘆竹區,仁愛路二段1號(南崁高中旁人行道),34,25.052456,121.297856
1,2072,蘆竹區婦幼館,蘆竹區,五福路88號對面婦幼館人行道,36,25.050733,121.293711
1,2073,光明河濱公園,蘆竹區,光明路二段100號對面路側,36,25.046808,121.287677
1,2074,開南大學,蘆竹區,開南路1號(行政大樓南棟前停車場),56,25.011106,121.269685
1,2075,蘆竹吉林公園,蘆竹區,吉林路121-137號對面吉林公園旁人行道,44,25.049560,121.299397
1,2076,大和公園,八德區,銀和街29號對面公園,36,24.955717,121.296538
1,2077,月眉停車場,大溪區,月眉15鄰105號,50,24.889279,121.287613
1,2078,大溪中正公園,大溪區,普濟路80號旁停車場,44,24.883151,121.285453
1,2079,忠孝兒童遊樂場,桃園區,宏昌七街泰昌三街西南側廣場,58,24.986849,121.294739
1,2080,桃園市政府,桃園區,縣府路3號對面廣場,74,24.992799,121.301680
1,2081,五權公園,中壢區,正大街五族二街西北側人行道,42,24.958867,121.204579
1,2082,中壢新興公園,中壢區,林森路90號前方人行道,36,24.945265,121.226050
1,2083,桃園市立圖書館內壢分館,中壢區,光華三街10號前方人行道,50,24.977945,121.257972
1,2084,宋屋公園,平鎮區,廣泰路152號對面公園旁人行道,34,24.945284,121.204192
1,2085,中央大學依仁堂,中壢區,中大路300號(松苑餐廳前方廣場),58,24.967119,121.190958
1,2086,桃園市立圖書館龍岡分館,中壢區,台貿一街100號後方機車停車場,34,24.937936,121.255829
1,2087,思源公園,八德區,思源街122號(對面公園綠帶),32,24.973517,121.298761
1,2088,廣豐公園,八德區,公園路廣豐二街東北側人行道,40,24.966015,121.297907
1,2089,大湳公園,八德區,福國北街130號(對面公園綠帶),42,24.961775,121.295451
1,2090,廣仁公園,平鎮區,廣南路168號對面公園旁人行道,36,24.939478,121.206413
1,2091,新寶公園,平鎮區,新富五街41號(左側公園綠帶),34,24.939561,121.214068
1,2092,平鎮區婦幼館,平鎮區,廣成街10號對面路側,38,24.956269,121.208551
1,2093,文化二復興三路口,龜山區,文化二路復興三路口西南側人行道,36,25.051205,121.372325
1,2094,大華公園,龜山區,文化七路142號(右側人行道),38,25.051615,121.366364
1,2095,璟都江山社區,龜山區,光峰路131巷6號前方人行道,32,25.0023,121.342803
1,2096,捷運體育大學站(A7),龜山區,文化一路688號(捷運站出口前方人行道),32,25.040707,121.385161
1,2097,捷運山鼻站(A10),蘆竹區,南山路三段176號旁自行車停放區,22,25.080942,121.285489
1,2098,捷運大園站(A15),大園區,橫湳一路1號捷運站旁人行道,32,25.056627,121.209741
1,2099,捷運領航站(A17),大園區,領航北路四段358號對面人行道,40,25.023021,121.222169
1,2100,捷運高鐵桃園站(A18),中壢區,高鐵北路一段6號(對面捷運站出口外側人行道),62,25.013775,121.213932
1,2101,捷運桃園體育園區站(A19),中壢區,高鐵南路二段369號對面人行道,30,25.001568,121.202782
1,2102,捷運環北站(A21),中壢區,中豐北路26號旁人行道,40,24.967563,121.220967
1,2103,青埔國中,中壢區,領航北路二段281號前方人行道,36,25.010832,121.205798
1,2104,領航公園,中壢區,領航北路一段永裕路口北側公園旁人行道,38,25.007413,121.201054
1,2105,仁祥公園,中壢區,華祥一街3巷2號對面人行道,38,24.948864,121.260842
1,2106,篤行公園,中壢區,永福路47號對面人行道,34,24.958288,121.263280
1,2107,桃園市政府警察局桃園分局,桃園區,永安路375號旁人行道,34,25.000418,121.299434
1,2108,慈文國中,桃園區,中正路835號前方人行道,50,25.008916,121.301842
1,2109,同新公園,桃園區,同安街經國路251巷口(東南側人行道),42,25.012389,121.305633
1,2110,桃園永康公園,桃園區,力行路中正五街口東南側人行道,34,25.001890,121.302925
1,2111,桃園市立游泳池,桃園區,吉昌街86號(對面人行道),40,24.989458,121.292088
1,2112,寶山公園,桃園區,民有三街517號對面公園旁人行道,34,25.013132,121.313903
1,2113,國強一街上海路口,桃園區,國強一街上海路口西北側高架橋下廣場,40,24.992059,121.282126
1,2114,青溪公園,桃園區,自強路217號前方人行道,38,25.000959,121.317024
1,2115,甲蟲公園,中壢區,元生二街元生三街口西北側公園旁人行道,36,24.977542,121.252751
1,2116,中壢中央公園,中壢區,建國北路9號對面公園人行道,38,24.956663,121.226195
1,2117,新榮公園,平鎮區,振興西路新德街口西北側公園旁人行道,40,24.945991,121.214981
1,2118,重慶公園,八德區,重慶街183號對面公園旁人行道,30,24.955984,121.304068
1,2119,文青路,龜山區,文青路199號前方人行道,36,25.040189,121.388379
1,2120,龜山國小,龜山區,大同路23號對面人行道,50,24.994765,121.340557
1,2121,文興公園,龜山區,復興南路及復興南路26巷口東南側公園旁人行道,38,25.055851,121.371531
1,2122,迴龍國中小,龜山區,萬壽路一段168號前方人行道,40,25.019115,121.404963
1,2123,大同公園,龜山區,德明路77巷65號對面公園旁人行道,48,24.989332,121.342481
1,2124,樂善公園,龜山區,文安街50號(對面公園北側巷道),36,25.055461,121.380587
1,2125,蘆竹區公所,蘆竹區,南上路3號對面路側,40,25.047325,121.294341
1,2126,峻德宮,蘆竹區,奉化路292號旁路側,36,25.036999,121.292555
1,2127,桃園龍山國小,桃園區,龍祥街94號對面人行道,34,24.981988,121.271035
1,2128,介壽路(國2橋下),八德區,介壽路547號旁國道二號橋下空間,34,24.974220,121.302536
1,2129,桃禧航空城酒店,大園區,大觀路777號(桃禧航空城酒店園航路側人行道),26,25.061756,121.175354
1,2130,老街溪停車場,大園區,大觀路31巷1號旁老街溪上方停車場,36,25.064974,121.195804
1,2131,大中華幼兒園,大園區,中正三街9號對面空地,34,25.06179,121.201825
1,2132,華興池,大園區,華興路205號對面路側,36,25.059125,121.194852
1,2133,東安國中,平鎮區,平東路168號(面東安國中右側人行道),34,24.916497,121.249757
1,2134,大湖福德宮,龜山區,忠義路二段483號前方人行道,24,25.051424,121.358878
1,2135,中央警察大學,龜山區,樹人路56號(面中央警察大學校門左側),34,25.045564,121.352319
2,2136,桃園酒廠,龜山區,文化一路55號前方人行道,38,25.056078,121.375319
1,2137,五福停車場,蘆竹區,五福一路120號對面人行道,36,25.055851,121.294575
1,2138,大竹國小,蘆竹區,南竹路五段271號對面人行道,38,25.024481,121.259057
1,2139,中興環保公園,蘆竹區,大興四街61巷及大興四街路口公園內,32,25.016221,121.260268
1,2140,桃園中正公園(同安街),桃園區,同安街601號旁公園人行道,60,25.023701,121.297919
1,2141,建新公園,桃園區,陽明十二街25號對面公園旁人行道,38,24.979206,121.310324
1,2142,中正一正康一街口,桃園區,正康一街1號對面機車停車場,34,24.999637,121.308633
1,2143,平鎮和平公園,平鎮區,莒光路39號對面路側,32,24.947529,121.221136
1,2144,莊敬里民集會所,平鎮區,自強街莊福路口東北側人行道,30,24.904080,121.214821
1,2145,中豐坤慶路口,平鎮區,坤慶路1號前方人行道,30,24.90262,121.211817
1,2146,廣南停車場,平鎮區,環南路二段11號旁人行道,32,24.944913,121.208633
1,2147,龍潭大池(龍元路),龍潭區,龍元路144號對面龍潭大池旁人行道,38,24.863851,121.210032
1,2148,龍潭運動公園(北龍路),龍潭區,公園路北龍路口東南側公園旁人行道,38,24.868242,121.218519
1,2149,黎明公園,中壢區,同慶路榮民南路口西南側公園前方路側,30,24.939894,121.256127
1,2150,興仁公園,中壢區,興仁路二段120號對面公園內人行道,48,24.966256,121.263548
1,2151,自立新村(榮安一街),中壢區,榮安一街自立三街2巷北側人行道,32,24.965432,121.253381
1,2152,晉元路仁德一街口,中壢區,仁德一街28-4號對面路側,30,24.950926,121.261293
1,2153,龍和公園,中壢區,龍和三街290號(活動中心旁公園人行道),32,24.934221,121.244805
1,2154,萬壽中興路口,龜山區,萬壽路二段981號對面停車場,36,24.994938,121.337264
1,2155,大同西路簡易公園,桃園區,大同西路7巷4號對面公園,40,24.988164,121.304047
1,2156,霖園兒童公園,桃園區,國鼎二街132號(對面公園東側人行道),66,24.986079,121.287879
1,2157,家樂福經國店,桃園區,天祥三街10號對面人行道,44,25.016383,121.30502
1,2158,玉山公園,桃園區,南豐二街120號斜前方公園側,34,24.982621,121.301174
1,2159,會稽國中,桃園區,大興路222號(面會稽國中校門左側人行道),32,25.016115,121.313437
1,2160,國立體育大學綜合體育館,龜山區,文化一路250號(國立體大體育館前馬路旁人行道),42,25.035994,121.385040
1,2161,和盛公園,八德區,大和路101號對面公園側人行道,34,24.954289,121.296402
1,2162,楊梅火車站(前站),楊梅區,大成路256號(火車站前方人行道),50,24.913845,121.146247
1,2163,楊明國中,楊梅區,新農街337號(面楊明國中左側人行道),38,24.910546,121.154995
1,2164,楊梅國中,楊梅區,校前路86號對面人行道,46,24.904093,121.147179
1,2165,經國國中,桃園區,經國路276號(面經國國中校門左側人行道),32,25.0217,121.303596
1,2166,獅子林社區活動中心,平鎮區,大智街88號對面,34,24.928339,121.225294
1,2167,紫雲宮,中壢區,自忠二街126號對面停車場,34,24.944845,121.222832
1,2168,民俗文化公園,平鎮區,上海路及上海路119巷口西南側廣場,38,24.911914,121.206352
1,2169,風禾公園,桃園區,文中二路慈文路口東北側人行道,40,25.000991,121.289893
1,2170,財政部北區國稅局桃園分局,桃園區,三元街150號,36,25.003782,121.320733
1,2171,桃園觀光夜市旅客服務中心,桃園區,正康三街8號旁停車場,36,25.004089,121.308517
1,2172,大園國際高中,大園區,大成路二段37號對面人行道,60,25.020834,121.220506
1,2173,同福公園,八德區,和義街50號對面人行道,32,24.959257,121.308382
1,2174,大勇國小,八德區,忠勇街373號對面人行道,44,24.968624,121.303459
1,2175,上海南京路口,平鎮區,上海路227號旁人行道,38,24.915815,121.206128
1,2176,常樂公園,中壢區,文化二路237-243號旁公園人行道,40,24.976881,121.250856
1,2177,金鋒太子,中壢區,金鋒四街50巷2號對面,30,24.945911,121.248625
1,2178,華愛兒童公園,中壢區,華愛街35號對面公園旁人行道,32,24.952303,121.259724
1,2179,南榮公園,蘆竹區,南平街洛陽街口南側公園旁人行道,34,25.045165,121.291398
1,2180,龍潭行政園區,龍潭區,中興路681號對面人行道,36,24.869962,121.221761
1,2181,過嶺國中,中壢區,松智路過嶺路一段路口人行道,30,24.960203,121.175517
1,2182,南方莊園,中壢區,樹籽路8號對面停車場旁人行道,22,24.967284,121.177906
1,2183,工四工業區(頂湖路),龜山區,頂湖路33號(面工廠大門左側人行道),38,25.042612,121.362294
1,2184,陸光河濱公園,龜山區,同心二路19號對面公園內人行道,58,24.99485,121.330472
1,2185,山福里集會所,龜山區,中興路152號旁停車場,32,24.988965,121.331988
1,2186,大檜溪公園,桃園區,興一街65巷50號(地下停車場出入口旁公園),32,25.013781,121.31682
1,2201,大園國中,大園區,園科路400號前人行道,38,25.053976,121.171991
1,2202,清華高中,新屋區,中華路658號前方人行道,32,24.981699,121.107716
1,2203,觀音高中,觀音區,文中路46號對面人行道,42,25.014978,121.133881
1,2204,溫州公園,桃園區,大興西路二段139巷173號旁公園人行道,36,25.008,121.29825
1,2205,忠愛公園,平鎮區,金陵路二段454巷18號旁公園,34,24.93306,121.22493
1,2206,南亞技術學院,中壢區,中山東路三段414號內機車停車場,32,24.93756,121.25171
1,2207,華勛公園,中壢區,華仁街68巷34號對面公園,38,24.946622,121.261741
1,2208,中山親水公園,楊梅區,新農街80號旁公園內,32,24.909657,121.148482
1,2209,楓樹公園,龜山區,楓樹一街19號對面公園,42,25.00465,121.34496
1,2210,伯公岡公園,楊梅區,民生街101號對面公園,36,24.938531,121.084646
1,2211,中央造幣廠,龜山區,振興路577號前方人行道,40,25.013917,121.36006
1,2212,青塘園,中壢區,洽溪路133號對面公園人行道,48,25.00641,121.20492
1,2213,龍安公園,桃園區,國豐七街122號對面公園,30,24.99153,121.27619
1,2214,埔頂公園,大溪區,仁善街102號對面停車場內,36,24.90904,121.28357
1,2215,文化花園夜市,龜山區,龜山一路168號旁公園,34,25.064312,121.365578
1,2216,平鎮魚形公園,平鎮區,清泉街49-53號旁公園內,30,24.95796,121.19022
1,2217,大溪河濱公園,大溪區,瑞興段2407地號內停車格,42,24.89212,121.28389
1,2218,大明公園,八德區,興隆街2號對面公園,32,24.96875,121.32744
1,2219,國軍桃園總醫院,龍潭區,中興路179號對面人行道,36,24.87498,121.23637
1,2220,元聖宮,八德區,東泰街2號旁空地,34,24.96384,121.27843
1,2221,大江購物中心,中壢區,中園路二段501號前方人行道,44,25.00127,121.22939
1,2222,老街溪河川教育中心,中壢區,中原路58號前方人行道,36,24.953739,121.21856
1,2223,美光晶圓公司,龜山區,復興三路667號前方人行道,40,25.038673,121.374561
1,2224,兒九公園,大園區,致遠街致維街口公園內,34,25.005083,121.212793
1,2225,永定二保定三街89巷口,桃園區,永定二街保定三街89巷口公園內,32,24.99746,121.298213
1,2226,八德霖園公園,八德區,介壽路一段16巷73號旁公園人行道,34,24.97847,121.300762
1,2227,建德公園,八德區,長興路61號對面公園,38,24.931091,121.281626
1,2228,龍岡圓環,中壢區,龍東路龍岡路三段路口,30,24.926002,121.244046
1,2229,成功國小,桃園區,中正三街與長春路口,34,24.999511,121.306346
1,2230,新福大新一街口,蘆竹區,新福街125-127號對面,30,25.02428,121.25673
1,2231,龍安國小,蘆竹區,文中路一段35號,32,24.99242,121.27288
1,2232,綠九公園,蘆竹區,六福路/六福路247巷路口旁公園,36,25.061109,121.29726
1,2233,內厝社區活動中心,中壢區,中正路四段112號前方路側,32,24.989317,121.179425
1,2234,龍岡大操場,中壢區,龍岡路三段游泳路口旁公園人行道,36,24.930164,121.239605
1,2235,普忠路770巷口,中壢區,普忠路605號對面人行道,32,24.954231,121.251253
1,2236,青埔國小,中壢區,新生路四段127號對面人行道,34,25.00662,121.21368
1,2237,南崁溪自行車道(長壽路口),龜山區,半嶺段 44地號,38,25.001722,121.347685
1,2238,山仔頂公園,平鎮區,自由街57號對面公園,36,24.892175,121.20433
1,2239,桃園區南平運動中心,桃園區,南平路23號對面人行道,42,25.021357,121.306156
1,2240,溪濱公園,八德區,廣興二路廣興五街口旁公園,32,24.933108,121.278891
1,2241,豐德公園,八德區,豐田一路87號對面公園,38,24.926655,121.28745
1,2242,八德仁德公園,八德區,仁德路218號對面公園,32,24.935127,121.287328
1,2243,中德里市民活動中心,桃園區,國際路一段與國際路一段678巷口,32,24.977868,121.287946
1,2244,茄明里集會所,八德區,中華路27號外側人行道,36,24.986389,121.28182
1,2245,向陽公園,桃園區,正光路186巷50號對面人行道,40,24.997013,121.29609
1,2246,國豐公園,桃園區,龍鳳三街65巷2號對面公園,36,24.987028,121.279348
1,2247,公七公園,中壢區,青商路288-298斜對面公園內,34,25.008599,121.219904
1,2248,義興公園,平鎮區,義興街55號對面公園人行道,32,24.949106,121.209494
1,2249,上興公園,蘆竹區,上興路182號對面路側,34,25.018738,121.261501
1,2250,瑞塘公有停車場,楊梅區,萬大路187號對面停車場,32,24.908548,121.179031
1,2251,至善綠園,中壢區, 龍昌路32號對面公園,32,24.940354,121.249948
1,2252,仁和國小,大溪區,仁和二街50號旁人行道,30,24.897638,121.276781
1,2253,中鑄公園,中壢區,中華路一段619巷31號對面公園,32,24.968527,121.250653
1,2254,青松農場,中壢區,聖德路一段596之20號前方空地,30,24.995065,121.194071
1,2255,富岡車站,楊梅區,成功路58號斜對面廣場,32,24.934444,121.082367
1,2256,北門國小,桃園區,大連一街103號對面人行道,36,25.007437,121.306712
1,2257,菓林國小,大園區,菓林里12鄰41號前方人行道,26,25.077668,121.256217
1,2258,大魯閣(中正路),桃園區,中正北路2巷16號對面廣場,32,25.030046,121.293195
1,2259,同安國小,桃園區,同德十一街33號對面人行道,38,25.021257,121.297788
1,2260,文昌國中,桃園區,民生路729號前方人行道,36,25.010094,121.308003
1,2261,蘆竹區聯合辦公大樓,蘆竹區,長安路二段與東溪路口,32,25.062955,121.280302
1,2262,桃園市立圖書館山腳分館,蘆竹區,山外路117號旁人行道,32,25.08289,121.287672
1,2263,桃園市客家文化館,龍潭區,中正路三林段500號前方路側,30,24.845599,121.234624
1,2264,百年大鎮社區,龍潭區,中豐路279號前方人行道,28,24.877751,121.21176
1,2265,榮興橋,蘆竹區,南新段 948地號人行道,50,25.040756,121.294279
1,2266,十大觀光小城公園,大溪區,介壽路965號對面公園,40,24.905108,121.284806
1,2267,八德興豐公園,八德區,興豐路豐田路路口旁公園,40,24.930484,121.289487
1,2268,八德藝文廣場,八德區,瑞發街興豐路825巷口旁空地,30,24.933575,121.299289
1,2269,茄明公園,八德區,明光街56號對面公園人行道,32,24.98279,121.279858
1,2270,大忠停車場,八德區,大忠街140號對面人行道,40,24.958435,121.300971
1,2271,龜山中正公園,龜山區,自強北路19號對面人行道,38,24.999606,121.343598
1,2272,大仁里遊樂場,八德區,中華段 764地號,36,24.968349,121.319564
1,2273,萬坪公園,中壢區,龍昌路龍川九街路口旁人行道,36,24.932823,121.249297
1,2274,龍興國中,中壢區,龍勇路100號前方人行道,40,24.937841,121.236378
1,2275,竹風青田,中壢區,永園路一段130號前方人行道,28,25.011504,121.20184
1,2276,新福二路大仁街口,新屋區,新福二路/大仁街路口旁人行道,30,24.970672,121.105909
1,2277,龍安里集會所,中壢區,龍江路99號前方廣場,32,24.93149,121.25766
1,2278,四維兒童公園,楊梅區,四維二路95號對面公園,32,24.91279,121.18062
1,2279,新屋區公所,新屋區,中山路267巷1號對面路側,42,24.972532,121.105284
1,2280,國信公園,桃園區,國信街1號對面公園,40,24.994389,121.286743
1,2281,經國轉運站,桃園區,水汴頭段14地號園道內,40,25.02986,121.3008
1,2282,中壢仁德公園,中壢區,崁頂路崁頂路1401巷口旁人行道,38,24.953347,121.266529
1,2283,八德楓樹腳公園,八德區,介壽路二段931號對面公園,40,24.935287,121.297258
1,2284,龍慈龍和三街口,中壢區,龍慈路與龍和三街旁路側,40,24.940105,121.243768
1,2285,功學社新村,中壢區,功學路156號前方空地,30,24.954249,121.256356
1,2286,六和兒童公園,中壢區,六和路55號對面公園,32,24.963642,121.224583
1,2287,海湖農會,蘆竹區,海湖東路77號旁空地,24,25.101066,121.263396
1,2288,桃園市立圖書館龍潭分館,龍潭區,中正路210號對面路側,36,24.863704,121.216174
1,2289,台北榮民總醫院桃園分院,桃園區,成功路三段三聖路口旁人行道,46,25.002531,121.323988
1,2290,大竹游泳池,蘆竹區,大新一街115號旁空地,40,25.021193,121.257617
1,2291,富岡運動公園,楊梅區,新富七街180號斜對面,40,24.93788,121.089127
1,2292,捷運坑口站(A11),蘆竹區,捷運坑口站(A11)出入口前,48,25.086895,121.265778
1,2293,蘆竹親子公園,蘆竹區,六福路163號對面廣場,36,25.059,121.295414
1,2294,好市多南崁店,蘆竹區,南崁路一段369號 前方人行道,30,25.054957,121.282179
1,2295,山頂里集會所,龜山區,明興街36號旁人行道及路側,36,24.986224,121.33042
1,2296,臻愛家社區,龜山區,建國東路31號旁人行道,32,24.987167,121.324152
1,2297,八德區衛生所,八德區,介壽路二段361巷28號前廣場,30,24.947541,121.298567
1,2298,大埔國小,龜山區,振興路1169號前人行道,32,25.030009,121.375351
1,2299,水汴頭音樂廣場,桃園區,鹽庫西街70號對面空地,36,25.023323,121.305316
1,2300,桃智路廣豐三街口,桃園區,桃智路31號前外側人行道及路側,32,24.964802,121.295471
1,2301,迴龍商場,龜山區,萬壽路一段122號前人行道,28,25.018473,121.406675
1,2302,普忠榮民南路口,中壢區,普忠路1168號前人行道,32,24.949502,121.256339
1,2303,龍岡停車場,中壢區,龍東路202號機車停車場,36,24.930088,121.253064
1,2304,平鎮市廿公園,平鎮區,德育路二段104號對向人行道上,40,24.942799,121.218962
1,2306,中正光明路口,龍潭區,中正路339號對側高架橋下,32,24.860621,121.218056
1,2307,大安果樹公園,八德區,建安街長安街口公園廣場,32,24.950006,121.318555
1,2308,中山路裕和街口,桃園區,中山路1306號旁人行道,34,24.980741,121.274497
1,2309,莒光公園 (環中東路),中壢區,環中東路二段288號前人行道,34,24.948936,121.235966
1,2310,環中東實踐路口,中壢區,環中東路776號前人行道,40,24.953682,121.243344
1,2311,新南路一段榮興路口,蘆竹區,新南路一段榮興路口旁人行道,44,25.041056,121.29587
1,2312,瑞泰公園,八德區,介壽路2段583巷16弄12號對面空地,32,24.941473,121.298571
1,2313,觀音中興停車場,觀音區,中興路與玉林路口,32,25.038199,121.080987
1,2314,觀音國小,觀音區,文化路61號對面人行道,32,25.03451,121.083586
1,2315,中路兒2公園,桃園區,永安路765巷8號對面公園,30,25.007402,121.290432
1,2316,平鎮國民運動中心,平鎮區,興安路20號對面空地,62,24.913957,121.209701
1,2317,新明國中,中壢區,民族路109號對面人行道,38,24.956212,121.21231
1,2318,中華路一段文化二路口,中壢區,中華路一段480號前方人行道,50,24.970929,121.253549
1,2319,春日路民富九街口,桃園區,春日路618號前方人行道,34,25.007974,121.311688
1,2320,光明國中,蘆竹區,洛陽街139號之1對面人行道,38,25.044194,121.290175
1,2321,過嶺廣場,中壢區,松勤路13號對面公園,32,24.96035,121.164511
1,2322,藝文一街大興西路口,桃園區,藝文一街6號對面廣場,50,25.013286,121.301557
1,2323,中正莊敬路口,桃園區,中正路1379號前方人行道,32,25.023593,121.294916
1,2324,桃園市立圖書館東勢分館,平鎮區,金陵路五段55號前方空地,30,24.9105,121.231206
1,2325,光榮光峰路口,龜山區,光峰路299號旁公園,30,25.006866,121.343263
1,2326,南門公園,桃園區,文化街64號對面公園,42,24.991347,121.306248
1,2327,平鎮平興國中,平鎮區,育達路二段102號對面人行道,44,24.950435,121.205398
1,2328,八德埤塘自然生態公園,八德區,榮興段1483地號公園人行道,32,24.941091,121.310887
1,2329,龜山長樂公園,龜山區,長庚路169號對面公園,40,25.056873,121.383066
1,2330,頭重溪公園,楊梅區,三元街99號對面公園綠地,32,24.911118,121.171616
1,2331,觀音區棒壘球場,觀音區,福興街147之1號對面停車場,32,25.044671,121.138213
1,2332,中壢公15公園,中壢區,領航南路一段218號對面公園,32,25.000532,121.207897
1,2333,介壽公園,桃園區,介壽段16地號公園,34,24.979016,121.306013
1,2334,桃園高中,桃園區,成功路三段8號旁邊空地,62,24.997204,121.324855
1,2335,新街國小,中壢區,環北路564號旁步道,40,24.964378,121.228734
1,2336,福州橋,中壢區,福州二街513號對面步道,34,24.968299,121.234777
1,2337,陽明運動公園(建新街),桃園區,建新街163號對面公園籃球場旁,36,24.980992,121.311016
1,2338,南美國小,龜山區,南上路南美街口東北側人行道,34,25.048012,121.296449
1,2339,貿商社區,龜山區,自強南路自強南路301巷口,34,24.990411,121.334721
1,2340,平鎮棒球場,平鎮區,德育路240號旁人行道,34,24.946102,121.219066
1,2341,大溪永昌宮,大溪區,仁和路二段190巷27號前方廣場,32,24.904152,121.26523
1,2342,台茂購物中心,蘆竹區,南崁路一段112號前方人行道,40,25.05246,121.28779
1,2343,高鐵桃園站(3號出口),中壢區,高鐵北路一段6號前人行道,48,25.012423,121.215221
1,2344,環南金陵路口,平鎮區,環南路三段243號前方人行道,32,24.940731,121.222884
1,2345,文青一文青二路口,龜山區,文青路文青一路口東北側人行道,32,25.039422,121.3914
1,2346,三元公園,大溪區,員林路二段450號對面公園,32,24.882799,121.266547
1,2347,同安親子公園,桃園區,同安街358號對面公園,34,25.017355,121.302291
1,2348,老街溪環河步道(環北路),中壢區,環北路92號旁公園,32,24.9661,121.219325
1,2349,八德區公所,八德區,中山路40號對面人行道,34,24.929308,121.284555
1,2350,埔心停車場,楊梅區,金龍三路95號前停車場,32,24.912472,121.185342
1,2351,廣豐新天地,八德區,大智路17號對面廣場,40,24.964385,121.299811
1,2352,中信公園,桃園區,德華街92號對面路側,32,24.990791,121.286262
1,2353,桃園建國國小,桃園區,昆明路120號對面人行道,46,24.983616,121.31578
1,2354,高城公園,八德區,高城六街48巷9號旁公園,30,24.979318,121.274198
1,2355,桃園市立田徑場,龜山區,萬壽路二段1379號對面人行道,50,24.99277,121.32457
1,2357,廣明停車場,中壢區,廣明路78號旁停車場,40,24.954579,121.214063
1,2361,遠雄自貿港區加值園區,大園區,航翔路5號前方廣場,32,25.093612,121.255208
1,2364,合遠新天地,龜山區,華亞三路50號旁綠帶,60,25.047496,121.378891
1,2365,青埔公10公園,中壢區,青溪段233地號上人行道,40,25.014404,121.20756
1,2366,昭揚建築(水秀公園),桃園區,力行路688巷11號旁公園,32,24.99845,121.291143
1,2371,中科院一號門,龍潭區,中科段 1124地號空地,60,24.847931,121.24607
1,2372,中科院五號門,大溪區,石園路615號前方空地,60,24.867174,121.256142
1,2373,中科院石園三村,龍潭區,武漢路100號對面停車格,40,24.870971,121.23472
1,2374,中科院石園一村,龍潭區,佳安段712地號,60,24.836824,121.241561
1,2375,中科院石園二村,龍潭區,八德路1號旁停車場,40,24.831178,121.237482
1,2376,三坑自然生態公園,龍潭區,永福段1148地號,32,24.838888,121.25862
1,3001,逢甲大學,西屯區,台中市福星路/逢甲路口(潮洋機車停車場),100,24.178695,120.645010
1,3002,秋紅谷,西屯區,台中市朝富路/朝馬路口(國光客運朝馬站對面),96,24.167898,120.638895
1,3003,市政府(文心樓),西屯區,台中市文心路二段645號旁,64,24.161438,120.648701
1,3004,漢翔福星北路口,西屯區,漢翔路/福星北路交叉路口,60,24.185214,120.644423
1,3005,福星公園,西屯區,寶慶街50巷/河南路二段301巷,40,24.172421,120.6481
1,3006,櫻花棒球場,西屯區,櫻花路/洛陽路口,58,24.168671,120.653109
1,3007,重慶公園,西屯區,西屯路二段/天水西六街,40,24.1658893012632,120.655551552772
1,3008,頂何厝,西屯區,臺灣大道二段/東興路三段路口,38,24.159079,120.655825
1,3009,公益大英街口,南屯區,公益路二段/大英街口(星巴克前),40,24.150814,120.648481
1,3010,新光/遠百,西屯區,臺灣大道三段/惠來路二段,76,24.166146,120.642929
1,3011,青海逢甲路口,西屯區,青海路二段/逢甲路口,44,24.174652,120.639231
1,3012,忠明國小,西區,臺灣大道二段/忠明南路口,42,24.156769,120.659171
1,3013,大墩七街河南路口,南屯區,大墩七街/河南路四段口,50,24.144259,120.639554
1,3014,臺中仁愛醫院,中區,臺灣大道一段/興中街口,50,24.1437,120.67822
1,3015,博館育德路口,北區,博館路/育德路口,66,24.157464,120.669111
1,3016,科博館/金典酒店,西區,臺灣大道一段/健行路口,54,24.155525,120.66304
1,3017,中正國小,西區,英才路/臺灣大道二段179巷,58,24.152483,120.666281
1,3018,茄苳腳,西區,臺灣大道一段/梅川東路二段,54,24.150107,120.671377
1,3019,萬壽棒球場,西區,向上路一段/大進街口,52,24.146568,120.650534
1,3020,公益公園,西區,忠明南路/公益路口,48,24.150423,120.657475
1,3021,大墩文化中心,西區,五權路/英才路口,40,24.141249,120.666531
1,3022,英士公園,北區,日興街/英士路口,82,24.151149,120.675577
1,3023,大隆東興路口,西屯區,大隆路40號前,48,24.155731,120.654096
1,3024,文心森林公園,南屯區,文心路一段/向上路二段口,48,24.146743,120.646119
1,3025,五權西文心路口,南屯區,五權西路二段/文心路一段路口,42,24.139937,120.646885
1,3026,臺中州廳,西區,市府路/民權路口,42,24.138299,120.678756
1,3027,臺中公園,北區,公園路/自由路二段口,60,24.142596,120.684231
1,3028,臺中孔廟,北區,雙十路二段/力行路口,40,24.153274,120.689117
1,3029,育德梅川東路口,北區,育德路/梅川東路三段口,40,24.15748,120.67547
1,3030,太原北中清路口,北區,太原北路/中清路一段口,40,24.165115,120.673279
1,3031,臺中教育大學,西區,五權路/民權路口,36,24.145214,120.671185
1,3032,學士育德路口,北區,學士路/育德路口(中正停車場廣場),56,24.157757,120.681155
1,3033,中山地政事務所,西區,三民路一段/三民路一段156巷口,34,24.13654,120.673707
1,3034,臺中市民廣場,西區,中興街/公益路口,64,24.150621,120.663045
1,3035,國立自然科學博物館,北區,博館路101號對面,56,24.156199,120.665901
1,3036,經國園道,西區,向上路一段/英才路口,58,24.146778,120.664773
1,3037,國立臺灣美術館,西區,五權西路一段/美村路一段口,48,24.140682,120.661836
2,3038,北區行政大樓,北區,永興街/太原路二段口,48,24.166078,120.682416
1,3039,三光太原路口,北屯區,三光巷/太原路三段口,52,24.164742,120.696704
1,3040,北屯兒童公園,北屯區,興安路一段/北平路四段口,40,24.170187,120.694267
1,3041,力行國小,東區,力行路/進化路口,50,24.151573,120.693931
1,3042,臺中一中,北區,育才街/尊賢街口,60,24.149175,120.686487
1,3043,忠誠公園,西區,忠明路/華美西街一段口,50,24.161092,120.662753
1,3044,賴明公園,北區,梅川東路三段/漢口路四段口,40,24.167109,120.678381
1,3045,文華高中,西屯區,文心路三段/河南路一段口,70,24.171233,120.660673
1,3046,崇倫公園,南區,南屯路一段/美村路二段口,44,24.132292,120.661146
1,3047,臺中火車站(建國路),中區,建國路/中山路口,62,24.137380,120.684360
1,3048,黎明國中,南屯區,黎明路二段/市政南二路口,50,24.156493,120.634399
1,3049,豐樂雕塑公園,南屯區,文心南五路/向心南路口,42,24.132054,120.643470
1,3050,惠文高中,南屯區,大業路/惠中路二段口,44,24.153645,120.640400
1,3051,上石公園,西屯區,西屯路二段/上石北五巷口,36,24.172842,120.644939
1,3052,英才公園,北區,英才路/民權路口,48,24.155624,120.670979
1,3053,中德公園,北區,忠明六街/忠太西路口,44,24.163681,120.668407
1,3054,向心兒童公園,南屯區,文心南二路/向心南路口,46,24.13593,120.644625
1,3055,市政公園停車場,西屯區,市政北五路/惠中路一段口,46,24.160994,120.644537
1,3056,民俗公園,北屯區,熱河路二段/大連路二段口,46,24.175306,120.688075
1,3057,臺中國小,東區,信義街/臺中路口,50,24.13201,120.68447
1,3058,國立中興大學,南區,興大路/仁德街口,40,24.12391,120.677198
1,3059,大業公園,南屯區,大業路/大進街口,36,24.153686,120.651108
1,3060,忠孝國光路口,南區,忠孝路/國光路口,48,24.12811,120.67816
1,3061,大智國小,東區,建德街/大智路口,40,24.129560,120.690590
1,3062,健行國小,北區,健行路/健行路664巷口,40,24.159280,120.674100
1,3063,東峰公園,東區,仁和路/立德東街口,44,24.126270,120.688270
1,3064,太原華美街口,北區,太原路一段/華美街二段口,42,24.16482,120.66496
1,3065,柳川東中華路口,中區,柳川東路四段/中華路二段口,40,24.146920,120.678300
1,3066,忠明南美村南路口,南區,忠明南路/美村南路口,44,24.118980,120.667140
1,3067,忠明南復興路口,南區,忠明南路/復興路二段口,40,24.121750,120.661330
1,3068,新福公園,太平區,旱溪東路二段/中山路四段口,30,24.150890,120.701390
1,3069,積善公園,南區,大明路/興大路口,38,24.114900,120.671370
1,3070,山西公園,北區,山西路二段/北平路二段口,38,24.171060,120.675900
1,3071,北屯區文昌國小,北屯區,興安路一段/青島路四段口,42,24.167120,120.691520
1,3072,祥順運動公園,太平區,宜昌路87巷/宜昌路口,30,24.137470,120.712510
1,3073,永興公園,南區,工學路/工學一街口,46,24.116740,120.664880
1,3074,臺中高工,南區,高工路/工學二街口,60,24.113280,120.662010
1,3075,豐原高商,豐原區,圓環南路/中山路口,46,24.245290,120.713820
1,3076,興進園道,北區,興進路/興進路76巷口,38,24.155540,120.696730
1,3077,新平國小,太平區,育德路162巷/樹孝路274巷9弄口,34,24.154360,120.719750
1,3078,大甲鎮瀾宮,大甲區,鎮瀾街/中華街口,46,24.344500,120.623670
1,3079,國立公共資訊圖書館,南區,五權南路100號前,42,24.127450,120.669690
1,3080,臺中國家歌劇院,西屯區,惠民路/市政北六路口,50,24.164070,120.640120
1,3081,豐原廟東夜市,豐原區,中正路212巷/信義街口,36,24.252590,120.718640
1,3082,建成樂業路口,東區,建成路/樂業路口,42,24.138580,120.696690
1,3083,豐原火車站,豐原區,中正路/東北街口,68,24.254520,120.722650
1,3084,三甲公園,北屯區,旱溪東路三段/景賢南一路口,30,24.166210,120.706530
1,3085,北區太平國小,北區,太平路/大誠街口,50,24.148590,120.681610
1,3086,敦化公園,北屯區,后庄七街/敦化路一段口,40,24.187820,120.667520
1,3087,豐原地政事務所,豐原區,西安街/興安街口,36,24.249030,120.714410
1,3088,內新市場,大里區,中興路二段/東榮路一段口,32,24.110290,120.69004
1,3089,大甲區壘球場,大甲區,錦上街/雁門路口,30,24.354310,120.626030
1,3090,大甲區公所,大甲區,新政路/三民路口,32,24.349810,120.622640
1,3091,大甲火車站,大甲區,中山路一段/蔣公路口,62,24.344180,120.626880
1,3092,大甲體育場,大甲區,大安港路/大安港路53巷口,34,24.350388,120.615759
1,3093,豐原高中,豐原區,水源路/水源路129巷口,42,24.255730,120.74168
1,3094,一江橋,太平區,光興路/長龍路一段口,30,24.131210,120.737260
1,3095,新平立體停車場,太平區,中山路三段/樹孝路口,40,24.149030,120.715410
1,3096,樹德停車場,南區,德富路146巷/德吉街口,44,24.118510,120.654350
1,3097,長億公園,太平區,永成北路/永成北路151巷口,36,24.117760,120.714780
1,3098,宜昌兒童公園,太平區,十甲路615號對面,30,24.144420,120.713220
1,3099,中山醫學大學,南區,建國北路一段/文心南路口,46,24.122120,120.652710
1,3100,太平區運動場,太平區,永平路一段/中興東路口,36,24.130940,120.720470
1,3101,環河公園,大里區,永隆六街/爽文路口,30,24.11269,120.67397
1,3102,中興大學附屬高中,大里區,益民路二段/益民路二段230巷口,40,24.10991,120.68375
1,3103,臺中市籃球運動中心,北屯區,景賢六路/景賢南一路口,34,24.166380,120.711840
1,3104,東光國小,北屯區,東山路一段91巷/東山路一段123巷31弄口,32,24.17178,120.70236
1,3105,北屯區公所,北屯區,崇德路三段/崇德八路一段口,28,24.18299,120.68631
1,3106,大德公園,北屯區,平德路/平德路1巷口,30,24.18161,120.67207
1,3107,新都生態公園,北屯區,軍福十五路/祥順路二段口,36,24.173800,120.730080
1,3108,楓香公園,南屯區,楓樹西街/楓樹南街口,34,24.11578,120.62871
1,3109,鎮平公園,南屯區,楓樹西街366巷/黎明路一段口,30,24.12057,120.62915
1,3110,豐富公園,南屯區,東興路一段/文心南五路一段口,30,24.131700,120.653260
1,3111,五權火車站,南區,建國北路二段100巷/建國北路二段口,36,24.128620,120.664560
1,3112,江川公園,南區,復興園路/永東街口,36,24.124400,120.671590
1,3113,樹義公園,南區,大慶街一段257-3巷/福田三街口,32,24.11114,120.65512
1,3114,長青公園,北區,北平二街/北平路一段口,40,24.17187,120.6695
1,3115,大忠公園,西區,精誠三十街/大忠街口,30,24.143380,120.656200
1,3116,永隆七街永隆路口,大里區,永隆七街/永隆路口,30,24.1136,120.67607
1,3117,大里運動公園,大里區,國光路一段/大里路口,30,24.10028,120.68267
1,3118,國光花市停車場,大里區,德芳南路/德芳南三街口,38,24.103850,120.683660
1,3119,德芳南路德芳南一街口,大里區,德芳南路/德芳南一街口,36,24.10251,120.68731
1,3120,大甲高中,大甲區,水源路/中山路一段口,44,24.34222,120.62265
1,3121,樹仁公園,南區,福田二街/樹義路口,38,24.10885,120.65258
1,3122,樹義園道,南區,工學北路/樹義二街口,36,24.115330,120.656520
1,3123,中興大學附屬高農,東區,台中路/建中街口,46,24.12861,120.68491
1,3124,四張犁農村公園,北屯區,四平路/豐樂路二段口,34,24.194460,120.682160
1,3125,四張犁圖書館,北屯區,豐樂路二段/豐樂一街口,30,24.194700,120.680490
1,3126,大鵬國小,西屯區,大鵬路/大鵬路59巷口,38,24.17811,120.66567
1,3127,協和停車場,西屯區,安和西路/福玄路口,30,24.17754,120.62188
1,3128,環保公園,大里區,德芳路二段/永大街口,34,24.10456,120.67967
1,3129,大里圖書館,大里區,中興路一段/中湖路口,38,24.08778,120.69557
1,3130,坪林森林公園,太平區,中山路二段/中山路二段477巷口,30,24.15006,120.72839
1,3131,臺中女中,西區,自由路一段/康樂街口,40,24.13557,120.67733
1,3132,臺中市纖維工藝博物館,大里區,勝利二路口/德芳南一街,36,24.10036,120.68707
1,3133,南平公園,南區,和昌街/福新街口,38,24.124690,120.668510
1,3134,西大墩公園,西屯區,福科一街/福科二路口(西北側),36,24.176920,120.635770
1,3135,福科國民中學,西屯區,西屯路三段/玉門路370巷口,40,24.18972,120.61381
1,3136,潮洋環保公園,西屯區,朝貴路/市政北二路口,40,24.165920,120.633370
1,3137,東英停車場,東區,東英九街 / 一心街口,34,24.14212,120.70209
1,3138,大興公園,南屯區,南屯路二段/精誠南路口,32,24.13526,120.65436
1,3139,上安公園,西屯區,上安路/上仁街口,40,24.17065,120.64065
1,3140,世斌公園,西屯區,永福路/福安路88巷口,32,24.18219,120.61962
1,3141,臺中文化創意產業園區,南區,復興路三段/民生路口,50,24.13333,120.68052
1,3142,兒二公園,烏日區,中山路二段/新興路口,30,24.106030,120.616910
1,3143,松竹捷運站,北屯區,松竹路二段/北屯路口,50,24.18206,120.7014
1,3144,三分埔公園,北屯區,崇德五路 / 河北東街口,34,24.17922,120.68521
1,3145,蓬勃運動中心,北屯區,山西路二段/安順北一街口,42,24.1764,120.67659
1,3146,太原停車場,北屯區,太原路三段/建和路一段路口,28,24.162640,120.721460
1,3147,大仁公園,西屯區,甘肅路一段/甘州六街口,34,24.16569,120.65929
1,3148,長春兒童公園,大里區,長春路78巷/長春路78巷31弄口,30,24.08933,120.691380
1,3149,臺灣大道玉門路口,西屯區,臺灣大道四段/玉門路口,60,24.18425,120.60975
1,3150,國安一號公園,西屯區,國安一路/福林路口,30,24.19061,120.61472
1,3151,立新國中,大里區,立新二街/自立路口,32,24.10441,120.69877
1,3152,公館公園,西區,三民路一段/自由路一段口,38,24.13239,120.66929
1,3153,大里區公所,大里區,新興路/大新街口,32,24.09934,120.67711
1,3154,大明兒童公園,大里區,大明路366巷/大明路口,36,24.11513,120.67852
1,3155,十九甲健康公園,大里區,立元路/甲園街口,30,24.09988,120.69476
1,3156,土庫公園,西區,五權五街/五權西六街136巷口,30,24.13652,120.65786
1,3157,正心兒童公園,南屯區,大墩南路/文心南二路口,40,24.13593,120.64998
1,3158,萬和國中,南屯區,文心南三路/豐安街口,36,24.13354,120.63961
1,3159,復興停車場,南區,復興路三段/國光路口,36,24.13175,120.67634
1,3160,樂利公園,東區,十甲東路/東英六街口,32,24.13885,120.70752
1,3161,進業公園,東區,十甲東路/東英十五街口,36,24.1463,120.70959
1,3162,霧峰農工,霧峰區,中正路1222號前,44,24.07319,120.69985
1,3163,烏日圖書館,烏日區,長春街/長春街317巷口,32,24.10924,120.6371
1,3164,霧峰區公所,霧峰區,大同路/民生路口,36,24.0615,120.70012
1,3165,軍功公園,北屯區,松竹路一段/軍功路二段口,30,24.18200,120.71982
1,3166,和福公園,北屯區,軍福十路/和福路口,34,24.17032,120.72337
1,3167,雙十育樂街口,北區,雙十路二段/育樂街口,34,24.15778,120.69097
1,3168,自治公園,烏日區,公園路/五光路口,30,24.101880,120.628350
1,3169,曉明公園,北區,陜西東五街/漢陽西街口,32,24.16808,120.67118
1,3170,三信公園,西屯區,漢口路二段/寧漢三街口,32,24.16623,120.66372
1,3171,武昌公園,北區,陜西路/武昌路口,40,24.16906,120.66824
1,3172,內新國小,大里區,日新路/新仁路二段口,34,24.11141,120.69517
1,3173,豐田公園,北屯區,遼寧路一段/大連路三段口,32,24.17392,120.69675
1,3174,經補庫停車場,北屯區,東山路一段381-42號對面,30,24.17692,120.73184
1,3175,南苑公園,南屯區,文心南路/文心南五路一段口,44,24.13212,120.64696
1,3176,陽明大樓,豐原區,陽明街/陽明街66巷口,40,24.24698,120.721200
1,3177,萬和宮,南屯區,萬和路一段/文昌街口,40,24.13768,120.63903
1,3178,仁美公園,北屯區,崇德路三段/崇德十二路口,36,24.19044,120.68614
1,3179,梅川園道,北區,梅川東路三段/尚德街127巷口,30,24.16158,120.6766
1,3180,中平公園,太平區,中平九街/太平路176巷口,36,24.12079,120.7207
1,3181,旱溪停車場,東區,旱溪街/德興一街口,30,24.14082,120.70916
1,3182,國光公園(二二八廣場),大里區,興大南街/永隆街口,36,24.1165,120.67669
1,3183,文心國小,北屯區,綏遠路二段/文心路四段口,44,24.1732,120.68178
1,3184,消防公園,豐原區,仁洲街/豐原大道七段口,32,24.26208,120.71317
1,3185,進士公園,大里區,爽文路/德芳路三段口,30,24.1026,120.67473
1,3186,黎光公園,南屯區,干城街/懷德街口,34,24.15187,120.63052
1,3187,保安公園,南屯區,文山五街/保安五街口,52,24.14725,120.6122
1,3188,景美公園,北屯區,旱溪東路三段/軍福十八路口,50,24.17818,120.71103
1,3189,清水牛罵頭停車場,清水區,光華路/光華路137巷口,30,24.26851,120.5742
1,3190,豐原國中,豐原區,三豐路一段/豐北街口,40,24.26123,120.71971
1,3191,春社公園,南屯區,永春路/永春北路口,52,24.14051,120.61049
1,3192,新興國小,北屯區,新興路/同榮路7巷口,36,24.19443,120.66225
1,3193,豐原區公所,豐原區,市政路/育仁路口,34,24.24243,120.71827
1,3194,南陽公園,豐原區,永康路/永康路211巷口,40,24.24111,120.72528
1,3195,崇倫國中,南區,忠明南路/ 南屯路一段口(崇倫公園南側入口處),30,24.13259,120.65741
1,3196,進化廣場,北區,興進路/育興街口,34,24.15525,120.69332
1,3197,青年公園,大里區,公園街/公園街421巷口,30,24.08492,120.69363
1,3198,臺灣大道福林路口,西屯區,臺灣大道四段/福林路口,28,24.18361,120.61377
1,3199,新光國小,太平區,新興路/新福路口,36,24.15943,120.70703
1,3200,廍興公園,北屯區,樹孝路/太順路口,36,24.15934,120.72069
1,3201,進德國小,東區,進化路/福明街口,32,24.14607,120.69429
1,3202,潭子國小,潭子區,中山路二段391巷/中山路二段口,48,24.21325,120.70494
1,3203,松竹國小,北屯區,崇德六路一段/昌平路二段4巷口,36,24.18041,120.69046
1,3204,老樹公園,北屯區,經貿一路/順平路口,30,24.18259,120.66228
1,3205,健康公園附設停車場,南區,五權南路/五權南路380巷(西北側),36,24.12096,120.66988
1,3206,臺中市港區藝術中心,清水區,鎮政路/忠貞路口,36,24.26935,120.55791
1,3207,烏日區公所,烏日區,新興路/光日路口,34,24.10461,120.62355
1,3208,清水運動場,清水區,五權路/五權二街口,30,24.27824,120.55876
1,3209,軍功國小,北屯區,軍功路一段/軍福十三路口,30,24.17294,120.71896
1,3210,南屯區公所,南屯區,永春東路/永春東路515巷,32,24.13467,120.64454
1,3211,長福公園,東區,長福路/旱溪東路一段口,30,24.14402,120.70205
1,3212,臺中加工出口區,潭子區,中山路二段/南環路口,32,24.21707,120.70539
1,3213,立法院中部辦公室,霧峰區,中正路/蘭生街口,32,24.05584,120.69742
1,3214,臺中轉運站,東區,八德街/武德街口(停車場東南側),52,24.13887,120.68755
1,3215,臺中市議會,西屯區,市政北一路/惠文路口,34,24.158050,120.644030
1,3216,五權西忠明南路口,西區,五權西路一段/忠明南路口,32,24.139770,120.657080
1,3217,高美濕地第一停車場,清水區,高美路/美堤街口,50,24.302520,120.546430
1,3218,高美濕地第二停車場,清水區,臨港路六段100號(北側),38,24.295600,120.544100
1,3219,美術館園道,西區,五權七街/五權西四街口,34,24.135080,120.662870
1,3220,烏日國小,烏日區,平等路/憬學街口,36,24.10829,120.62334
1,3221,長青活動中心,大甲區,水源路/甲東路口,32,24.340690,120.627020
1,3222,文昌國小,大甲區,育德路/民生路口,36,24.34761,120.62419
1,3223,順天國小,大甲區,經國路/新美街口,36,24.34415,120.61746
1,3224,文修公園,西屯區,福星路/烈美街口,36,24.182340,120.642000
1,3225,北屯國小,北屯區,國校巷/北興街口,30,24.164160,120.690810
1,3226,上德公園,西屯區,智惠街/上石路口,32,24.16931,120.64451
1,3227,屯區藝文中心,太平區,長安東路/長安路口,30,24.156600,120.733740
1,3228,益民國小,大里區,益民路二段/益民路二段81巷口,30,24.106740,120.686730
1,3229,文心南六大墩南路口,南屯區,文心南六路/文心南六路171巷口,34,24.130820,120.649200
1,3230,國安國小,西屯區,東大路一段/國安一路口,32,24.193980,120.607090
1,3231,823紀念公園,北屯區,崇德九路/昌平東二路口,36,24.18695,120.68786
1,3232,祥和公園,北屯區,軍福七路/建和路一段口,30,24.165470,120.723220
1,3233,國立中興大學(中興湖),南區,中興路/弘道路口(國立中興大學(中興湖)),52,24.12043,120.67369
1,3234,新泰安火車站,后里區,福安路/安眉路口,30,24.33059,120.74164
1,3235,泰安鐵道文化園區,后里區,福興路/安眉路口,30,24.32256,120.748
1,3236,大慶火車站,南區,建國南路一段/大慶街二段口,64,24.11859,120.64747
1,3237,潭子火車站,潭子區,潭興路二段/中山路二段口,34,24.2116,120.70605
1,3238,社皮公園,豐原區,西勢一街/社興五街口,32,24.24451,120.70472
1,3239,臺中特殊教育學校,南屯區,大觀路/公益路二段口,30,24.151390,120.642600
1,3240,潭秀國中,潭子區,雅潭路一段/勝利路口,30,24.216150,120.700290
1,3241,富春國小,豐原區,豐西街/瑞安街口,30,24.25164,120.71288
1,3242,犁頭店公園,南屯區,惠中路三段/大墩四街口,40,24.142340,120.640570
1,3243,文化公園,大里區,仁福街/文化街口,30,24.09515,120.70038
1,3244,三和派出所,烏日區,三榮八路/三榮北一路口,30,24.108100,120.603320
1,3245,旭光國小,烏日區,健行路/榮泉路口,30,24.11109,120.59415
1,3246,東光園大智路口,東區,東光園路/大智路口,20,24.124730,120.690650
1,3247,東成東成二街口,北區,東成路/東成二街口,32,24.157110,120.701290
1,3248,軍福公園,北屯區,軍福十九路/軍榮五街口,30,24.180060,120.714910
1,3249,東福公園,東區,長福路/東英一街口,30,24.134210,120.703980
1,3250,瑞城國小,大里區,瑞城一街/美村街口,30,24.086110,120.702010
1,3251,文心崇德路口,北屯區,文心路四段/崇德路二段口,42,24.17198,120.68584
1,3252,臺中至善公園,西屯區,至善路/逢甲路253巷口,40,24.17492,120.64209
1,3253,東光園振興路口,東區,東光園路/振興路口,30,24.133330,120.697080
1,3254,大甲高工,大甲區,開元路71號(西南側),60,24.346610,120.639690
1,3255,光德國中,烏日區,信義街/僑仁街口,30,24.105390,120.640570
1,3256,沙鹿區公所,沙鹿區,鎮政路/鎮南路二段口,30,24.23392,120.56586
1,3257,塗城里活動中心,大里區,塗城路/塗成路33巷口,20,24.086550,120.722010
1,3258,大明國小,大雅區,中清路四段/雅環路三段口,30,24.228570,120.643100
1,3259,大華國中,大雅區,中清路三段/學府路口,38,24.21543,120.64953
1,3260,大雅國中,大雅區,學府路/學府路市場巷口,30,24.22432,120.6495
1,3261,高美濕地,清水區,高美路/美堤街口(木棧道內),82,24.310340,120.550190
1,3262,大雅公園,大雅區,中清路三段1132巷/中清路三段口,30,24.223450,120.647090
1,3263,樂成宮,東區,東光路/旱溪街口,30,24.140590,120.696740
1,3264,青海公園,西屯區,四川五街/四川東街口,34,24.164210,120.653530
1,3265,新建國市場(1號門),東區,樂業二路/建成路口,32,24.134960,120.695810
1,3266,外埔區公所,外埔區,六分路/甲后路三段口,30,24.332120,120.654590
1,3267,臺中火車站(復興路),東區,復興路四段/復興路四段149巷口,78,24.136,120.68631
1,3268,北區國民運動中心,北區,崇德路一段/美德街口,32,24.157160,120.684840
1,3269,高登公園,西屯區,重慶路/漢成街口,28,24.17106,120.66571
1,3270,新建國市場(5號門),東區,進德路/建成路口,30,24.13401,120.69386
1,3271,大源公園,太平區,大源十八街/環太東路口,30,24.14222,120.72286
1,3272,寶覺禪寺,北區,健行路/金龍街口,36,24.15903,120.68795
1,3273,安和國中,西屯區,天助街/中工三路口,30,24.17396,120.61723
1,3274,春安國小,南屯區,春安路/春安二街口,30,24.134540,120.608720
1,3275,日南火車站,大甲區,中山路二段140巷口/中山路二段口,36,24.3781,120.65396
1,3276,外埔國中,外埔區,外埔路/水美路口,30,24.33218,120.65077
1,3277,水安公園,南屯區,文心路一段/大業路口,50,24.15394,120.64665
1,3278,大智路停車場,梧棲區,大智路二段388號旁,30,24.25991,120.53398
1,3279,四育國中,南區,復興路二段/文林街口,46,24.126,120.66491
1,3280,東新國小,東勢區,勢林街/勢林街104巷口,30,24.260170,120.827610
1,3281,三民街停車場,東勢區,三民街/中新街20巷口,32,24.252440,120.830700
1,3282,圳前仁愛公園,神岡區,中山路/中山路1720巷口,30,24.258260,120.648730
1,3284,圓環北大昌街口,豐原區,圓環北路一段/大昌街口,30,24.25659,120.71672
1,3285,圓環西中山路口,豐原區,圓環西路/中山路口,40,24.25586,120.71263
1,3286,臺中市眷村文物館,北屯區,天祥街/北屯路50巷1弄口,38,24.16129,120.69495
1,3287,光大公園,沙鹿區,光大路/光華路口,30,24.24384,120.56529
1,3288,中山光華路口,沙鹿區,中山路/光華路口,38,24.23736,120.56425
1,3289,中山路四平街口,沙鹿區,中山路/四平街口,30,24.23781,120.56093
1,3290,何厝公園,西屯區,台灣大道二段740巷2弄/何厝街6巷口,32,24.16061,120.65492
1,3291,慈濟公園,豐原區,豐勢路一段/豐東路口,30,24.2579,120.73313
1,3292,民生英才路口,西區,民生路/英才路口,46,24.144350,120.664800
1,3293,高工南和路口,南區,高工路/南和路口,32,24.11456,120.66833
1,3294,東勢國小,東勢區,三民街/中興街口,30,24.25885,120.82934
1,3295,北新國中,北屯區,遼寧路一段/僑孝街110巷口,30,24.17888,120.69668
1,3296,潭子環保公園,潭子區,合作街38巷/合作街38巷76弄口,30,24.20462,120.70885
1,3297,中清文心路口,北區,文心路三段999號對面人行道,62,24.17344,120.67031
1,3298,新社高中,新社區,中和街三段國中巷10號(北側),30,24.23932,120.80722
1,3299,新社區公所,新社區,興社街二段28之1號(東側),30,24.23386,120.80847
1,3300,梧棲國小,梧棲區,文化路二段/民生街口,40,24.25359,120.53005
2,3301,崇光國小,大里區,益民路二段/益民路二段371巷口,30,24.11477,120.68399
1,3302,梧棲區公所,梧棲區,中和街/雲集街口,28,24.25492,120.5315
1,3303,秀泰廣場,東區,南京路/自由三街口,40,24.1401,120.6913
1,3304,大肚戶政事務所,大肚區,華山路/沙田路三段口,30,24.15446,120.54441
1,3305,大肚火車站,大肚區,華山路/平和街口,32,24.15414,120.54275
1,3306,動態公園,大肚區,大明二街/大德六街口,30,24.1539,120.54139
1,3307,沙鹿高工,沙鹿區,台灣大道七段/光華路口,42,24.23888,120.56583
1,3308,大弘公園,西屯區,太原路一段/大弘六街口,34,24.1628,120.66128
1,3309,神岡高工,神岡區,中山路/中山路652巷口,30,24.24723,120.68146
1,3310,惠來停車場,西屯區,惠來路二段/市政北一路口,34,24.15993,120.63961
1,3311,石岡區公所,石岡區,豐勢路1033號(北側),30,24.27508,120.78055
1,3312,大安國小,臺中市大安區,中山南路/中山南路304巷口,28,24.34547,120.58721
1,3313,潭子聯合辦公大樓,潭子區,豐興路二段/潭興路一段口,30,24.20382,120.7227
1,3314,谷關立體停車場,和平區,東關路一段/東關路一段分校巷口,30,24.20292,121.00537
1,3315,海墘國小,臺中市大安區,大安港路/大安港路1079巷口,30,24.37892,120.58839
1,3316,后里運動公園,后里區,成功路/文明路口,30,24.30637,120.7177
1,3317,龍井火車站,龍井區,龍新路/龍新路3巷口,32,24.19805,120.54372
1,3318,龍井圖書館,龍井區,觀光路/沙田路四段口,30,24.19213,120.54509
1,3319,中平國中,太平區,太平路300號旁,30,24.12264,120.71838
1,3320,神圳國中,神岡區,神清路/神清路54巷口,36,24.26049,120.65863
1,3321,麗寶樂園,后里區,福容路8號前,30,24.32349,120.69706
1,3322,大雅區公所,大雅區,雅環路二段299號旁,30,24.22917,120.64819
1,3323,太原火車站,北屯區,東光路/太原路三段口,70,24.16525,120.70004
1,3324,清水火車站,清水區,中正街/中正街73巷口,60,24.26312,120.57032
1,3325,孟春兒童遊樂場,大甲區,慈德路210號對面,30,24.38297,120.653
1,3326,中科管理局,西屯區,中科路2號,30,24.20889,120.6178
1,3327,巨大集團總部,西屯區,東大路一段/中科路口,30,24.208650,120.611540
1,3328,中科標準廠房,大雅區,科雅路/科雅五路口,30,24.22431,120.62829
1,6101,新竹火車站(前站),新竹市東區,新竹市東區中正路1號(火車站前廣場),116,24.801905,120.971134
2,6102,東門圓環,新竹市東區,勝利路2號(對面圓環人行道),32,24.803866,120.970556
1,6103,新竹市政府,新竹市北區,中央路106號(對面人行道),40,24.806138,120.96926
1,6104,明志書院立體停車場,新竹市東區,西大路317號(停車場前人行道),46,24.80167,120.96576
1,6105,辛志平校長故居,新竹市東區,東門街32號(汽車停車場),42,24.804317,120.973662
1,6106,中正北大路口,新竹市北區,中正路146號(機車停車場),42,24.808979,120.967098
1,6107,延平停車場,新竹市北區,延平路一段159巷22號(對面機車停車格),36,24.803791,120.956616
1,6108,建國公園(城隍廟),新竹市東區,西門街1號(對面汽車停車格),38,24.803382,120.966675
1,6109,新竹公園(公園路),新竹市東區,公園路300號(左側人行道),46,24.802579,120.978717
1,6110,遠東巨城購物中心,新竹市東區,民權路171號(對面人行道),72,24.809326,120.974258
1,6111,新竹三民公園,新竹市東區,中央路364-1號(網球場前人行道),40,24.811226,120.979624
1,6112,新竹轉運站,新竹市東區,東南街1巷6號(轉運站對面人行廣場),94,24.800896,120.973191
1,6113,新竹馬偕紀念醫院,新竹市東區,光復路二段690號(水源街對面公園人行道),36,24.800074,120.991278
1,6114,新源建功一路口,新竹市東區,新源街138號(對面人行道),40,24.802771,120.9932
1,6115,清華大學(北校門),新竹市東區,光復路二段101號(面校門右側人行道),110,24.796842,120.996686
1,6116,綠光公園,新竹市東區,鐵道路一段28巷81號(對面公園綠帶),40,24.812458,120.985033
1,6117,新竹教育大學,新竹市東區,南大路560號(對面人行道),56,24.794294,120.964533
1,6118,竹蓮寺,新竹市東區,竹蓮街72號(對面人行道),46,24.798283,120.97042
1,6119,北區區公所,新竹市北區,國華街69號(區公所前廣場),42,24.816444,120.970561
1,6120,經國民生路口,新竹市東區,民生路309號(旁公園綠帶),36,24.813884,120.973992
1,6121,湳雅公園,新竹市北區,武陵路157號(對面人行道),44,24.820368,120.967956
1,6122,天公壇,新竹市北區,中山路450-1號(對面西雅公園),32,24.799426,120.957256
1,6123,光復關新路口,新竹市東區,關新路21號(大樓前人行道),44,24.784875,121.01833
1,6124,金山街(集福宮),新竹市東區,金山街63號(對面公園綠地),40,24.777737,121.021936
1,6125,香山國小,新竹市香山區,牛埔東路260號(校門右側人行道),38,24.796454,120.944523
1,6126,北新竹火車站(新竹高工),新竹市東區,中華路二段2-1號前人行道,36,24.809629,120.983512
1,6127,新莊火車站,新竹市東區,關東路310號(車站出口右側人行道),56,24.788026,121.021660
1,6128,千甲火車站,新竹市東區,千甲路138-5號(民宅對面人行道),32,24.807119,121.002064
1,6129,三姓橋火車站,新竹市香山區,元培街32巷30號(車站出口前廣場),32,24.786994,120.92856
1,6130,香山火車站,新竹市香山區,中華路五段347巷2弄27號(火車站前廣場),32,24.763156,120.913819
1,6131,交通大學(大學路),新竹市東區,大學路200號(對面人行道),60,24.7894,121.00026
1,6132,元培醫事科技大學,新竹市香山區,元培街306號(校門對面機車停車場),40,24.778031,120.940465
1,6133,樹林頭公園,新竹市北區,東大路二段511號(對面汽車停車場),32,24.821419,120.960248
1,6134,清華大學(小吃部),新竹市東區,光復路二段101號(小吃部左側廣場),60,24.79288,120.99347
1,6135,交通大學(逐風廣場),新竹市東區,大學路1001號(女二宿前廣場),64,24.7849,120.99964
1,6136,赤土崎公園,新竹市東區,光復路二段153號(對面人行道),42,24.799007,120.993876
1,6137,國賓大飯店,新竹市東區,中華路二段188號(前人行道),32,24.80613,120.978
1,6138,新莊公園,新竹市東區,新莊街212號旁(公園人行道),30,24.78743,121.01736
1,6139,東大武陵路口,新竹市北區,東大路二段261號(旁人行道),40,24.81713,120.96398
1,6140,新竹和平公園,新竹市香山區,經國路三段78巷18號(對面公園人行道),34,24.79912,120.95243
1,6141,青草湖(煙波大飯店),新竹市東區,新竹市東區明湖路773號對面公園人行道,20,24.77386,120.97008
1,6142,十八尖山(新竹高商),新竹市東區,新竹市東區博愛街5巷2號對面停車場,40,24.79703,120.98755
1,6143,虎林棒球場,新竹市北區,新竹市東區延平路一段541號對面人行道,30,24.8052,120.94388
1,6144,新竹市文化局,新竹市北區,新竹市北區東大路二段15巷1號前人行道,34,24.81127,120.9693
1,6145,新竹棒球場,新竹市北區,新竹市北區民富街141號對面人行道,50,24.80778,120.96086
1,6146,新竹動物園,新竹市東區,新竹市東區博愛街111號(南側)人行道,32,24.80018,120.98126
1,6147,交通大學(研三舍),新竹市東區,新竹市東區交通大學綜合一館(南側出入口),60,24.7843,120.99642
1,6148,清華大學(台達館),新竹市東區,新竹市東區光復路二段101號(南側),60,24.79535,120.99197
1,6149,大庄國小,新竹市香山區,新竹市香山區大庄路46號(北側),24,24.78943,120.92778
1,6601,竹南火車站(東站),竹南鎮,維新路118號對面火車站前停車格,78,24.685872,120.881615
1,6602,竹南火車站(西站),竹南鎮,中山路125-1號對面廣場,50,24.686773,120.880035
1,6603,竹南鎮公所,竹南鎮,中正路112號前方,58,24.683726,120.873384
1,6604,中興商工,竹南鎮,大營路211號(面校門右側路側),60,24.688211,120.872691
1,6605,苗北藝文中心,竹南鎮,公園路206號對面人行道,40,24.690492,120.886002
1,6606,竹南博愛公園,竹南鎮,文化街大業街口西北側人行道,40,24.684594,120.871187
1,6607,頭份市公所,頭份市,中山路232號前方路側,40,24.686639,120.912857
1,6608,為恭醫院,頭份市,中央路11號前方人行道,46,24.687401,120.906551
1,6609,頭份運動公園,頭份市,公園路26號對面人行道,46,24.690657,120.892463
1,6610,苗栗火車站(東站),苗栗市,為公路8號前方,76,24.570282,120.822791
1,6611,苗栗火車站(西站),苗栗市,英才路英明街口東南側人行道,90,24.570348,120.820928
1,6612,苗栗農工,苗栗市,玉維路/玉清路380巷口,80,24.557326,120.835124
1,6613,苗栗高中,苗栗市,至公路183號(校門口對面人行道),106,24.558442,120.816250
1,6614,苗栗縣立圖書館,苗栗市,自治路口英才路口西北側人行道,62,24.565600,120.820767
1,6615,苗栗市公所,苗栗市,府前路76號旁人行道,40,24.561427,120.818888
1,6616,玉清宮,苗栗市,為民街30-6號外人行道,42,24.56388,120.826939
1,6617,南苗大同國小,苗栗市,大同路20巷3號旁人行道,42,24.55414,120.815459
1,6618,北苗康園,苗栗市,為公路236號對面人行道,36,24.571561,120.829594
1,6619,照南國小,竹南鎮,光復路331號對面橋墩下,36,24.693187,120.878598
1,6620,建國路(龍鳳宮),竹南鎮,建國路356巷西北側街口,38,24.691213,120.868274
1,6621,國家衛生研究院,竹南鎮,科研路35號(二號出口旁人行道),30,24.706979,120.914761
1,6622,苗栗客運頭份站,頭份市,日新街25號(面大門左側人行道),44,24.685498,120.911074
2,6623,尚順廣場,頭份市,中央路130號對面人行道,60,24.689597,120.904560
1,6624,蟠桃國小,頭份市,中興路503號對面人行道,40,24.693770,120.906165
1,6625,后庄國小(翠亨路),頭份市,翠亨街12-1號對面人行道,36,24.695699,120.899098
1,6626,建國國小(合作街),頭份市,力行街2-8號對面人行道,46,24.695089,120.912944
1,6627,頭份市立游泳池,頭份市,忠孝二路126號對面人行道,50,24.693084,120.910073
1,6628,中央八德一路口,頭份市,中央路603號前方人行道,32,24.694188,120.893014
1,6629,環市延平路口,竹南鎮,環市路三段186號前方人行道,38,24.691668,120.873330
1,6630,苗栗地方法院,苗栗市,中正路中興街口東側人行道,74,24.544623,120.816620
1,6631,昌隆廣場,頭份市,昌隆二街人行道上,30,24.688439,120.898359
1,7001,彰化火車站前站,彰化市,中正路一段/光復路口,96,24.08116289,120.539128
1,7002,彰化火車站後站,彰化市,忠孝街/辭修路口(東北側),62,24.082426,120.536982
1,7003,大成國小,彰化市,自強路/自強路299巷口,36,24.091114,120.546439
1,7004,泰和國小,彰化市,建國東路/泰豐街口(南側),44,24.09371,120.552512
1,7005,華興公園,彰化市,金馬路二段/彰新路一段115巷口(西南側),32,24.091114,120.538012
1,7006,南北管音樂戲曲館,彰化市,平和十一街/平和十四街口(西北側),42,24.068017,120.531188
1,7007,信義國中(小),彰化市,向陽街/崙平南路口(東北側),36,24.063276,120.527583
1,7008,成功社區活動中心,彰化市,民生南路/旭光西路口(西南側),32,24.071206,120.541735
1,7009,彰化縣警察局,彰化市,中正路二段800巷/中正路二段(西南側),40,24.065274,120.534621
1,7010,彰化縣政府,彰化市,中山路二段/南郭路一段(東南側),50,24.074962,120.545109
1,7011,彰化縣立圖書館,彰化市,中山路二段/東民街口(東北側),68,24.07842,120.545066
1,7012,中山國小,彰化市,中山路二段/永昌街(維種大廈對面),36,24.081976,120.546176
1,7013,原住民生活館,彰化市,中山路三段/中山路三段266號,30,24.086457,120.559974
1,7014,彰師附工,彰化市,工校街/竹和路口,60,24.08419,120.556315
1,7015,彰化師範大學,彰化市,進德路/進德路2巷(東南側),50,24.082828,120.558649
1,7016,彰興國中,彰化市,埔西街97巷/埔西街(東北側),30,24.059161,120.538473
1,7017,漢銘醫院,彰化市,中山路一段/雲長路(東北側),32,24.061081,120.535794
1,7018,陽明國中,彰化市,長順街/三民路口(西南側),38,24.086839,120.549417
1,7019,精誠中學,彰化市,精誠路/林森路口(東北側),50,24.073562,120.527465
1,7020,建國科技大學,彰化市,介壽北路108巷1弄(校門口前西南側),78,24.067811,120.548387
1,7021,忠孝國小,彰化市,忠誠路/孝德街口,38,24.084525,120.531894
1,7022,彰化基督教醫院,彰化市,旭光路235號前,34,24.071353,120.545484
1,7023,延平公園,彰化市,南平街61巷12號對面,40,24.066225,120.540608
1,7024,縣府第二辦公大樓,彰化市,建寶街20號旁(彰基福懋大樓),40,24.069634,120.545769
1,7025,長安中華路口(彰基中華分院),彰化市,長安街174號對面(彰基中華院區),30,24.078508,120.539353
1,7026,彰化縣衛生局,彰化市,中山路二段/中山路二段158巷口,40,24.068977,120.541129
1,7027,民族路219巷路口,彰化市,民族路/民族路219巷口,28,24.070936,120.539095
1,7028,平和國小,彰化市,中正路二段495號對面,30,24.071093,120.535866
1,7029,彰化高中,彰化市,南郭路一段/南郭路一段191巷口,68,24.073731,120.548572
1,7030,彰化藝術高中,彰化市,公園路一段/公園路一段409號路口(水利資源處),40,24.075322,120.55433
1,7031,三多公園,員林市,中山路二段(特力屋旁公園),52,23.969953,120.571365
1,7032,三樺公園,員林市,大同路二段129巷/大仁南街37巷,56,23.967985,120.576829
1,7033,員林高中,員林市,靜修路員林高中游泳池旁,56,23.962426,120.563353
1,7034,三角公園,員林市,中山路2段與靜修路交叉處,54,23.962387,120.57096
1,7035,員林分局,員林市,大同路一段與和平東街交叉路口,54,23.96296,120.579699
1,7036,崇實高工,員林市,和平東街102號對面,38,23.962068,120.57478
1,7037,至善公園,員林市,至平街靠近福榮街(至善公園)旁,60,23.959641,120.564829
1,7038,員林火車站前廣場,員林市,民權街54號對面,100,23.959313,120.570467
1,7039,員林市公所,員林市,三民街18號,60,23.958936,120.574721
1,7040,員林郵局,員林市,林森路調解委員會對面,50,23.95782,120.577655
1,7041,第一市場,員林市,民生路130號對面,52,23.95645,120.573036
1,7042,員林農工,員林市,員水路二段全家對面,50,23.955386,120.58141
1,7043,老人文康活動中心,員林市,惠明街18巷公園草地(老人會館),36,23.952859,120.571816
1,7044,泰山停車場,員林市,浮圳路二段/大仁南街口,44,23.965078,120.575809
1,7045,員林國小,員林市,大同路一段與三民東街交叉處,48,23.960225,120.580144
1,7046,育英國小,員林市,光明街31號(面對育英國小校門口左側),60,23.95292,120.574393
1,7047,彰化地方法院,員林市,中山路-二段與法院南街交叉路口(法院圍牆旁),48,23.965865,120.571708
1,7048,員林轉運站,員林市,靜修路52之1號(彰客與全家前面),46,23.962352,120.568948
1,7049,員林演藝廳,員林市,中正路2巷99號左側,48,23.949145,120.57883
1,7050,彰化秀傳醫院,彰化市,中山路一段/中山路一段556巷口,40,24.065206,120.537465
1,7051,彰化縣旅遊服務中心,鹿港鎮,復興路(漁會大樓對面人行道),100,24.058904,120.434417
1,7052,鹿港國小,鹿港鎮,三民路192號(南側人行道),20,24.05088,120.43345
1,7053,桂花巷藝術村,鹿港鎮,公園一路與成功路交叉口,56,24.056364,120.430651
1,7054,鹿港鎮公所,鹿港鎮,民權路與忠孝路口(公所大樓左側機車格),48,24.057138,120.43487
1,7055,第一立體停車場,鹿港鎮,民族路菜園路口(民族路252號對面),46,24.05367,120.432832
1,7056,鹿港圖書藝文中心,鹿港鎮,文化路新興街口(文化路藝文中心前機車停車場內),54,24.046569,120.438419
1,7057,鹿港民俗文物館,鹿港鎮,景興街停車場(館前街80號左側人行道),56,24.054177,120.436705
1,7058,福興第一停車場,鹿港鎮,復興路120號對面停車場人行道,60,24.05259,120.438842
1,7059,鹿港高中,鹿港鎮,中山路596號對面,118,24.060339,120.42714
1,7060,鹿港分局,鹿港鎮,東興路295號對面人行道,60,24.058975,120.43818
1,7061,鹿港鎮立圖書館,鹿港鎮,公園路三路83號(機車停車場左側),58,24.055051,120.431338
1,7062,鹿東國小,鹿港鎮,民主街與自治街口,50,24.058632,120.441871
1,7063,鹿港運動場(勞工教育學苑),鹿港鎮,建國路與中正路口,58,24.062757,120.435272
1,7064,鹿港基督教醫院,鹿港鎮,自由路147號(藥局前方),50,24.060934,120.437716
1,7065,鹿港頂厝公園,鹿港鎮,鹿興路47號(對面人行道上),50,24.05501,120.444416
1,7066,鹿港文武廟,鹿港鎮,彰鹿路八段(文武廟前停車場),56,24.049305,120.438947
1,7067,文開國小(天后宮停車場),鹿港鎮,復興南路與民生路口,50,24.056399,120.42876
2,7068,復興南三民路口(摸乳巷),鹿港鎮,復興路與三民路交叉路口,50,24.050978,120.431724
1,9601,竹科管理局,新竹科學園區,新安路2號前人行道,50,24.78142,121.00607
1,9602,科技生活館,新竹科學園區,工業東二路1號旁人行道,100,24.78004,121.0054
1,9603,靜心湖,新竹科學園區,竹村七路7號前人行道,48,24.77874,121.01078
1,9604,金山寺,新竹科學園區,湖濱二路201號旁(人行道),50,24.77739,121.01466
1,9605,矽導研發中心停車場,新竹科學園區,力行二路2號前人行道,46,24.77279,121.01881
1,9606,篤行會館,新竹科學園區,篤行路6號前人行道,50,24.77092,121.02517
1,9607,園二園三廣場,新竹科學園區,園區三路1號(對面人行道),60,24.77282,121.01019
1,9608,研發四路公園,新竹科學園區,園區二路15號(斜對面人行道),50,24.77884,120.99843
1,9609,交通大學-新安路,新竹科學園區,新安路/園區三路口(東南側),60,24.783860,120.994200
1,9610,研發二路停車場,新竹科學園區,研發二路/創新三路口(東側),36,24.77786,121.00223
1,9611,力行一路力行六路口,新竹科學園區,力行一路/力行六路口(北側),36,24.77395,121.015500
1,9612,聯園,新竹科學園區,力行三路/力行二路口(北側),34,24.76807,121.019150
1,9613,園區三路研新一路口,新竹科學園區,研新一路/園區三路口(西北側),40,24.77678,120.995120
1,9614,同業公會,新竹科學園區,展業一路/新安路(北側),36,24.782280,121.001980
1,9615,興業二路停車場,新竹科學園區,興業二路/研新三路口(西側),40,24.778720,120.989960
1,1682,中央路一段292巷口,土城區,中央路一段274號(對面),48,24.982650,121.443680
1,1722,安居公教住宅,新店區,安忠路52號(前),30,24.959504,121.512927
1,1731,新北大道昌平街口(臨時站),新莊區,新北大道三段67號斜前方人行道,16,25.060353,121.454735
1,1703,新店高中(中央路),新店區,中央路97號(對面),42,24.975080,121.531030
1,1727,八里行政中心,八里區,十三行路(靠中山路二段路口西南側人行道),36,25.153974,121.407211
1,1729,民生路156巷,新店區,民生路156巷80號(旁),26,24.982019,121.527509
1,2362,仁愛兒童公園,桃園區,宏昌九街17號對面公園,36,24.985429,121.291219
1,2358,高鐵北青昇二街口,中壢區,高鐵北路二段96號旁公園,32,25.018035,121.220334
1,1718,野柳地質公園,萬里區,港東路161號(對面),50,25.204771,121.690132
1,1719,白沙灣,石門區,頭圍段八甲小段236號(停車場內),50,25.285491,121.522085
1,1721,淺水灣,三芝區,北勢子42之11號(對面停車場內),50,25.252317,121.471307
1,1730,深澳漁港,瑞芳區,深澳路16-7號前方廣場,30,25.129973,121.818566
1,1728,疏洪東竹圍仔街口,三重區,疏洪東路/竹圍仔街口(東北側人行道),18,25.048614,121.486398
1,2360,下埔子溪綠地(天祥七街),桃園區,天祥七街72號旁公園,40,25.023509,121.300758
1,3283,后里火車站,后里區,圳寮路/圳寮路160巷口,48,24.31008,120.73308
1,2363,竹風青庭,中壢區,領航北路一段296號前方人行道,30,25.006039,121.20138
1,2356,忠孝黃昏市場,中壢區,吉利七街65號旁綠地,36,24.982262,121.25297
1,2359,文化二華亞二路口,龜山區,文化二路200號前人行道,32,25.047446,121.37482
1,3329,台灣美光,后里區,三豐路四段/后科南路口,40,24.316510,120.724080
1,2368,玖都機構,中壢區,公園路一段文發路口(土地公廟前),32,25.004995,121.208652
1,1723,林建生紀念圖書館,蘆洲區,三民路178號(前),34,25.088434,121.469879
1,1736,中山八德街口,樹林區,中山路二段10號對面人行道,32,24.985156,121.417765
1,1738,輕軌漁人碼頭站,淡水區,中正路二段/中正路二段51巷口(輕軌站旁),50,25.182020,121.418820
1,1748,深坑雲鄉路,深坑區,雲鄉路1號(旁橋下汽車停車格),16,24.999880,121.621010
1,1720,文化路二段182巷1弄,板橋區,文化路二段182巷3弄95號(對面),40,25.029258,121.472405
1,1725,三峽國中,三峽區,復興路238號(前人行道),50,24.938882,121.369399
1,1739,凌雲路一段158巷口,五股區,凌雲路一段158巷22號(對面),30,25.103520,121.448100
1,2369,天翔社區,中壢區,華美三路353號前人行道,30,24.946126,121.258832
1,2381,順興公園,蘆竹區,南順二街26號旁公園,36,25.041562,121.287254
2,2305,復興三民路口,桃園區,復興路308號旁停車場,50,24.989258,121.306696
1,1734,中華城林路口,土城區,中華路二段175號(前),44,24.974993,121.438631
1,2380,中壢區殯葬服務中心,中壢區,培英路289號前人行道,32,24.976932,121.227558
1,2379,埔心火車站(前站),楊梅區,永美路210號旁廣場,32,24.919407,121.183889
1,1708,綠湖公園,新店區,中興路三段6號(旁),44,24.977560,121.547510
1,1726,宏匯廣場,新莊區,中央路558號(旁),40,25.059319,121.449083
1,1742,瓊林公園,新莊區,中環路一段16號(對面陸橋下),30,25.026290,121.442450
1,1705,新店行政園區,新店區,北新路一段88巷1號(對面),100,24.967570,121.542050
1,1747,輕軌沙崙站,淡水區,觀海路/淡海路口(北側),30,25.187370,121.416750
1,1717,捷運新埔民生站,板橋區,民生路三段70號對面停車場內,32,25.025979,121.466567
1,2384,文化三路文二一街口,龜山區,文化三路7號前人行道,32,25.060223,121.362284
1,2377,治平中學,楊梅區,福德街143號斜前方停車場,44,24.916161,121.186656
1,2382,華亞二路260巷口,龜山區,華亞二路270號前綠地,32,25.043413,121.373481
1,500101001,捷運科技大樓站,大安區,復興南路二段235號前,17,25.02605,121.5436
2,500101002,復興南路二段273號前,大安區,復興南路二段273號西側,15,25.02565,121.54357
1,500101003,國北教大實小東側門,大安區,和平東路二段96巷7號,16,25.02429,121.54124
1,500101004,和平公園東側,大安區,和平東路二段118巷33號,11,25.02351,121.54282
1,500101005,辛亥復興路口西北側,大安區,復興南路二段368號,16,25.02153,121.54299
1,500101006,復興南路二段280號前,大安區,復興南路二段280號,11,25.02429,121.54328
1,500101007,復興南路二段340巷口,大安區,復興南路二段342號,11,25.02253,121.54326
1,500101008,新生南路三段52號前,大安區,新生南路三段52號,17,25.02112,121.53407
1,500101010,新生南路三段82號前,大安區,新生南路三段82號,20,25.01894,121.53361
1,500101011,羅斯福路三段333巷9號旁,大安區,羅斯福路三段333巷9號,7,25.01757,121.53271
1,500101012,辛亥路一段30號前,大安區,辛亥路一段30號,8,25.01986,121.52982
1,500101014,羅斯福路三段311號前,大安區,羅斯福路三段311號,11,25.01717,121.53202
1,500101016,羅斯福路三段245號前,大安區,羅斯福路三段245號,8,25.01927,121.52989
1,500101015,大安運動中心停車場,大安區,敦南街76巷28號,14,25.020348,121.546446
2,500101017,羅斯福路三段269巷5號前,大安區,羅斯福路三段269巷5號,10,25.01913,121.53079
1,500101018,溫州公園,大安區,羅斯福路三段283巷11號,5,25.01895,121.53156
1,500101019,和平臥龍街口,大安區,臥龍街1號,15,25.024461,121.546705
1,500101020,溫州停車場,大安區,新生南路三段54巷/溫州街口,5,25.02093,121.5331
1,500101021,銘傳國小側門,大安區,羅斯福路四段21號旁天橋下,7,25.01385,121.53549
1,500101023,第二學生活動中心,大安區,羅斯福路四段107號(西南側),27,25.01244,121.53661
1,500101024,臺灣科技大學正門,大安區,基隆路四段43號(臺灣科技大學正門旁小側門靠田徑場),30,25.01451,121.54142
1,500101025,臺灣科技大學側門,大安區,基隆路四段73巷與基隆路口,12,25.01295,121.53973
1,500101026,公館公園,大安區,羅斯福路四段113巷基隆路四段41巷口,15,25.01137,121.54062
1,500101027,臺灣科技大學後門,大安區,基隆路四段41巷68弄臺科帆船大樓旁,15,25.01182,121.54165
1,500101028,臺大醫學院附設癌醫中心,大安區,基隆路三段155巷57號西側,20,25.01426,121.54382
1,500101029,臺大環研大樓,大安區,芳蘭路/基隆路三段155巷口,15,25.01234,121.54503
1,500101030,臺大永齡生醫工程館,大安區,芳蘭路51號西北側,15,25.0136,121.54656
1,500101031,臺大男七舍前,大安區,長興街/長興街80巷口西側,20,25.01537,121.54698
1,500101032,臺大男一舍前,大安區,長興街50號西北側,32,25.01637,121.54535
1,500101033,臺大男六舍前,大安區,大安區長興街31號,20,25.01664,121.5452
1,500101034,臺大動物醫院前,大安區,基隆路三段155巷/基隆路四段口,18,25.01576,121.54291
1,500101035,臺大土木研究大樓前,大安區,辛亥路三段188號,11,25.01787,121.5476
1,500101036,臺大萬才館前,大安區,臺大萬才館北側,20,25.02032,121.54497
1,500101037,臺大國青大樓宿舍前,大安區,辛亥路三段30號西北側,20,25.02076,121.54432
1,500101038,臺大社科院圖書館前,大安區,辛亥路與復興南路口西南側,27,25.02101,121.54284
1,500101039,臺大法人語言訓練中心前,大安區,臺大法人語言訓練中心北側,28,25.02104,121.54081
1,500101040,臺大綜合體育館停車場前,大安區,臺大綜合體育館北側,25,25.0222,121.53626
1,500101041,辛亥新生路口東南側,大安區,辛亥新生路口東南側,21,25.02218,121.53474
1,500101042,基隆長興路口東側,大安區,基隆長興路口東側,15,25.01727,121.54471
1,500101091,國北教大側門南側,大安區,敦南街51號,25,25.022864,121.546622
1,500101092,和平實小東北側,大安區,敦南街73號,13,25.021641,121.54704
1,500101093,大安區健康服務中心,大安區,辛亥路三段15號,15,25.021469,121.544069
1,500106001,臺北自來水事業處,中正區,思源街1號東側,20,25.013741,121.53068
1,500106002,汀州思源街口東南側,中正區,汀州路三段思源街口東南側,20,25.014697,121.531908
1,500106003,捷運公館站(1號出口),中正區,羅斯福路四段68號,12,25.014529,121.534374
1,500106004,捷運公館站(4號出口),中正區,羅斯福路四段48號,12,25.015069,121.533828
1,500101013,和平復興路口西北側,大安區,復興南路二段236號,9,25.02543,121.54332
1,500101009,新生南路三段66號前,大安區,新生南路三段66號東側,20,25.01976,121.53384
1,500101022,捷運公館站(2號出口),大安區,捷運公館站(2號出口)外側,60,25.01491,121.53438
1,500101094,辛亥泰順街口,大安區,辛亥泰順街口東南側,23,25.02193,121.53165
1,500119076,臺大博理館西側,臺大專區,臺大博理館西側,10,25.01922,121.54195
1,500119051,臺大立體機車停車場,臺大專區,基隆路三段/基隆路三段156巷口北側,27,25.01616,121.54251
1,500119066,臺大凝態館南側,臺大專區,臺大物理系館南側,20,25.02157,121.53633
1,500119050,臺大小福樓東側,臺大專區,臺大小福樓東側,20,25.01846,121.5376
1,500119062,臺大公館停車場西北側,臺大專區,臺大公館停車場西北側,12,25.01345,121.53798
1,500119087,臺大總圖書館西南側,臺大專區,臺大圖書館西南側,30,25.0169,121.54031
1,500119090,臺大新體育館東南側,臺大專區,臺大體育館東側,20,25.02112,121.53591
1,500119064,臺大明達館機車停車場,臺大專區,臺大明達館西側,10,25.01754,121.54398
1,500119077,臺大博雅館西側,臺大專區,臺大博雅館西側,56,25.0189,121.536
1,500119085,臺大電機二館東南側,臺大專區,臺大電機二館南側,14,25.01857,121.54247
1,500119008,臺大檔案展示館,臺大專區,臺大檔案展示館東北側,10,25.01391,121.52895
1,500119052,臺大工綜館南側,臺大專區,臺大工學院東南側,16,25.01857,121.54059
1,500119074,臺大生命科學館西北側,臺大專區,臺大動物博物館西側,10,25.01548,121.53825
1,500119075,臺大第一活動中心西南側,臺大專區,第一學生活動中心東南側,40,25.01761,121.53995
1,500119086,臺大圖資系館北側,臺大專區,臺大圖書資訊館北側,10,25.01804,121.53928
1,500119005,臺大水源舍區A棟,臺大專區,汀洲路三段60巷2弄路側(A舍北側),37,25.01493,121.53044
1,500119072,臺大原分所北側,臺大專區,臺大原子與分子科學研究所東北側,12,25.01881,121.53868
1,500119073,臺大校史館南側,臺大專區,臺大校史館南側,10,25.01751,121.53569
1,500119080,臺大小小福西南側,臺大專區,臺大進修教育大樓,10,25.01539,121.53686
1,500119009,臺大水源舍區B棟,臺大專區,汀洲路三段60巷2弄路側(B舍北側),30,25.01525,121.53009
1,500119048,臺大大一女舍北側,臺大專區,臺大女一舍北側,53,25.01547,121.53436
1,500119068,臺大社會系館南側,臺大專區,臺大社會及社工館南側,10,25.01987,121.54175
1,500119070,臺大椰林小舖,臺大專區,臺大椰林小舖旁,25,25.01561,121.53583
1,500119044,臺大仰萃樓東南側,臺大專區,臺大仰萃樓東南側,10,25.01408,121.53759
1,500119054,臺大心理系館南側,臺大專區,臺大心理學系南側,10,25.01941,121.5404
1,500119046,臺大管理學院二館北側,臺大專區,管理學院二號館北側,11,25.01355,121.53673
1,500119043,臺大男八舍東側,臺大專區,臺大男八舍東側,42,25.01729,121.54531
1,500119078,臺大森林館北側,臺大專區,臺大森林系學系北側,10,25.01704,121.53888
1,500119058,臺大舊體育館西側,臺大專區,臺大田徑場東側,10,25.0198,121.53583
1,500119060,臺大共同教室東南側,臺大專區,臺大共同教學館東南側,12,25.01566,121.53786
1,500119071,臺大計資中心南側,臺大專區,臺大計算機網路資訊中心南側,19,25.02036,121.53992
1,500119079,臺大一號館,臺大專區,臺大植物魚類標本館一號館北側,19,25.01698,121.53455
1,500119056,臺大農化新館西側,臺大專區,臺大生化科技學系西側,10,25.01627,121.53535
1,500119082,臺大四號館東北側,臺大專區,臺大園藝暨景觀學系北側,10,25.01703,121.53781
1,500119055,臺大樂學館東側,臺大專區,臺大文學院西側,10,25.01793,121.53585
1,500119045,臺大農業陳列館北側,臺大專區,農業陳列館北側,13,25.01839,121.53404
1,500119069,臺大思亮館東南側,臺大專區,臺大思亮館東南側,10,25.02074,121.53906
1,500119083,臺大新生教室南側,臺大專區,臺大新生教學館南側,18,25.0196,121.53846
1,500119007,臺大水源修齊會館,臺大專區,思源街16號之1旁,18,25.01411,121.52997
1,500119047,臺大土木系館,臺大專區,臺大土木工程學系所南側,10,25.01761,121.53844
1,500119057,臺大五號館西側,臺大專區,臺大生物系館西側,10,25.01666,121.53718
1,500119061,臺大鹿鳴堂東側,臺大專區,臺大鹿鳴廣場人行道側,27,25.01511,121.53786
1,500119006,臺大卓越研究大樓,臺大專區,臺大水源舍區C南側,32,25.01466,121.52917
1,500119059,臺大共同教室北側,臺大專區,臺大共同教學館東北側,20,25.01595,121.53791
1,500119065,臺大二號館,臺大專區,臺大物理文物廳北側,10,25.01699,121.53574
1,500119067,臺大社科院西側,臺大專區,臺大社科院西側,26,25.02053,121.54145
1,500119088,臺大黑森林西側,臺大專區,臺大霖澤館南側,20,25.01995,121.54347
1,500119089,臺大獸醫館南側,臺大專區,臺大獸醫系館南側,10,25.01791,121.54242
1,500119049,臺大女九舍西南側,臺大專區,臺大女九舍西南側,30,25.01937,121.53902
1,500119063,臺大第二行政大樓南側,臺大專區,臺大行政大樓西側,10,25.01603,121.53635
1,500119081,臺大教研館北側,臺大專區,臺大雅頌廣場東南側,11,25.01337,121.53909
1,500119053,臺大天文數學館南側,臺大專區,臺大天文數學館西南側,19,25.02108,121.53783
1,500119084,臺大鄭江樓北側,臺大專區,臺大新聞研究所南側,10,25.019,121.54305
1,501201002,捷運美麗島站(2號出口),新興區,中山一路83號旁停車場前方,40,22.63035,120.30175
1,501201003,捷運美麗島站(5號出口),新興區,中正三路179號前方,23,22.63118,120.30310
1,501201001,捷運美麗島站(10號出口),新興區,中山一路168號前方,23,22.63213,120.30212
1,501201004,七賢洛陽街口,新興區,七賢一路266號前方,15,22.63416,120.30945
1,501208001,時代大道中華路口(西北側),前鎮區,時代大道中華五路口(西北側人行道),19,22.59675,120.30825
1,501208002,捷運凱旋站(3號出口),前鎮區,中山三路(捷運凱旋站3號出口旁人行道),29,22.59760,120.31418
1,501208003,捷運凱旋站(2號出口),前鎮區,中山三路凱旋四路口(東北側人行道),24,22.59673,120.31570
1,501208004,前鎮地政事務所,前鎮區,康定路151號(地政事務所前人行道),12,22.58723,120.31874
1,501207001,捷運生態園區站(1號出口),左營區,博愛三路268號(旁人行道),44,22.67604,120.30631
1,501201005,中山七賢路口西南側,新興區,中山一路223號前方,19,22.63422,120.30209
1,501201006,中山八德路口西南側,新興區,中山一路279號前方,17,22.63565,120.30219
1,501201007,新興高中,新興區,五福二路/文衡一路口東北側,19,22.62399,120.30346
1,501201008,新興公園西南側,新興區,興邦路與開封街口東北側,25,22.63601,120.31219
1,501201009,中正和平路口西北側,新興區,中正二路162號前方,20,22.63041,120.31771
1,501201010,六合錦田路口,新興區,六合一路44號對側,10,22.63235,120.31097
1,501207002,微笑公園(文奇路側),左營區,文奇路213號(對側人行道),17,22.67424,120.30936
1,501207003,博愛文奇路口南側,左營區,博愛三路102號(前人行道),27,22.67316,120.30478
1,501207004,左營分局新莊派出所,左營區,新庄仔路772號(前人行道),10,22.66827,120.31163
1,501207005,重愛公園(文慈路側),左營區,文慈路255號(對側人行道),17,22.68340,120.31839
1,501207006,微笑公園(崇德路8巷口),左營區,崇德路10號(旁公園人行道),15,22.67312,120.30957
1,501207007,微笑公園(新庄仔路545巷口),左營區,新庄仔路545巷/重清路248巷口東側,19,22.67102,120.31370
1,501208005,同安德昌路口,前鎮區,同安路120號(前人行道),15,22.58341,120.31735
1,501208006,前鎮國中(草衙一路),前鎮區,草衙一路96號(對面),21,22.58380,120.32214
1,501208007,捷運草衙站(4號出口),前鎮區,南衙路南二巷146號(捷運草衙站4號出口旁人行道),30,22.58064,120.32795
1,501208008,港壽崇安街口,前鎮區,港壽街196號(旁汽車停車場),17,22.57187,120.33082
1,501208009,后安停車場,前鎮區,后安路152號(旁人行道),30,22.57336,120.32220
1,501208010,紅毛港國小,前鎮區,明鳳七街83號(對面),15,22.58441,120.33454
1,501205001,高雄文學館,前金區,民生二路/中華三路東南側,17,22.62572,120.29765
1,501203001,建國同愛街口西北側,三民區,建國三路/同愛街口西北側,20,22.63791,120.30047
1,501203002,市立高雄高級中學,三民區,市立高雄高級中學大門西側人行道,23,22.63798,120.29750
1,501203003,建國同愛街口東側,三民區,建國三路/同愛街口東側,22,22.63773,120.30137
1,501203004,河北二中華三路口,三民區,河北二路/中華三路口東側,16,22.63510,120.29377
1,501203005,建國市中路口,三民區,建國三路/市中一路口西北側,20,22.63508,120.28733
1,501203006,河東路建國三路口,三民區,河東路/建國三路口南側,15,22.63392,120.28585
1,501203007,中華遼北街口,三民區,中華二路/遼北街口南側,15,22.64712,120.29153
1,501203008,建國錦田路口西北側,三民區,建國二路/錦田路口西北側,16,22.63749,120.31052
1,501201011,捷運信義國小站(5號出口),新興區,中正三路2號前方,22,22.63073,120.31292
1,501201012,高雄市財稅行政大樓,新興區,中正三路25號前方,18,22.63069,120.30977
1,501205002,捷運市議會站(2號出口),前金區,自強二路/中正四路口西南側,34,22.62833,120.29410
1,501205003,東金公園,前金區,文武榮安街口西側,19,22.63131,120.29409
1,501208011,新光自強路口,前鎮區,新光路自強三路口(綠園道廣場),17,22.61065,120.30084
1,501203009,凱歌憲政路口,三民區,凱歌路/憲政路口南側,14,22.63601,120.31803
1,501207008,榮德公園,左營區,榮總路287巷47號(北側),18,22.68481,120.32105
1,501207009,福山國小,左營區,自由四路239號(旁人行道),20,22.68425,120.31596
1,501208012,民裕鄭和南路口(西南側),前鎮區,民裕鄭和南路口(西南側人行道),30,22.60673,120.31428
1,501207010,華夏西北扶輪公園(重愛路側),左營區,重愛路358號(對側人行道),15,22.68754,120.31303
1,501207011,文藻外語大學正門,左營區,文守路168巷/民族一路口(北側),16,22.67088,120.31805
1,501207012,博愛重立路口南側,左營區,博愛三路526號(旁人行道),22,22.67963,120.30897
1,501203010,遼寧哈爾濱街口,三民區,遼寧二街/哈爾濱街口西側,33,22.64287,120.29939
1,501203011,文興公園,三民區,中和街188巷/中和街188巷5弄口東南側,15,22.63902,120.28607
1,501203012,三民國小,三民區,建國三路與三德西街西北側,17,22.63658,120.29190
1,501212001,宏平大鵬路口,小港區,宏平路411號(前人行道),16,22.56976,120.35799
1,501207013,重仁兒童遊戲場(重仁路50巷口),左營區,重忠路21號(對側人行道),20,22.68831,120.31640
1,501207014,幸福公園(高鐵路側),左營區,高鐵路123號(前人行道),20,22.68965,120.31123
1,501201013,復興民權街口,新興區,復興民權街口東北側,22,22.62418,120.30883
1,501201014,忠孝公園,新興區,忠孝一路/民生一路口東南側,19,22.62717,120.30575
1,501207015,博愛明誠路口東南側,左營區,博愛二路226號(前人行道),16,22.66035,120.30322
1,501207016,龍華國中(靠近自由二路6巷口),左營區,自由二路2號(前人行道),26,22.65863,120.30905
1,501207017,明誠自由路口(路口三處),左營區,明誠二路/自由二路口(路口三處),23,22.66107,120.30909
1,501207018,光興裕誠路口東南側,左營區,光興街/裕誠路口東南側,15,22.66398,120.31172
1,501207019,裕誠裕誠472巷口(東西2側),左營區,裕誠路/裕誠472巷口(東西2側),18,22.66579,120.30434
1,501208013,捷運獅甲站(4號出口),前鎮區,中山三路45號(捷運獅甲站4號出口旁),20,22.60619,120.30765
1,501208014,捷運獅甲站(3號出口),前鎮區,中山三路150號(捷運獅甲站3號出口旁),19,22.60659,120.30799
1,501208015,前鎮西甲敬老亭,前鎮區,中山三路132號(前公園人行道),15,22.60744,120.30784
1,501208016,中正高工(汕頭街口),前鎮區,光華二路80號(前)(中正高工前人行道),17,22.61017,120.31735
1,501207020,裕誠富國路口(路口二處),左營區,裕誠路/富國路口(路口二處),19,22.66536,120.30713
1,501207021,自由自由三路101巷口西北側,左營區,自由三路/自由三路101巷口西北側,15,22.67071,120.31059
1,501207022,微笑公園(天祥二路側),左營區,天祥二路/新庄仔路515巷口北側,23,22.66881,120.31365
1,501203013,三塊厝車站,三民區,三民德北公園西南側,15,22.63962,120.29398
1,501207023,福山廣場(博愛四路側),左營區,博愛四路228號(對側人行道),16,22.68507,120.31407
1,501207024,重平兒童遊戲場,左營區,重平路13號(對側人行道),20,22.68437,120.31128
1,501207025,自由二路6巷至聖路口東側,左營區,自由二路6巷91號(對面路側),14,22.65929,120.31156
1,501208017,崗山仔公園,前鎮區,瑞隆路100號(對面公園石板磚地),15,22.60585,120.33740
1,501203014,堯山延慶街口,三民區,堯山街/永年街121巷口,16,22.64331,120.31648
1,501203015,山東承德街口,三民區,山東街/承德街口南側,12,22.64264,120.31147
1,501205004,河南自強路口,前金區,河南二路146號對面,17,22.63410,120.29167
1,501205005,自強民生路口西北側,前金區,自強二路/民生二路口西北側,22,22.62561,120.29516
1,501205006,建國國小,前金區,自立二路111號旁,17,22.63270,120.29829
1,501205007,中正瑞源路口西南側,前金區,中正四路109號前方,12,22.62977,120.29750
1,501207026,原生植物園(靠高鐵路側),左營區,曾子路535號(旁人行道),16,22.68280,120.30320
1,501207027,舊城國小(蓮潭路側),左營區,蓮潭路47號(前人行道),18,22.68280,120.29241
1,501208018,高雄廣澤郵局,前鎮區,三多三路139號(前),15,22.61590,120.31059
1,501208019,25號綠地公園,前鎮區,桂林四巷8號(對面路側),16,22.61641,120.31578
1,501208020,中正高工(黃埔街口),前鎮區,光華二路159號(對面中正足球場前人行道),21,22.61155,120.31779
1,501208021,台鋁廣場,前鎮區,忠勤路8號(前人行道),17,22.60430,120.30373
1,501208022,瑞北停車場,前鎮區,瑞北路185號(對面),15,22.60892,120.32972
1,501208023,瑞祥高中,前鎮區,班超路42號(對面),30,22.60170,120.32528
1,501212002,捷運小港站(2號出口),小港區,沿海一路347號(前人行道),14,22.56413,120.35460
1,501212003,捷運小港站(1號出口),小港區,沿海一路280號(捷運小港站1號出口旁),15,22.56380,120.35461
1,501212004,德平街兒童遊戲場,小港區,德平街347號(對面公園),16,22.56417,120.34968
1,501203016,國立科學工藝博物館,三民區,平等路/平等路143巷口東北側,17,22.64180,120.32105
1,501203017,高雄醫學大學,三民區,十全一路100號西北側,42,22.64899,120.31024
2,501203018,民族九如路口,三民區,民族一路/九如二路口西南側,15,22.63998,120.31376
1,501203019,十全民族路口,三民區,十全路/民族路口東北側,15,22.64480,120.31471
1,501203020,捷運後驛站(1號出口北側),三民區,博愛一路/察哈爾二街口西北側,33,22.64826,120.30313
1,501203021,義德公園,三民區,義德路/壽昌路口東南側,20,22.64437,120.33531
1,501203022,三民公園南側,三民區,十全路/松江街口東北側,19,22.64541,120.30416
1,501207030,捷運生態園區站(2號出口),左營區,博愛三路435號(前人行道),50,22.67710,120.30659
1,501205008,七賢自強路口東北側,前金區,七賢二路242號,16,22.63225,120.29286
1,501207028,捷運巨蛋站(5號出口),左營區,博愛二路上/裕誠路口(近三民家商籃球場),60,22.66730,120.30317
1,501201015,捷運中央公園站(2號出口),新興區,捷運中央公園站2號出口後方,25,22.62389,120.30124
1,501205009,中山五福路口西北側,前金區,中山一路/五福二路口西北側,25,22.62342,120.30098
1,501207036,博愛明華路口東北側,左營區,博愛二路318號(前人行道),15,22.66319,120.30336
1,501207031,裕誠富民路口東北側,左營區,裕誠路412號(前人行道),16,22.66566,120.30557
1,501203023,捷運後驛站(3號出口),三民區,博愛一路/綏遠一街口東北側,18,22.64929,120.30347
1,501203024,正興國小,三民區,寶興路/大豐二路口西南側,17,22.64599,120.32812
1,501207032,大義國中(城峰路側),左營區,城峰路/東門路口(學校後門)東側,16,22.67510,120.29093
1,501202001,中正民族路口(東南角),苓雅區,中正二路175號(前),14,22.63044,120.31367
1,501203025,高雄科技大學東北側,三民區,建工路414號對側,56,22.65175,120.32845
1,501203026,鼎中路199巷口,三民區,鼎中路/鼎中路199巷口西南側,15,22.66334,120.31920
1,501212005,高雄公園(中山四路),小港區,中山四路33號(旁高雄公園人行道),15,22.56934,120.34667
1,501212006,大業北二苓路口,小港區,大業北路434號(前人行道),15,22.56574,120.34600
1,501212007,合作公園(金城路),小港區,金城路5號(對面),16,22.58215,120.36570
1,501212008,合作公園(勝安街),小港區,勝安街13號(對面),12,22.58215,120.36422
1,501207033,新莊華夏路口北側,左營區,新莊一路141號(前人行道),21,22.67300,120.29797
1,501207034,三民家商(南屏路側),左營區,南屏路408號(對側人行道),24,22.66640,120.30021
1,501207035,三民家商(裕誠路側),左營區,裕誠路/篤敬路口(捷運巨蛋站1號出口),21,22.66590,120.30235
1,501203027,大裕昌富街口,三民區,大裕路/昌富街口東北側,15,22.65704,120.32870
1,501206001,台鐵鳳山站(曹公路),鳳山區,文衡路/和平路口東南側,48,22.63199,120.35776
1,501206002,清湖公園,鳳山區,文濱路/文樂街口西南側,18,22.64418,120.34977
1,501201016,捷運中央公園站(3號出口),新興區,中山一路/民生二路口東南側,26,22.62684,120.30152
1,501203028,捷運後驛站(1號出口南側),三民區,博愛一路/察哈爾一街口西南側,26,22.64739,120.30317
1,501203029,建民公園,三民區,興隆街/建元路口東側,33,22.64650,120.31787
1,501205010,五福自強路口東南側,前金區,五福三路61號前方,14,22.62165,120.29695
1,501205011,高雄女中,前金區,五福三路122號前方,30,22.62085,120.29267
1,501203030,三民高中東側,三民區,大裕路/明誠一路口西北側,30,22.66068,120.32856
1,501203031,鼎金國民中學,三民區,鼎山街/立志街口東南側,17,22.65597,120.32071
1,501203032,獅湖國小,三民區,鼎中路/鼎中路669巷口東南側,19,22.67263,120.32132
1,501203033,鼎泰廣場公園,三民區,民族一路/民族一路509巷口西側,27,22.66437,120.31610
1,501206003,捷運鳳山站(1號出口),鳳山區,捷運鳳山站1號出口東側,46,22.62581,120.35610
1,501212009,中山國中(漢民路),小港區,漢民路327號(對面),17,22.56675,120.35482
1,501202002,捷運文化中心站(2號出口),苓雅區,中正二路51號(前),27,22.63015,120.31772
1,501204001,高雄國際會議中心,鹽埕區,中正四路274號東南側,25,22.62617,120.28624
1,501204002,鹽埕國中,鹽埕區,新樂街46號東側,13,22.62255,120.28800
1,501206004,文山兒童四公園,鳳山區,文衡路/文平街口西南側,22,22.64076,120.35027
1,501202003,苓雅國中,苓雅區,林森二路80號(對面),30,22.61855,120.30719
1,501203034,陽明網球中心,三民區,澄和路/澄和路208巷口南側,23,22.64544,120.33952
1,501203035,寶華兒童公園,三民區,陽明路56巷/陽明路口東側,17,22.63830,120.34134
1,501203036,大順九如路口,三民區,大順二路/九如一路口西側,30,22.63933,120.32779
1,501203037,高雄市立正興國民中學,三民區,覺民路/平等路口西側,20,22.64394,120.31984
1,501203038,高雄市立民族國民中學西北側,三民區,覺民路/大昌二路口東南側,15,22.640628,120.332198
1,501205012,中山青年路口西北側,前金區,中山二路507號前方,20,22.62031,120.30198
1,501202004,高雄師範大學(學生宿舍),苓雅區,和平一路116號(學生宿舍前人行道),19,22.62664,120.31948
1,501202005,高雄師範大學(活動中心),苓雅區,和平一路116號(活動中心前人行道),26,22.62388,120.32054
1,501202006,自來水公園,苓雅區,五福一路79號(旁公園人行道),16,22.62758,120.31492
1,501206005,捷運鳳山國中站(1號出口),鳳山區,捷運鳳山國中站1號出口外停車場,35,22.62453,120.37099
1,501206006,鳳山商工(文衡路),鳳山區,建國路三段/文衡路口西南側,21,22.63628,120.35678
1,501202007,中正高中,苓雅區,中正一路8號(校門左側人行道),19,22.62618,120.33826
1,501203039,皓東路17巷口,三民區,皓東路17巷/正忠路口東南側,15,22.64902,120.33114
2,501203040,高雄車站北側,三民區,九如二路/博愛一路口,52,22.64127,120.30286
1,501205013,前金國中,前金區,旺盛街126號對側,21,22.63056,120.29036
1,501212010,高雄宏平郵局,小港區,宏平路336號(前),12,22.56992,120.35963
1,501209001,捷運巨蛋站(2號出口),鼓山區,博愛二路與文信路口西北側,40,22.66483,120.30310
1,501203041,民族一路543巷口,三民區,河堤路/民族一路543巷口西側,25,22.66676,120.31469
1,501206007,鎮北國小,鳳山區,北文街/北文街83巷口西側,16,22.64290,120.36867
1,501202008,建軍建國一路口(東南角),苓雅區,建軍路11號(對面),14,22.62826,120.34233
1,501209002,龍華國小,鼓山區,大順一路與龍德路口東北側,20,22.65493,120.29745
1,501208024,高雄市勞工局,前鎮區,鎮中路6號(翠亨北路側人行道),21,22.58819,120.32174
1,501212011,漢民公園(漢民路),小港區,漢民路427號(對面),30,22.56676,120.35810
1,501202009,泰順河南路口,苓雅區,河南路234號(旁),16,22.63192,120.31984
1,501202010,捷運衛武營站(4號出口),苓雅區,中正一路/建軍路口(西北側人行道),22,22.62499,120.34177
1,501207037,文萊崇德路口西北側,左營區,崇德路360號東側,16,22.67689,120.30213
1,501209003,明誠馬卡道路口(東南側),鼓山區,明誠四路/馬卡道路口(東南側人行道),14,22.66249,120.28539
1,501203042,褒揚廣場,三民區,陽明路207巷/義華路199巷口東側,17,22.64178,120.33952
1,501205014,光復三市中路口,前金區,光復三街與市中一路口東北側,23,22.62335,120.29234
1,501202011,正道公園,苓雅區,建國一路64巷57弄3號(旁),15,22.63461,120.33539
1,501206008,鳳山區公所,鳳山區,經武路34巷口/鳳林公路東側,17,22.62746,120.36255
1,501207038,左營忠信路8巷口西側,左營區,左營大路2-43號(對側人行道),16,22.67620,120.28672
1,501207039,左營左營大路6巷口西側,左營區,左營大路4-7號(對側人行道),21,22.67897,120.28721
1,501205015,河南二路75號北側,前金區,河南二路75號北側,9,22.63574,120.29651
1,501203043,三民高中西側,三民區,金山路/金鼎路口東南側,36,22.66349,120.32628
1,501203044,明誠聯興路口,三民區,明誠二路/聯興路口西南側,29,22.65978,120.31358
1,501209004,明誠裕國街口,鼓山區,明誠三路727號前方,15,22.66104,120.29351
1,501207040,軍校海功路口西側,左營區,軍校路236號(對側人行道),15,22.69340,120.29234
1,501203045,熱河自由路口,三民區,熱河一街口/熱河一街160巷東南側,18,22.64353,120.30933
1,501202012,苓雅中正國小,苓雅區,輔仁路100號(校門右側人行道),20,22.63027,120.33330
1,501209005,博愛大順路口,鼓山區,博愛一路與大順一路口西南側,10,22.65588,120.30321
1,501209006,小鹿公園,鼓山區,美術東三路/美術東六街口(西南側),19,22.65729,120.29128
1,501202013,復華高中,苓雅區,民權一路42號(校門口左側人行道),17,22.62107,120.31325
1,501202014,凱旋同慶路口(西南角),苓雅區,凱旋二路/同慶路口(西南角),18,22.62775,120.32236
1,501206009,文澄兒童公園,鳳山區,文澄街/文湖街口東北側,17,22.64390,120.35357
1,501206010,文福文化西路口,鳳山區,文福街/文化西路口東北側,15,22.63393,120.34555
1,501202015,高雄市衛生局,苓雅區,福成街2號(對面),16,22.62620,120.32549
1,501216001,醒村(後門),岡山區,岡榮路8巷/仁壽南路口東側,18,22.78321,120.28477
1,501216002,河華岡山路口南側,岡山區,岡山路586號旁,13,22.80149,120.29199
1,501206011,保安休憩公園,鳳山區,甲智路/鳳甲二街125巷口西南側,14,22.59811,120.34407
1,501202016,民權永富街口,苓雅區,民權一路/永富街口(西北角),17,22.61767,120.31399
1,501212012,華立兒童公園,小港區,華立街18號(對面),13,22.56402,120.36853
1,501207041,公務人力發展中心(政德路側),左營區,政德路240號(對側人行道),35,22.67770,120.30034
1,501203046,民族大昌路口,三民區,民族一路/大昌一路口西側,22,22.65899,120.31555
1,501202017,福居兒童遊戲場,苓雅區,武仁街74號(對面公園路側),20,22.62085,120.33448
1,501202018,金馬公有停車場,苓雅區,三多一路69號(對面),21,22.62373,120.33402
1,501209007,民康兒童公園,鼓山區,民康街與裕誠路口東南側,15,22.66201,120.29435
1,501209008,捷運凹子底站(4號出口),鼓山區,博愛二路與至聖路口西南側,86,22.65938,120.30286
1,501219001,永芳公園,大寮區,進學路2巷2號(對面公園路側),14,22.60783,120.39459
1,501209009,美術東四美術北五街口(北側),鼓山區,美術東四路/美術北五街口(北側),20,22.66429,120.29039
1,501209010,內惟公園(新疆路側),鼓山區,九如四路/新疆路口(東北側人行道),14,22.65649,120.27758
1,501207042,左營區公所,左營區,左營大路479號(前人行道),16,22.68979,120.29516
1,501207043,明潭蓮潭路口東側,左營區,明潭路/蓮潭路口東側,18,22.69000,120.29918
1,501219002,慈惠醫院,大寮區,鳳屏一路509號(前),19,22.63868,120.39751
1,501207044,明誠富民路口(路口四處),左營區,明誠二路/富民路口(路口四處),21,22.66120,120.30540
1,501207045,勝利國小(南屏路側),左營區,南屏路1號(前人行道),20,22.67220,120.29470
1,501207046,捷運巨蛋站(4號出口),左營區,博愛二路450號(前人行道),18,22.66740,120.30349
1,501202019,捷運五塊厝站(2號出口),苓雅區,中正一路306號(前),17,22.62977,120.32717
1,501202020,武廟市場停車場,苓雅區,建民路65號(對面),16,22.62908,120.33182
1,501206012,曹公國小,鳳山區,曹公路/鳳崗路口東南側,20,22.62804,120.35726
1,501204003,捷運鹽埕埔站(1號出口),鹽埕區,大勇路64號對側,44,22.62290,120.28334
1,501202021,三信家商,苓雅區,三多一路186號(校門右側人行道),28,22.62214,120.32928
1,501202022,行仁行禮街口,苓雅區,行仁路26號(對面),14,22.62596,120.34327
1,501202023,中華興中路口(東南角),苓雅區,中華四路116號(前),15,22.61456,120.30177
1,501202024,四維行政大樓,苓雅區,民權一路/苓雅一路西南側,15,22.62138,120.31248
1,501206013,鳳山行政中心,鳳山區,光復路二段/光復路二段150巷口西北側,18,22.62952,120.34266
1,501202025,環球影城(大順三路),苓雅區,大順三路108號(前),14,22.63224,120.32529
1,501202026,福德公有停車場,苓雅區,建國一路/福德二路口(西南角),30,22.63288,120.32789
1,501209011,凹子底森林公園(龍德路側),鼓山區,龍德路467號對側公園內人行道,15,22.66042,120.29724
1,501209012,凹子底森林公園(明誠三路側),鼓山區,明誠三路586號對側公園內人行道,15,22.66099,120.29911
1,501202027,福康國小,苓雅區,漢陽街54號(對面),15,22.61916,120.33062
1,501202028,正心公園,苓雅區,安溪路78號(對面公園),13,22.63419,120.33264
1,501209013,華榮慶豐路口,鼓山區,華榮路345號前方,15,22.66789,120.29571
1,501209014,中華一路161巷口,鼓山區,中華一與中華一路161巷口西北側,12,22.66309,120.29286
1,501207047,果貿公有市場西側,左營區,中華一路5-14號旁,17,22.66895,120.28725
1,501209015,逢甲翠華路397巷口(東南側),鼓山區,逢甲路/翠華路397巷口(東南側公園內),15,22.66316,120.28422
1,501208028,管仲沱江街口,前鎮區,管仲沱江街口(東南側公園路側),16,22.60632,120.31198
1,501207057,翠峰果峰街12巷口東側,左營區,翠峰路36號(前人行道),20,22.67196,120.28909
1,501209016,青海美術東二路口(西北側),鼓山區,青海路/美術東二路口(西北側人行道),12,22.65145,120.28775
1,501209017,美術東四美術東七街口(東北側),鼓山區,美術東四路562號前人行道,13,22.66205,120.29041
1,501206024,五甲社區公有停車場,鳳山區,國富路/國富路21巷口西北側,15,22.61518,120.35009
1,501206028,瑞興兒童公園,鳳山區,瑞興路/瑞興路293巷口東南側,10,22.62876,120.36707
1,501202029,捷運五塊厝站(4號出口),苓雅區,中正一路/福德三路口(東南角),20,22.62925,120.32791
1,501216004,岡山公園(壽華路側),岡山區,壽華路6號(對側人行道),15,22.79684,120.29312
1,501216006,仁壽橋(溪東路側),岡山區,溪東路2號(對側人行道),18,22.79372,120.29070
1,501216008,仁壽橋(阿公店路二段側),岡山區,前峰路6號(對側人行道),13,22.79450,120.28989
1,501207056,果峰果峰街50巷口北側,左營區,果峰街/果峰街50巷口北側,16,22.67052,120.28720
1,501207058,蓮池潭兒童公園南區停車場,左營區,洲仔北街/翠華路口西北側,19,22.68643,120.30241
1,501210002,捷運油廠國小站(2號出口),楠梓區,後昌路546巷4弄7號(前人行道),20,22.70913,120.30199
1,501208027,中華復興路口(西南側),前鎮區,中華五路1201號(旁),30,22.60619,120.30437
1,501203048,正興公有停車場,三民區,正興路163巷/興昌街東南側,16,22.6463,120.319
1,501202030,捷運技擊館站(1號出口),苓雅區,中正一路100號(旁),23,22.62781,120.33361
1,501206014,瑞竹兒童公園,鳳山區,瑞進路/中山東路口( 東北側),15,22.6257,120.36999
1,501206015,捷運大東站(1號出口),鳳山區,捷運大東站1號出口西側廣場,50,22.62549,120.36326
1,501216007,第六河川局,岡山區,柳橋西路15號(前人行道),17,22.79039,120.28733
1,501209019,皮克尼克公園,鼓山區,美術東二路103號(東北側人行道),15,22.65438,120.28801
1,501209020,鼓山高中,鼓山區,明德路/正德路口(東北側人行道),20,22.65136,120.27503
1,501209021,青海九如路口(東北側),鼓山區,青海路/九如四路口(東北側),14,22.65182,120.27927
1,501206016,鳳山運動公園,鳳山區,輜汽路/大明路口西南側,18,22.61674,120.34077
1,501206018,保安濕地公園,鳳山區,保成二路/保孝街東側,14,22.59271,120.35302
2,501206020,衛武營公園,鳳山區,輜汽路/新康街口西南側,17,22.61719,120.34439
1,501206023,五甲社區公園,鳳山區,新富路/國富路口西北側,18,22.61664,120.34883
1,501206025,國光安寧街口,鳳山區,國光路/安寧街口東南側,16,22.61832,120.35352
1,501206027,黃埔公園,鳳山區,光遠東路/中山東路口東南側,15,22.62272,120.368188
1,501206030,光華安寧街口,鳳山區,光華路/安寧街口西北側,15,22.62051,120.35452
1,501207059,高鐵重信路口東側,左營區,重信路608號旁,19,22.68634,120.3083
1,501210001,捷運世運站(2號出口),楠梓區,宏毅一路13巷1號前,20,22.7023,120.30228
1,501210004,碉堡公園(加昌路側),楠梓區,加昌路746號前,25,22.7148,120.29619
1,501210005,加昌兒童遊戲場,楠梓區,加宏路95號(對側人行道),20,22.71832,120.29659
1,501206038,福誠高中,鳳山區,五甲三路/五甲三路295巷東北側,37,22.58926,120.32307
1,501206041,瑞興國小(博愛路),鳳山區,博愛路口/瑞興路422巷26弄西北側,15,22.62994,120.36911
1,501206047,五甲南榮兒童公園,鳳山區,南正二路150巷/善美路口東南側,14,22.6011747,120.333953
1,501206050,五福公園,鳳山區,福安一街/福安一街109巷東北側,14,22.588539,120.327786
1,501210014,惠民公有停車場,楠梓區,惠民路211號,15,22.72336,120.29414
1,501206052,南和保安一街口,鳳山區,南和街/保安一街口東北側,15,22.592114,120.336876
1,501206053,富新國慶九街口,鳳山區,富新路/國慶九街口西北側,12,22.58855,120.3402
1,501210022,楠梓和平公園,楠梓區,瑞屏路30巷1-7號(對側人行道),15,22.72233,120.31245
1,501206056,頂庄頂明路口,鳳山區,頂庄路/頂明路口東北側,10,22.5885144,120.3551263
1,501209024,濱海臨海路口(西南側),鼓山區,濱海二路/臨海二路口(西南側人行道),15,22.62364,120.26987
1,501206021,瑞隆東同明街口,鳳山區,瑞隆東路/同明街口東南側,15,22.60631,120.34314
1,501206026,安化門遺址,鳳山區,五甲一路/立志街口(西南側),18,22.62147,120.3575
1,501210025,普同精舍,楠梓區,德豐街225號(旁公園),14,22.72754,120.29801
1,501210029,清豐公有停車場,楠梓區,清豐三路395號(對側人行道),13,22.73786,120.32761
1,501210032,右昌元帥府,楠梓區,右昌街168號(對側人行道),15,22.71077,120.2894
1,501206031,鳳西羽球館西北側,鳳山區,平等路/自治街75巷口東北側,20,22.623801,120.3522822
1,501208026,前鎮區公所,前鎮區,康定路121巷康和路23巷口(東北側人行道),21,22.5871,120.31801
1,501208029,獅甲社區(興仁國中棒球場),前鎮區,正勤路13號(對面),15,22.60203,120.30339
1,501206017,國立鳳新高中(新富路),鳳山區,新富路/新富路366巷西北側,40,22.61298,120.34292
1,501206019,南和公園,鳳山區,南光街/南正一路口南側,20,22.59639,120.33545
1,501222001,觀音牛路巷公園,大社區,中華路/中華路14巷口,11,22.7276649,120.3510808
1,501206032,捷運鳳山西站(2號出口),鳳山區,自由路/議會路口東南側,60,22.6253057,120.3485009
1,501206033,和德街公園,鳳山區,中山東路5巷/王生明路85巷西南側,15,22.6184166,120.3609758
1,501206034,五甲國中,鳳山區,保泰路/龍成路123巷口西南側,19,22.599438,120.328104
1,501206036,福誠國小,鳳山區,忠誠路/六法街口西側,18,22.597344,120.325277
1,501206037,五甲公園南側,鳳山區,福誠三街/福誠二街口西北側,20,22.592467,120.323164
1,501206039,自強南進三街口,鳳山區,自強一路/自強一路119巷口東南側,19,22.590363,120.329551
1,501206040,正義里活動中心,鳳山區,南江街192號西北側,15,22.60265,120.34013
1,501219004,山頂國小,大寮區,山頂路192號(對面),16,22.60766,120.38841
1,501219006,中庄國中,大寮區,光明路三段1437號(校門旁),24,22.63684,120.40186
1,501219007,新光高中,大寮區,鳳屏一路217號(校門左側人行道),21,22.6348,120.3901
1,501219008,翁公園,大寮區,翁園路139之32號(旁),18,22.6215,120.40695
1,501206044,文福兒童公園,鳳山區,建國路三段483巷/文武街東南側,16,22.636717,120.346691
1,501206045,文德國小,鳳山區,文衡路/文德路口西北側,14,22.64055,120.352689
1,501205018,高雄市救國團,前金區,中正四路189號(前人行道),18,22.62878,120.29443
1,501218001,正修科技大學東側,鳥松區,正修路/公園路北側,21,22.6493381,120.3508555
1,501218002,大埤調洪公園,鳥松區,汾陽路/本華路口東南側,15,22.651472,120.339795
1,501218003,大華里民活動中心,鳥松區,大昌路/大明街口西南側,18,22.6553456,120.3409911
1,501206048,南正兒童公園,鳳山區,南正二路150巷/南正二路口東北側,15,22.5993568,120.3313158
1,501206049,五甲國小,鳳山區,南正二路/永安街口東北側,11,22.598004,120.333952
1,501219009,後庄車站,大寮區,民慶街5號(火車站旁成功陸橋下),22,22.63989,120.39018
1,501210010,楠梓區公所,楠梓區,楠梓新路264號旁,15,22.7287,120.32639
1,501228001,燕巢區公所,燕巢區,中興路/中安路口(南側人行道),14,22.7881,120.36242
1,501228002,兒二公園,燕巢區,中民路393巷22號旁公園內,9,22.79306,120.36643
1,501210019,捷運都會公園站(3號出口),楠梓區,高楠公路1858號旁,25,22.73046,120.321
1,501210023,捷運楠梓加工區站(2號出口),楠梓區,宏毅二路北八巷5號(前人行道),22,22.71834,120.30671
1,501210024,翠屏里活動中心(德賢路530巷口),楠梓區,德賢路530巷37號(對側人行道),15,22.72715,120.30192
1,501210027,楠梓高中,楠梓區,清豐路19號(前人行道),31,22.74456,120.33130
1,501215001,林園行政中心,林園區,王公路1號(前人行道),14,22.51305,120.39468
1,501215002,幸福公園,林園區,沿海路二段/文化街口(東北角),17,22.500539,120.3947778
1,501215003,中芸國小,林園區,中芸三街1-9號(對面),20,22.48822,120.39583
1,501214001,後備指揮部,仁武區,武功巷52號北側,13,22.6722145,120.3313256
1,501214002,古文物公園,仁武區,澄仁路/澄仁巷56號西側,15,22.6789356,120.3453803
1,501214003,慈惠公園,仁武區,赤仁路/慈惠一街西南方,15,22.6763956,120.3478232
1,501214005,仁慈公園,仁武區,仁慈路/仁慈三街口西南側,17,22.6722316,120.3589319
1,501214007,承德公園,仁武區,京吉三路/京吉六路西北側,13,22.6846057,120.3424083
1,501214008,八卦國小,仁武區,永仁街/永新七街西南側,14,22.6898618,120.332586
1,501214009,八德停車場,仁武區,八德南路396號對面,13,22.681023,120.340181
1,501210033,右昌國中,楠梓區,盛昌街161號(前人行道),14,22.71328,120.28675
1,501214010,高楠五高楠四街口,仁武區,高楠五街/高楠四街口南側,10,22.6921003,120.3244006
1,501222002,文中二公園,大社區,永保街/信義路口西南側,14,22.73412,120.35125
1,501222003,金龍路46巷,大社區,金龍路46巷/金龍路口西北側,10,22.7290485,120.3536578
1,501219003,捷運大寮站(1號出口),大寮區,捷西路300號(捷運大寮站1號出口前人行道),30,22.62075,120.3907
1,501215005,王公國小,林園區,王公二路89號(對面),16,22.5056396,120.3886269
2,501202033,科工館車站,苓雅區,大順三路305巷/樂仁路125巷6弄口(車站旁人行道),30,22.63713,120.32502
1,501210003,歡樂17停車場,楠梓區,軍校路800號旁,15,22.71038,120.29273
1,501210007,藍田公園(高雄大學路側),楠梓區,高雄大學路/藍田路口東北側,15,22.72868,120.28499
1,501210011,楠陽國小,楠梓區,鳳楠路205號(對側人行道),15,22.72495,120.32998
1,501210013,惠民里集會所,楠梓區,高楠公路1868巷100號(對側人行道),15,22.73217,120.32287
1,501210015,仁昌里公園,楠梓區,德民路694號旁,15,22.72223,120.29432
1,501210017,加昌國小(智群路側),楠梓區,智群路49號(對側人行道),14,22.71991,120.29794
1,501210018,榮新加昌路口南側,楠梓區,榮新街17號(對側人行道),14,22.71437,120.29733
1,501209025,哨船頭公園,鼓山區,安船街/哨船街口(東南側人行道),15,22.61845,120.26877
1,501206022,老爺公園,鳳山區,興隆街/興隆街33巷口西北側,10,22.60561,120.34384
1,501206043,過勇頂庄路口,鳳山區,過勇路/頂庄路口西北側,15,22.588446,120.362695
1,501204004,公園大成街口,鹽埕區,公園二路與大成街口東側,14,22.619511,120.287158
1,501204005,鹽埕區敬老亭,鹽埕區,河西路161-1號(北側),16,22.63168,120.28533
1,501206029,鳳陽社區,鳳山區,鳳東路560號西北側,14,22.61989,120.37332
1,501206051,鳳西運動公園(五權南路),鳳山區,五權南路與光華路口東北側,15,22.621869,120.352755
1,501215004,林園區衛生所,林園區,林園北路185號(前),14,22.5081,120.39472
1,501219010,後庄國小,大寮區,民揚路28號(校門右側人行道),15,22.63742,120.38971
1,501210040,市立中山高級中學(藍田路側),楠梓區,藍田路/藍昌路口(東北側人行道),27,22.72736,120.29195
1,501210020,高雄都會公園(德民路側),楠梓區,德民路115號(對側人行道),15,22.73099,120.31599
1,501210021,後勁公園,楠梓區,海專路/金和街口東北側,19,22.72369,120.31642
1,501210043,捷運後勁站(1號出口),楠梓區,加昌路178號,17,22.72254,120.31640
1,501208038,捷運前鎮高中站(1號出口),前鎮區,翠亨北路/鎮中路口(東南角),24,22.58815,120.32193
1,501216013,岡山河堤公園(仁義路側),岡山區,仁義路/河堤路二段路口(西北側人行道),15,22.78609,120.29510
1,501216015,勵志新城(岡山路側),岡山區,岡山路105號旁,19,22.79048,120.29611
1,501203049,大昌春陽街口,三民區,大昌二路/春陽街口東北側,16,22.64712,120.33200
1,501202031,捷運衛武營(5號出口),苓雅區,高雄市苓雅區建軍路4號旁,15,22.62573,120.34232
1,501202032,正義車站,苓雅區,建軍路/正義路308巷口(車站旁人行道),20,22.63398,120.34317
1,501212019,步道公園,小港區,平和西路/鋼成街東街口(東北角),16,22.564751,120.331480
1,501212021,桂陽公園,小港區,桂陽桂聖街口西南側,32,22.58196,120.35060
1,501210031,秀群加宏路口東側,楠梓區,秀群路579號(對側人行道),18,22.71873,120.29880
1,501216009,岡山和平公園,岡山區,大德一路79號(對側人行道),10,22.79719,120.30340
1,501210037,國立高雄科技大學第一校區,楠梓區,卓越路校門口(西北側人行道),20,22.75270,120.33139
1,501212015,捷運高雄國際機場站(1號出口),小港區,中山大業北路口東側,28,22.56942,120.34373
1,501210038,高雄市立圖書館右昌分館,楠梓區,藍昌路72號(前人行道),17,22.71558,120.29021
1,501210041,高雄市區監理所,楠梓區,德民路71號(前人行道),15,22.73113,120.31704
1,501216017,中華民國空軍第三後勤指揮部,岡山區,介壽西路200號(東側),10,22.78448,120.27589
1,501216018,航空教育展示館,岡山區,致遠路55號前,10,22.79462,120.27131
1,501216019,台灣滷味博物館停車場,岡山區,本洲五街/本洲六街口(西北側停車場內),10,22.81849,120.26778
1,501210008,土庫清豐二路口東北側,楠梓區,土庫一路60號(前人行道),28,22.73624,120.33012
1,501206066,鳳山行政中心東側,鳳山區,澄清路/光復路二段口西北側,57,22.62974,120.34433
1,501210034,捷運楠梓加工出口區站(1號出口),楠梓區,捷運楠梓加工出口區站1號出口(西側),21,22.71857,120.30616
1,501210039,高雄大學,楠梓區,高雄大學路/大學南路口(西北側),28,22.73263,120.28425
1,501206054,鳳山區第二衛生所,鳳山區,林森路141號(鳳山區第二衛生所)西側,17,22.59383,120.33303
1,501210009,楠梓國小,楠梓區,楠梓路262號(前人行道),14,22.73277,120.32813
1,501210012,高雄少年及家事法院,楠梓區,興楠路182號(前人行道),15,22.73101,120.33545
1,501210044,臺灣高雄少年及家事法院(常順街),楠梓區,常順街89號(前人行道),16,22.73261,120.33512
1,501206079,牛潮埔公園,鳳山區,北賢街/永忠街口西南側,16,22.64632,120.37048
1,501206078,中崙國中,鳳山區,中崙路/中崙二路口東北側,16,22.60223,120.35337
1,501216003,岡山國中(岡燕路),岡山區,岡燕路/岡燕路240巷(旁人行道),15,22.79171,120.30389
1,501216016,岡山文化中心停車場,岡山區,岡山南路/介壽東路口(東南側人行道),15,22.78437,120.29733
1,501202040,四維行政中心(四維三路),苓雅區,四維三路/永定街口(東北角),40,22.61996,120.31145
1,501212013,高餐大附中,小港區,松和路40號(前),23,22.56627,120.37218
1,501208041,中鋼會館,前鎮區,忠勤路23號(前),15,22.60411,120.30253
1,501203064,同盟博愛路口,三民區,同盟二路33號(對面人行道),16,22.65163,120.30200
1,501210045,清豐土庫路口,楠梓區,清豐一路/土庫一路口(北側人行道),16,22.73629,120.33146
1,501208061,輕軌凱旋瑞田站,前鎮區,凱旋四路758號(旁),21,22.59916,120.31989
1,501208052,輕軌凱旋中華站,前鎮區,凱旋四路270號(前),16,22.59352,120.31129
1,501203053,高雄中學(東側),三民區,建國三路50號(右側人行道),26,22.63794,120.29875
1,501212017,平和路公共停車場,小港區,平和領港街口東側,28,22.56274,120.33546
1,501203062,公二公園,三民區,正義路/九如一路東南側,15,22.63605,120.34341
1,501206076,鳳儀書院,鳳山區,中正路129巷1弄2之1號西側,15,22.62748,120.35976
1,501203071,高雄車站(九如二路),三民區,松江街/九如二路西南側,30,22.64107,120.30361
1,501203072,高雄車站(建國二路),三民區,建國二路306號(前面),18,22.63782,120.30367
1,501203080,建國林森路口,三民區,建國二路235號前,21,22.63752,120.30496
1,501203074,明堤公園,三民區,明仁路161號(對面人行道),27,22.66292,120.31220
1,501203075,陽明溜冰場,三民區,義華路/義華路199巷西北側,15,22.64313,120.33954
1,501203047,民族車站,三民區,凱旋一路222號西北側人行道,34,22.63854,120.31519
1,501203063,鼎山大順路口,三民區,鼎山街534號(前人行道),16,22.65308,120.31874
1,501212014,高雄市社教館,小港區,大鵬路/學府路(東南角),21,22.56520,120.35862
1,501212023,中鋼台船,小港區,中鋼路1號(旁),27,22.55414,120.34757
1,501203058,高雄高工,三民區,建工路558號(對面人行道),20,22.65038,120.32563
1,501203061,義民廟,三民區,壽昌路91巷/壽昌路口,16,22.64249,120.33367
1,501203069,光武國小,三民區,九如一路291號(對面人行道),16,22.63819,120.33464
1,501203051,博愛同盟路口,三民區,博愛一路/同盟一路口東北側,24,22.65275,120.30389
1,501226001,舊鐵橋生態公園,大樹區,竹寮路81-3(東側),15,22.664580,120.427200
1,501205025,捷運中央公園站(1號出口),前金區,中山一路2號西側,40,22.62393,120.30104
1,501202041,高雄市文化中心(和平一路),苓雅區,和平一路116號(校門對面),28,22.62520,120.31970
1,501205021,高雄市立大同醫院,前金區,中華三路68號北側,15,22.62755,120.29684
1,501208051,輕軌軟體園區站,前鎮區,復興四路21號(旁),16,22.60517,120.30069
1,501202043,四維公園,苓雅區,四維四路/自強三路(東北角),9,22.61572,120.29909
1,501202046,正義市場,苓雅區,文昌路11號(對面),15,22.63122,120.33858
1,501212018,翠平公園,小港區,翠亨南豐田街口東南側,19,22.57001,120.33575
1,501203067,陽明公園,三民區,澄和路/澄和路158巷西北側,13,22.64536,120.34127
1,501212020,空中大學,小港區,大業北路436號(校門旁),15,22.56657,120.34550
1,501203068,金獅湖橋,三民區,鼎金後路/天祥一路口,15,22.66633,120.32522
1,501202048,國際商工,苓雅區,三多二路84號(前),20,22.62101,120.32574
1,501203070,美都公園,三民區,十全三路101號西側,15,22.64657,120.28902
1,501201017,捷運美麗島站(9號出口),新興區,中山一路153號,17,22.63252,120.30203
1,501203056,文藻外語大學,三民區,鼎中路601號(對面人行道),22,22.67117,120.32095
1,501201021,捷運美麗島站(7號出口),新興區,中正三路178號,15,22.63143,120.30343
1,501201022,捷運美麗島站(6號出口),新興區,中正林森路口西南側,16,22.63111,120.30431
1,501203078,河北立德街口,三民區,河北二路119號(對面人行道),16,22.63553,120.29494
1,501214013,八卦休閒公園,仁武區,八德西路2042號對側,16,22.69011,120.33742
1,501202051,捷運衛武營站(3號出口),苓雅區,中正一路2號(對面),20,22.62494,120.34111
1,501202044,輕軌旅運中心站,苓雅區,永平路/海邊路(西北角),20,22.61280,120.29210
1,501208042,朝陽寺,前鎮區,草衙中街34號(停車場內),16,22.57751,120.32204
1,501209028,鼓山分局新濱派出所,鼓山區,臨海三路2號(東側人行道),28,22.62226,120.27547
1,501209031,凹子底森林公園(至聖路),鼓山區,至聖路/龍德路口(西南側),30,22.65961,120.29684
1,501208032,新光成功路口,前鎮區,新光路142號(對面綠園道),20,22.61030,120.29925
1,501212016,捷運小港站(4號出口),小港區,沿海一路260號(旁),27,22.56479,120.35366
1,501209039,中山大學社科院,鼓山區,中山大學社會科學院與管理學院間人行道,16,22.62617,120.26504
1,501212022,臨海兒童公園,小港區,東亞南路103號(旁),16,22.55820,120.33553
1,501202054,財政部高雄國稅局,苓雅區,廣州一街148號(前),15,22.62303,120.31759
1,501208033,光華公園,前鎮區,一心一路/民裕街口,41,22.60855,120.31644
1,501203055,金獅湖,三民區,鼎力路114號(對面人行道),28,22.66510,120.32167
1,501203059,鼎金國小,三民區,大昌一路/鼎勇街33號西南側,26,22.65617,120.32276
1,501208043,前鎮國中,前鎮區,新衙路94號(對面),16,22.58311,120.32035
1,501208044,五甲公園,前鎮區,瑞南街/凱興街口(東南角),15,22.59553,120.32199
1,501203077,檨仔林埤濕地公園,三民區,鼎金後路/鼎金後路420巷口東側,15,22.67084,120.32478
1,501208047,瑞祥高中(凱旋四路),前鎮區,凱旋四路/班超路口(東南角),15,22.60311,120.32405
1,501207077,新莊高中,左營區,文慈路99號(前人行道),16,22.68096,120.31749
1,501207082,新民國小,左營區,自由三路478號(對側人行道),16,22.67638,120.31262
1,501207086,文府國中,左營區,文府路401號旁,15,22.69150,120.31612
1,501207089,華夏西北扶輪公園(華夏路側),左營區,華夏路1347號(旁公園),11,22.68662,120.31233
1,501206080,五甲社區活動中心,鳳山區,新富路590巷/新富路東側,15,22.61514,120.34825
1,501208055,班超公園,前鎮區,班超路53號(旁公園人行道),20,22.60096,120.32557
1,501202045,高雄市文化中心(廣州一街),苓雅區,廣州一街/青年一路口,28,22.62498,120.31697
1,501212024,小港醫院,小港區,山明路445號(對面),29,22.56772,120.36281
1,501216020,岡山車站,岡山區,中山北路2號旁,16,22.79290,120.29921
1,501216005,岡山高中,岡山區,公園路52號(前人行道),30,22.79695,120.29085
1,501206084,過埤兒童公園,鳳山區,保生路/田衙路口東南側,16,22.59275,120.36051
1,501226003,九曲堂火車站(前站),大樹區,復興街58號(對面人行道),32,22.65679,120.42084
1,501207080,富國公園,左營區,富國路292號(旁公園人行道),16,22.66388,120.30671
1,501207088,介壽先鋒路口東南側,左營區,介壽路20號(對側人行道),15,22.68124,120.28281
1,501208035,捷運草衙站(1號出口),前鎮區,翠亨南路/中平路口(西南角),28,22.57953,120.32902
1,501218006,文山高中,鳥松區,大埤路31號(右側人行道),14,22.64843,120.35398
1,501214015,仁武區運動公園,仁武區,仁信巷/仁祥街口西側,15,22.70363,120.34514
1,501206077,鳳山公園,鳳山區,園茂路/園中路口西北側,15,22.59456,120.35774
1,501220005,橋頭地方法院(新中五街),橋頭區,經武路911號(前人行道),11,22.73747,120.30420
1,501203076,精華公園,三民區,錦州街/哈爾濱街路口,16,22.64232,120.29924
1,501206073,武漢里活動中心,鳳山區,武營路239巷/南山北街78巷東南側,11,22.61098,120.33605
1,501206075,八仙公園,鳳山區,國泰路一段/和興街口東側,15,22.61557,120.35475
1,501206081,北昌北昌三街口,鳳山區,北昌路/北昌三街口西側,17,22.64518,120.37258
1,501206083,中正預校,鳳山區,凱旋路/誠愛一街口東南側,15,22.60715,120.35970
1,501203050,捷運後驛站(2號出口),三民區,博愛一路/察哈爾一街口東北側,43,22.64818,120.30351
1,501206063,捷運大東站(2號出口),鳳山區,大東一路/光遠路口南側,16,22.62521,120.36261
1,501206064,鳳凌廣場,鳳山區,體育路/立志街口西北側,14,22.62340,120.35595
1,501206071,曹公圳公園,鳳山區,中山路53巷6弄/大東二路東南側,16,22.62033,120.36016
1,501208059,高雄市圖書館總館,前鎮區,新光路61號(旁),29,22.61061,120.30210
1,501209040,中山大學海工館,鼓山區,中山大學海工館旁,15,22.62875,120.26259
2,501205022,七賢市中路口,前金區,七賢二路396號旁,16,22.63087,120.28844
1,501206087,協和曹公路口,鳳山區,協和路/曹公路口東北側,28,22.63065,120.35756
1,501205024,新田機車公有停車場,前金區,自強三路254號北側,16,22.62041,120.29726
1,501209036,一號船渠景觀橋,鼓山區,濱海二路12號旁人行道,16,22.62079,120.27013
1,501209042,鼓山國小(臨海二路),鼓山區,臨海二路50號(東南側人行道),15,22.62329,120.27155
1,501209045,鼓山鼓山一路119巷口,鼓山區,鼓山一路111號(東側人行道),16,22.62785,120.27937
1,501214012,大灣國中,仁武區,仁雄路99號(前),15,22.67661,120.34195
1,501206069,高雄監理所(武營),鳳山區,武林路/武營路口西北側,14,22.61425,120.33667
1,501206070,新甲國小,鳳山區,新富路/新富路228巷口東南側,16,22.61274,120.34035
1,501205023,五福仁德街口,前金區,五福三路21號北側,15,22.62279,120.29949
1,501209027,中華藝校(美術東一路),鼓山區,美術東一路/美術東二路口(東南側),19,22.65603,120.28881
1,501209034,青海鼓山路口,鼓山區,青海路/鼓山三路口(東側人行道),15,22.65173,120.27629
1,501209041,明誠高中(華寧路),鼓山區,華寧路54號對面人行道,16,22.66748,120.29228
1,501209044,厚泰公有停車場西側,鼓山區,鼓山三路6巷/厚德路(東側人行道),15,22.64616,120.27870
1,501206067,國立鳳新高中(新康街),鳳山區,新康街/南京路387巷西北側,39,22.61417,120.34401
1,501208050,瑞豐國中,前鎮區,公正路/瑞北路口(東北角),11,22.60910,120.33057
1,501206072,鳳東公園,鳳山區,鳳東路100號對側,15,22.62669,120.37981
1,501207074,高雄榮總,左營區,榮總路143號(對側人行道),28,22.68003,120.32172
1,501219013,和春技術學院大發校區,大寮區,至學路288號(警衛室旁),15,22.60659,120.42729
1,501219011,和春技術學院大寮校區,大寮區,信義路33號(對面),15,22.63433,120.39166
1,501216012,岡山區戶政事務所,岡山區,岡山路345巷1號旁停車場,14,22.79750,120.29459
1,501206074,海光兒童公園,鳳山區,瑞大街/瑞智街口西側,14,22.63176,120.36814
1,501207076,新光國小(曾子路側),左營區,曾子路/文水路口東南側,18,22.68048,120.30589
1,501207078,海青工商,左營區,南大路4號(對側人行道),17,22.67443,120.28646
1,501207081,明德國小,左營區,海富路2號(前人行道),14,22.68726,120.28948
1,501207084,福山國中,左營區,自由四路63號(對側人行道),16,22.68125,120.31394
1,501207085,新莊國小,左營區,新庄仔路724號(對側人行道),15,22.66886,120.30941
1,501208049,興仁國中,前鎮區,德昌路345號(前),16,22.58682,120.31382
1,501207091,大義國中(翠華路側),左營區,翠華路687號(前人行道),16,22.67451,120.29316
1,501220001,捷運青埔站(1號出口)東側,橋頭區,經武路20號東側,18,22.74429,120.31788
1,501228003,阿公店水庫停車場,燕巢區,工程路1號旁,25,22.80144,120.35711
1,501228004,阿公店森林公園,燕巢區,阿公店森林公園汽車停車場內,16,22.81139,120.34388
1,501217001,興達港情人碼頭,茄萣區,順漁路100號,13,22.87902,120.21103
1,501217002,興達港立體停車場,茄萣區,民有路/健康路649巷口,10,22.87154,120.19391
1,501213001,蚵仔寮觀光魚市,梓官區,漁港一路/港七街口(西北側停車場),14,22.72712,120.25552
1,501218009,長庚醫院,鳥松區,長庚路/大埤路(東側),16,22.65045,120.35778
1,501226002,舊鐵橋濕地公園,大樹區,竹寮路/九曲路(東北側),15,22.662122,120.426808
1,501220004,橋頭車站,橋頭區,站前街14號(近捷運橋頭火車站(2號出口),20,22.76104,120.31000
1,501224002,高科運動公園,路竹區,路科二路/路科五路口(西南側人行道),15,22.82814,120.25671
1,501224003,路竹高中,路竹區,中華路337號對面人行道,15,22.85493,120.25289
1,501201018,捷運信義國小站(1號出口),新興區,中正三路34號東側,21,22.63108,120.31030
1,501207062,辛亥公有停車場,左營區,裕誠路213號(對側人行道),27,22.66469,120.31018
1,501201023,民族八德路口,新興區,民族八德路口西北側,28,22.63539,120.31341
1,501209033,南屏大順路口,鼓山區,南屏路/大順一路口(西北側),12,22.65578,120.29991
1,501218007,澄清湖(海洋奇珍園),鳥松區,澄清湖海洋奇珍園旁停車場內,13,22.65586,120.35155
1,501218008,澄清湖(仁智亭),鳥松區,澄清湖仁智亭前停車場內,31,22.66249,120.34179
1,501209038,雄峰公園,鼓山區,九如四路/九如四路1991巷口(西側人行道),16,22.66754,120.28530
1,501209046,台鐵美術館車站,鼓山區,翠華路/青海路口(西北側人行道),16,22.65204,120.28111
1,501216021,捷運南岡山站(2號出口),岡山區,中山南路2號(崙子頂路),18,22.78133,120.30169
1,501207060,捷運巨蛋站(3號出口),左營區,裕誠路486號(對側人行道),43,22.66598,120.30310
1,501210035,加昌國小,楠梓區,壽民路40號(對面人行道),24,22.72149,120.29659
1,501202052,英明公園,苓雅區,英明路186號(對面),27,22.61635,120.32488
1,501211001,高雄科技大學旗津校區,旗津區,中洲三路482號前人行道,16,22.60825,120.27226
1,501211002,高雄市立旗津醫院(旗港路),旗津區,旗港路33號前人行道內,15,22.59014,120.28519
1,501214011,仁和公園,仁武區,仁雄路/仁勇西路東南側,16,22.68110,120.35180
1,501203052,科工館,三民區,九如一路/九如一路611巷西北側,27,22.639607,120.323976
1,501218005,正修科技大學,鳥松區,澄清路840號(左側人行道),28,22.65070,120.34880
1,501202037,捷運文化中心站(3號出口),苓雅區,和平一路165號(對面),16,22.62977,120.31825
1,501202039,捷運技擊館站(2號出口),苓雅區,中正一路/體育館路口(捷運技擊館站2號出口旁),26,22.62737,120.33365
1,501209035,哈瑪星鐵道文化園區(臨海新路),鼓山區,臨海新路25號西北側,28,22.62034,120.27711
1,501204007,輕軌真愛碼頭站,鹽埕區,必忠公園二路口西北側,21,22.61978,120.28893
1,501202038,中正正言路口,苓雅區,中正一路258號(對面),28,22.62896,120.32899
1,501204010,新樂截流抽水站,鹽埕區,河西路10號東側(河濱步道),23,22.62300,120.28915
1,501202053,長青綜合服務中心,苓雅區,四維二路/英明路(西南角),15,22.62312,120.32209
1,501202036,捷運三多商圈站(5號出口),苓雅區,中山二路276號(旁),29,22.61435,120.30466
1,501209032,西子灣風景區,鼓山區,蓮海路70號(後方人行道),28,22.61824,120.26609
1,501208031,中山時代大道口(西北角),前鎮區,中山三路/時代大道口(西北角),28,22.59878,120.31339
1,501208057,高雄市政府消防局,前鎮區,凱旋四路119號(前),28,22.59309,120.30735
1,501206068,中山公園,鳳山區,誠義路/國泰路一段東南側,15,22.61420,120.36050
1,501205026,捷運市議會站(4號出口),前金區,中華三路121號,19,22.62950,120.29547
1,501201019,六合公園(七賢路),新興區,七賢一路420號南側,28,22.63420,120.30590
1,501201020,中山民生圓環,新興區,中山民生路口西北側,24,22.62790,120.30149
1,501201025,民權民生路口,新興區,民權民生路口東南側,24,22.62723,120.31086
1,501208063,前鎮民權公園,前鎮區,二聖二路/民權二路口(西北側人行道),16,22.61351,120.31397
1,501208054,中華忠勤路口,前鎮區,中華五路1111號(前),27,22.60527,120.30493
1,501208045,台鋁廣場(成功二路),前鎮區,成功二路/忠勤路(東南角),32,22.60336,120.30201
1,501207069,孔營蓮潭路口,左營區,孔營路1號(旁人行道),29,22.68794,120.29751
1,501207070,龍虎塔,左營區,勝利路110號(前人行道),28,22.67993,120.29210
1,501218004,澄清湖,鳥松區,大埤路/澄清路(西北角),29,22.65356,120.34928
1,501217004,茄萣海岸公園,茄萣區,濱海路三段/濱海路四段口西側,15,22.90801,120.17704
1,501227001,永安區休閒公園,永安區,永安路/永華路口東側公車站旁,10,22.81868,120.22639
1,501209030,凹子底森林公園(神農路),鼓山區,神農路197號對面人行道,18,22.65787,120.29659
1,501207063,河堤公園(明誠二路側),左營區,光興街58巷17號(對側人行道),31,22.66090,120.31080
1,501207092,微笑公園(博愛三路50巷口),左營區,博愛三路50巷6號(西北側人行道),32,22.67184,120.30448
1,501219012,輔英科技大學,大寮區,進學路151號(學校警衛室旁),40,22.60402,120.39113
1,501207075,自由黃昏市場,左營區,自由三路210號(旁廣場),27,22.67216,120.31135
1,501208046,管仲民裕路口,前鎮區,民裕街/管仲南路口(西南角),16,22.60557,120.31267
1,501208048,民權少康街口,前鎮區,民權二路376號(旁),16,22.60933,120.31310
1,501210047,國昌國中,楠梓區,德民路1010號(前人行道),16,22.71917,120.28600
1,501208062,輕軌前鎮之星站,前鎮區,中山三路/凱旋四路(東北角),16,22.59634,120.31537
1,501224001,路竹夜市,路竹區,民富街與民強街口西南側停車場,15,22.85370,120.26265
1,501206046,武松公園,鳳山區,經武路/經武路225巷西南側,14,22.63655,120.36397
1,501207065,捷運世運站(1號出口),左營區,左楠路2-1號(對側人行道),27,22.70075,120.30203
1,501218010,澄清湖(兒童園區),鳥松區,澄清湖兒童園區停車場內,30,22.65811,120.34611
1,501212026,小港區公所,小港區,小港路156號(對面),22,22.56507,120.33839
1,501210042,德賢德惠路口西北側,楠梓區,德賢路/德惠路口(西北側人行道),28,22.72623,120.30250
1,501207090,屏山國小,左營區,海功東路2號(前人行道),14,22.69372,120.30194
1,501210048,捷運油廠國小站(1號出口),楠梓區,後昌路/左楠路口(西南側人行道),13,22.70783,120.30205
1,501201024,高雄高商(復興路),新興區,復興二路171號東側,24,22.62516,120.30845
1,501206061,二甲里活動中心,鳳山區,林森路/林森路416巷口東北側,16,22.59904,120.33974
1,501206060,新甲兒童公園,鳳山區,新康街/新昌街口東北側,15,22.60761,120.34318
1,501208053,新光中山路口,前鎮區,新光路1號(對面綠園道),19,22.61213,120.30491
1,501208030,捷運獅甲站(2號出口),前鎮區,中山三路132號(捷運獅甲站2號出口旁),18,22.60580,120.30857
1,501208037,高雄區漁會漁業大樓,前鎮區,漁港東二路3號(對面),15,22.57217,120.31748
1,501203060,寶業里滯洪池,三民區,褒揚東街/褒揚東街162巷東南側,22,22.63999,120.34634
1,501203082,鼎泰廣場,三民區,裕誠路1號(對面),39,22.66374,120.31536
1,501209037,願景橋,鼓山區,河西一路1477號(對側人行道),16,22.65081,120.28753
1,501207087,龍華國中(靠近大順一路口),左營區,自由二路5號(對側人行道),16,22.65708,120.30891
1,501206085,中崙公園,鳳山區,中崙五路5號西北側,16,22.59713,120.35371
1,501207061,蓮池潭(高雄物產館),左營區,翠華路1435號北側(環潭路上),26,22.68059,120.29746
1,501208034,夢時代購物中心,前鎮區,成功二路/時代大道(東北角),19,22.59586,120.30493
1,501207066,世運主場館,左營區,軍校路/世運大道口東南側,29,22.70252,120.29258
1,501208056,二聖公園,前鎮區,光華二路/英德街口(東南角),27,22.61385,120.31830
1,501209049,美術館立體停車場,鼓山區,美術館路82號(西南側停車場內),28,22.65495,120.28309
1,501208040,中四中一路口,前鎮區,中四路/中一路口(北側人行道),10,22.60169,120.29173
1,501207079,合群新城(緯九海景街口),左營區,緯九路211號(前人行道),16,22.69551,120.28738
1,501206086,北辰兒童公園,鳳山區,文龍東路/經武路(東南側),10,22.64049,120.36537
1,501206082,新泰兒童公園,鳳山區,新強路26號對側,15,22.61092,120.34361
1,501206042,公二十七公園,鳳山區,頂新路/頂庄路口西南側,15,22.58804,120.36518
1,501214006,北屋滯洪公園,仁武區,京文街/京學街西北側,14,22.68048,120.33415
1,501214016,八卦里滯洪公園,仁武區,八德西路532巷/八德西路東北方,14,22.68353,120.32904
1,501220008,捷運青埔站(1號出口)西側,橋頭區,經武路20號西側,18,22.74393,120.31747
1,501220009,捷運橋頭糖廠站(1號出口),橋頭區,糖南路/橋南路口東北側,13,22.75242,120.31429
1,501212025,小港森林公園(華山路),小港區,華山路180號(旁),15,22.56779,120.36660
1,501208036,佛公國小,前鎮區,后平路/佛德街口(西南角),27,22.57382,120.32004
1,501220002,橋頭地檢署,橋頭區,經武路868號(前人行道),17,22.73908,120.30490
1,501215007,漁港公園,林園區,占岸路/力行路口(東南側人行道),10,22.48594,120.39934
1,501215006,清水巖榕樹休憩公園,林園區,清水巖榕樹休憩公園入口旁(清水岩路),10,22.52183,120.39078
1,501203054,客家文物館,三民區,同盟二路215號東北側,22,22.65057,120.29572
1,501210036,捷運都會公園站(4號出口),楠梓區,高楠公路/監理南街(南側人行道),27,22.73021,120.32053
1,501207067,左營高中,左營區,海功路55號(前人行道),56,22.69355,120.29548
1,501208039,原住民故事館,前鎮區,翠亨北路390號(對面),22,22.59392,120.31624
1,501208058,聖和公園,前鎮區,二聖一路110號(對面),16,22.61211,120.32349
1,501210046,右昌森林公園,楠梓區,加宏路/加宏路156巷口(東北側人行道),16,22.71768,120.29551
1,501208060,瑞豐公車總站,前鎮區,瑞隆路76號(前),16,22.60614,120.33876
1,501209029,華榮公園,鼓山區,文信路/華榮路口(西南側華榮公園內),28,22.66444,120.29690
1,501206065,市議會(新址),鳳山區,國泰路二段136號南側,28,22.61981,120.34804
1,501203057,莊敬公園,三民區,明誠一路336號(對面人行道),26,22.65962,120.32475
1,501207071,福山廣場(文川路側),左營區,文川路409號(對側人行道),26,22.68588,120.31401
1,501204008,駁二藝術特區(必信街),鹽埕區,大義街1號北側,15,22.61938,120.28481
1,501202047,生日公園,苓雅區,四維三路/文衡二路口(西北角),16,22.61782,120.30503
1,501223001,彌陀漁民活動中心,彌陀區,漁港一街91號前廣場,10,22.76143,120.23470
1,501202050,輕軌光榮碼頭站,苓雅區,海邊路/永平路口,16,22.61728,120.29356
1,501203073,河東河北路口,三民區,河東路/河北二路口東北側,24,22.63303,120.28608
1,501205020,高雄女中(英雄路口),前金區,五福英雄路口北側,31,22.62079,120.29366
1,501207068,高鐵左營站,左營區,高鐵路107號,31,22.68667,120.30827
1,501202042,道明中學,苓雅區,建國一路201號(對面),25,22.63313,120.32356
1,501207072,臺鐵新左營站,左營區,站前北路1號(前人行道),15,22.68850,120.30744
1,501216014,岡山稽徵所(健鷹南路側),岡山區,健鷹南路32巷1號對側,14,22.78505,120.29093
1,501207093,龍華市場(忠言路側),左營區,忠言路93號(對側人行道),12,22.65835,120.30596
1,501220003,竹林公園,橋頭區,隆豐路/公園路口(西北側公園),16,22.75629,120.30563
1,501209043,龍勝大順路口,鼓山區,龍勝路/大順一路口,15,22.65452,120.29565
1,501205019,高雄市政府警察局,前金區,中正四路260號南側,28,22.62774,120.29085
1,501207064,左營國小,左營區,實踐路46號(對側人行道),29,22.69057,120.29246
1,501219014,大寮區公所,大寮區,鳳林三路492號(公所停車場),17,22.60540,120.39546
1,501218011,澄清湖(後門),鳥松區,澄清湖後門入口處左方,15,22.66833,120.34591
1,501203065,三民游泳池,三民區,自由一路/遼寧一街口西北側,16,22.64248,120.30871
1,501203066,河堤南自由路口,三民區,河堤南路/自由一路口東北側,16,22.65436,120.30887
1,501209022,哨船安海街口(東側),鼓山區,哨船街/安海街口(東側),10,22.61905,120.26924
1,501204009,鹽埕立體停車場,鹽埕區,大仁路43號對側,15,22.62495,120.28591
1,501206058,忠孝國中(國興街),鳳山區,國興街/南京路口東北側,25,22.61888,120.34601
1,501203083,本安生態滯洪公園,三民區,清榮街/黃興路口東南側,10,22.65091,120.33740
1,501210054,高雄大學(大學西路側),楠梓區,大學西路819號(對面),13,22.73210,120.27641
1,501210057,榮新公園西南側,楠梓區,加昌路729巷90弄49號(對側人行道),10,22.71245,120.29849
1,501210058,樂活公園(大學二十六街),楠梓區,德中路/大學二十六街路口(東北側人行道),15,22.72603,120.27559
1,501209018,美術東二明誠路口(西南側),鼓山區,美術東二路/明誠四路口(西南側人行道),20,22.66118,120.28836
1,501209023,捷運西子灣站(2號出口),鼓山區,臨海新路/鼓山一路口(東北側人行道),13,22.62118,120.27523
1,501209026,高雄鼓山郵局,鼓山區,臨海二路/臨海一路口(西側人行道),9,22.62184,120.27380
1,501203079,灣福兒童公園,三民區,自重街/宗元街口,13,22.65359,120.31724
1,501210056,益群橋東南側,楠梓區,德富街/益群橋東北側,13,22.72562,120.29663
2,501210059,大學二十一路公園,楠梓區,大學三十三街/大學二十一路口(東北側人行道),15,22.72133,120.27759
1,501210006,大學西路口(第一綜合大樓),楠梓區,大學南路1186號旁,18,22.73017,120.27850
1,501210049,翠屏兒童遊戲場,楠梓區,德惠路151巷/加仁路87巷口西北側,10,22.72849,120.30123
1,501210026,德民路356巷德賢路口西北側,楠梓區,德賢路380巷26號旁,15,22.72677,120.30450
1,501220007,橋頭地方法院(橋新二路側),橋頭區,橋新二路868號(對側人行道),16,22.73750,120.30660
1,501220010,橋頭國中,橋頭區,新興路70號(前人行道),8,22.75878,120.30694
1,501210055,楠梓區九號公園,楠梓區,德民路/三山街口(東南側),14,22.71652,120.28292
1,501202034,捷運三多商圈站(2號出口),苓雅區,中山二路/新光路口西北側,16,22.61256,120.30491
1,501216022,岡山國小,岡山區,柳橋東路36號(前人行道),16,22.79109,120.29305
1,501216023,河華前峰路口,岡山區,河華路111號(前人行道),10,22.79871,120.28387
1,501202060,同慶停車場,苓雅區,同慶路14號(對面人行道),21,22.62820,120.32330
1,501202035,捷運三多商圈站(7號出口),苓雅區,中山二路333號(前),30,22.61482,120.30407
1,501210050,楠梓車站,楠梓區,建楠路229 號(機車停車場旁),30,22.72691,120.32452
1,501210051,高雄大學理學院南側,楠梓區,高雄大學理學院南側,15,22.73514,120.28590
1,501210052,高雄大學社科院西側,楠梓區,高雄大學人文社會科學院西側,17,22.73591,120.28088
1,501210053,高雄大學第一宿舍東側,楠梓區,高雄大學學生第一宿舍東側,14,22.73584,120.27799
1,501206090,黃埔新村,鳳山區,中山東路12-1號東側,14,22.62009,120.36395
1,501210060,外環西加昌路口,楠梓區,外環西路/加昌路口(西北側人行道),17,22.71620,120.30093
1,501210061,外環西創意南路口,楠梓區,外環西路/創意南路(西北側人行道),20,22.71328,120.30215
1,501212027,山明北林路口,小港區,山明路178號(前),15,22.56559,120.36428
1,501207094,文學公園(華夏路側),左營區,華夏路1707號(東側人行道),13,22.68913,120.31800
1,501207096,文學公園(文學路),左營區,文學路/文學路603巷(東南側人行道),15,22.68994,120.31841
1,501207098,民族霞海路口,左營區,民族一路1188號(前人行道),13,22.68992,120.32142
1,501218013,圓山大飯店,鳥松區,圓山路2號(右側),15,22.65458,120.34576
1,501206091,鳳山新城甲社區,鳳山區,工協街33號(對面),14,22.62995,120.37211
1,501224005,路科宿舍,路竹區,後鄉路37號(7-11前停車場),15,22.84421,120.24550
1,501210016,德民藍昌路口東側,楠梓區,德民路828號前,15,22.72198,120.29105
1,501207049,捷運凹子底站(3號出口),左營區,博愛二路86號(前人行道),20,22.65777,120.30317
1,501208074,瑞福路公共停車場,前鎮區,瑞安街/瑞福路西北側,19,22.60770,120.33543
1,501207054,左營(舊城)車站,左營區,翠華路1050號(前機車格),26,22.67420,120.29360
1,501209053,中華美術北三路口北側,鼓山區,中華美術北三路口北側,20,22.66267,120.29222
1,501202062,北凱旋公園,苓雅區,中正一路/河北路口(西北側),10,22.63012,120.32237
1,501202066,武廟大順三路口,苓雅區,武廟路218號(前人行道),10,22.63169,120.32421
1,501206104,保安二鳳燕一街口,鳳山區,保安二街170號(對面人行道),14,22.59919,120.34234
1,501206103,鳳翔國中,鳳山區,保華二路317號(對面人行道),11,22.59699,120.34714
1,501208075,英德街公有民營停車場,前鎮區,和平二路英德街口(西南側人行道),12,22.61387,120.32246
1,501208076,光華國中(和平二路),前鎮區,和平二路170號(校門口左側人行道),15,22.61156,120.32244
1,501202058,四維國小(民權一路),苓雅區,民權一路/青年一路(東南側人行道),15,22.62297,120.31252
1,501209052,中山大學圖資大樓,鼓山區,中山大學圖書館東側,16,22.62708,120.26611
1,501208068,前鎮高中(樹人路側),前鎮區,樹人路/鎮中路口(西北側人行道),10,22.58756,120.32066
1,501208079,成功特殊教育學校,前鎮區,復興三路3號(前人行道),12,22.60568,120.30235
1,501208077,獅甲社區,前鎮區,中華五路1005號(前人行道),10,22.60331,120.30569
1,501208078,正勤停車場,前鎮區,中山三路116號(對面人行道),19,22.60431,120.30914
1,501202065,中華苓雅二路口,苓雅區,中華四路153號(前人行道),15,22.61786,120.30016
1,501202068,中山四維四路口,苓雅區,中山二路455號(前人行道),18,22.61734,120.30312
1,501208069,康定康定路166巷口,前鎮區,康定路/康定路166巷口(東北側人行道),10,22.58932,120.31634
1,501204013,七賢府北路口西側,鹽埕區,七賢府北路口西側,15,22.62962,120.28513
1,501205027,前金國小(成功路),前金區,成功一路383號東側,10,22.62583,120.29317
1,501205030,立德棒球場(旺盛街),前金區,旺盛街186-1號南側,10,22.62985,120.28820
1,501210030,幸福新城,楠梓區,藍昌路359號(對側人行道),16,22.72337,120.29130
1,501201026,大同國小(大同路),新興區,大同一路229巷口西南側,15,22.62823,120.29895
1,501205028,捷運市議會站(1號出口),前金區,自強一路10號西側,10,22.62917,120.29380
1,501205029,七賢成功路口東北側,前金區,七賢二路316號,10,22.63163,120.29105
1,501203084,建國三路中庸街口,三民區,建國三路487號(人行道),11,22.63560,120.28952
1,501203092,自立自立一路161巷口,三民區,自立路/自立一路161巷(東側),20,22.63959,120.29641
1,501202055,成功國小(華新街),苓雅區,華新街59號(左側人行道),15,22.61409,120.29736
1,501206096,中山東路5巷口,鳳山區,中山東路5巷/中山路口(東南側),15,22.62068,120.36257
1,501207101,新民國小(重立路232巷口),左營區,重立路228號(對側人行道),17,22.67606,120.31468
1,501207102,新民國小(重立路),左營區,重立路342號(對側人行道),18,22.67728,120.31442
1,501207095,榮光公有停車場,左營區,榮總路339號,10,22.68506,120.32173
1,501206099,鳳山地政事務所(忠義街),鳳山區,忠義街152號(對面),19,22.62782,120.35125
1,501209055,裕興華泰路185巷口,鼓山區,裕興路/華泰路185巷口,14,22.66984,120.29242
1,501202057,高雄師大附中(凱旋二路),苓雅區,凱旋二路89號(校門口左側人行道),35,22.62560,120.32321
1,501202059,五塊厝公園,苓雅區,福安路335號(對面人行道),20,22.62757,120.32736
1,501202056,福德河北路口(東南側),苓雅區,福德三路208號(對側公園),12,22.62696,120.32690
1,501202064,林靖公園,苓雅區,福德三路96號(對側人行道),16,22.62350,120.32692
1,501206105,新強輜汽路口,鳳山區,新強路/輜汽路(東南側),16,22.61659,120.33882
1,501202061,三多廣州二街口,苓雅區,三多二路291號(前),11,22.61877,120.31957
1,501203081,東光國小,三民區,澄明街/應安街口西南側,22,22.64963,120.34078
1,501208067,新正薪醫院,前鎮區,一心一路233號(前人行道),10,22.60797,120.31802
1,501202067,福東國小,苓雅區,明德街/福壽街口(西北側),15,22.62394,120.32889
1,501218012,澄清湖(第一停車場),鳥松區,澄清湖第一停場停車場內,29,22.65561,120.34797
1,501207099,博愛重和路口(路口兩處),左營區,博愛四路160號(前人行道),19,22.68411,120.31298
1,501207100,博愛扶輪公園(博愛四路側),左營區,博愛四路96號(旁公園),22,22.68267,120.31183
1,501214017,霞海東二霞海中街口,仁武區,霞海東二街/霞海中街(南側),11,22.68857,120.32424
1,501202069,五權國小,苓雅區,三多二路100號(左側人行道),15,22.62044,120.32396
1,501210063,立民公有停車場,楠梓區,立民路49號(對側停車場),20,22.74212,120.33665
1,501210065,清福公園,楠梓區,土庫路283號(對側),10,22.74110,120.32938
1,501208066,臨加東臨加北路口,前鎮區,臨加東路/臨加北路口(東南側人行道),12,22.57796,120.31958
1,501208070,漁港草衙二路口,前鎮區,草衙二路517號(旁),20,22.58156,120.32284
1,501203089,中華熱河三街口,三民區,中華二路/熱河三街口(西北側),11,22.64487,120.29148
1,501203090,中華九如三路口,三民區,中華二路/九如三路口(西北側),10,22.64232,120.29132
1,501203091,中庸中華橫路口,三民區,中庸街/中華橫路口(東北側),13,22.64148,120.28719
1,501206088,鳳山工業區,鳳山區,武慶二路221號對側,14,22.61465,120.33237
1,501206089,武慶武昌路口,鳳山區,武慶二路/武昌路口西南側,14,22.61756,120.33203
1,501203087,陽明義華路口,三民區,陽明路/義華路口(東北側),35,22.64269,120.34212
1,501209051,中山大學工學院,鼓山區,中山大學工學院東側,15,22.62666,120.26659
1,501209054,中山大學材料大樓,鼓山區,中山大學材料大樓西北側,10,22.62710,120.26689
1,501205031,河東民生路口,前金區,民生二路202號西側,27,22.62400,120.29038
1,501205033,行政院南部聯合服務中心(舊址),前金區,成功一路436號北側,15,22.62950,120.29177
1,501206097,福安二街20巷39弄口,鳳山區,福安二街20巷39弄/福安二街86巷口(東側),11,22.58965,120.33299
1,501206095,公園二公園街口,鳳山區,公園二街/公園街(西北側),17,22.58768,120.33176
1,501208071,國慶明龍街口,前鎮區,國慶六街/明龍街口(東南側人行道),11,22.58754,120.33800
1,501206101,NO.16藝術公園,鳳山區,北仁街/北昌三街口(東北側),20,22.64575,120.37408
1,501206094,誠體誠智街口,鳳山區,誠體街/誠智街口(東南側),12,22.62295,120.37740
1,501203086,民族社區老人活動中心,三民區,九如一路/堯山街口(南側),18,22.64013,120.31636
1,501208072,前鎮圖書館,前鎮區,崗山橫街196號(對面),14,22.60247,120.33341
1,501203088,同盟十全路口,三民區,同盟三路/十全路口(東北側),14,22.64894,120.28608
1,501209060,西藏翠華路口,鼓山區,西藏翠華路口東北側,19,22.65490,120.28159
1,501206059,七聖街112巷口,鳳山區,七聖街112巷/五甲一路710巷口西南側,15,22.60939,120.34704
1,501206057,博愛公園,鳳山區,經武路/博愛路口西南側,15,22.62986,120.36269
1,501210064,高雄市立圖書館楠仔坑分館,楠梓區,旗楠路22-1號(對側人行道),17,22.73139,120.32888
1,501209050,中華一路828號南側,鼓山區,中華一路828號南側,13,22.66002,120.29209
1,501209057,鼓山區戶政事務所第二辦公處,鼓山區,中華一路45號西側,10,22.66743,120.28952
1,501204011,輕軌文武聖殿站,鹽埕區,大公路129號北側,15,22.62916,120.28071
1,501208064,北一路西十一街口,前鎮區,北一路/西十一街口(西北側),11,22.60535,120.28848
1,501208065,高雄加工出口區員工宿舍(擴建路),前鎮區,擴建路1-4號(西北側人行道),10,22.59091,120.30436
1,501207105,臺鐵新左營站(站前一街東北側),左營區,站前路/站前一街(東北側),25,22.68923,120.30747
1,501204014,高雄市音樂館,鹽埕區,河西路99號,16,22.62784,120.28693
1,501204012,五福建國路口東南側,鹽埕區,五福四路267號,14,22.62508,120.28040
1,501202070,民權四維三路口,苓雅區,民權一路65-67號(前人行道),16,22.61982,120.31315
1,501206102,青年公園,鳳山區,光復路二段1號(對側),20,22.62933,120.34908
1,501206110,文教公園,鳳山區,文教路/文教路45巷(東南側),16,22.63370,120.35106
1,501203093,大園大和街口,三民區,大園街/大和街口(東南側),13,22.65587,120.32523
1,501206106,鳳頂過雄一街口,鳳山區,鳳頂路/過雄一街(西南側人行道),15,22.58599,120.35870
1,501212032,明義國中(高鳳路),小港區,高鳳路/中安路口西南側,16,22.58430,120.36867
1,501212028,小港森林公園(高松路),小港區,高松路126號(對面),15,22.57278,120.36673
1,501212029,小港森林公園(近營口路),小港區,高松路78-1號(對面),15,22.57263,120.37074
1,501216011,岡山國中(大德二路側),岡山區,大德二路165號(對側人行道),15,22.78972,120.30380
1,501216024,岡山平面停車場,岡山區,岡山路232號,24,22.79183,120.29620
1,501222006,觀音山腳休息區,大社區,翠屏路/翠屏路112巷口(南側),12,22.72974,120.36987
1,501218015,三亭攬勝,鳥松區,文前路/三亭攬勝(對側),15,22.66425,120.35258
1,501219016,中庄社區發展協會,大寮區,光明路三段1257巷51號(左側人行道),10,22.63309,120.40357
1,501226005,大樹綜合體育館,大樹區,九大路639號(左側),15,22.65668,120.42474
1,501211004,旗津漁港公有停車場,旗津區,北汕巷50號(東南側廣場),15,22.58977,120.28719
1,501212031,高雄市立圖書館小港分館,小港區,博學路365號(圖書館後方機車格),15,22.56063,120.37032
1,501210068,中央開發路口,楠梓區,開發路47號(西北側),14,22.72126,120.30479
1,501210071,中央中三街口,楠梓區,中央路58號(南側),13,22.72425,120.30351
1,501210069,經六開發路口,楠梓區,開發路73號(東側),16,22.72016,120.30102
1,501210070,研發創意北路口,楠梓區,研發路66-9號(西北側),20,22.71400,120.29985
1,501203095,民族聯興路50巷口,三民區,民族一路/聯興路50巷口(西南側人行道),33,22.65673,120.31531
1,501203094,大順民族路口,三民區,大順一路/民族一路口(西北側人行道),16,22.65572,120.31507
1,501206100,中崙國小,鳳山區,中崙四路/中崙一路口(東南側),13,22.59950,120.35092
1,501209058,裕誠富農路口,鼓山區,裕誠路2058號東側,15,22.65657,120.29406
1,501207103,崇實自助社區活動中心,左營區,先鋒路293號前,12,22.67862,120.28262
1,501207108,半屏山登山南側步道入口,左營區,翠華路/明潭路東北側,10,22.69141,120.30292
1,501209056,裕誠美術館路口,鼓山區,美術館路2號東側,15,22.65484,120.29400
1,501206112,埤頂鳳埤街口,鳳山區,埤頂街33號前,10,22.62979,120.38075
1,501210062,創新公園,楠梓區,創新路/土庫三路口(西北側),15,22.74228,120.32623
1,501202063,和平五福一路口,苓雅區,和平一路/五福一路口(東南側),20,22.62873,120.31870
1,501210072,國昌里公園,楠梓區,勇昌街/智昌街(東南側),15,22.72128,120.28757
1,501213002,蚵寮國中,梓官區,中正二街60號(前人行道),8,22.72855,120.25866
1,501213003,中正港六街口,梓官區,中正路75號(前人行道),10,22.72758,120.25737
1,501213004,蚵寮國小,梓官區,光明路177號(前人行道),10,22.73401,120.24953
1,501228005,高雄市立圖書館燕巢分館,燕巢區,中民路592號,10,22.79334,120.36218
1,501220006,岡山養護工程隊,橋頭區,橋新五路300號(前人行道),10,22.74555,120.31061
1,501213005,梓官國小,梓官區,進學路61號(前人行道),10,22.76037,120.26453
1,501223003,彌陀國中,彌陀區,進學路136號(前人行道),15,22.77690,120.24694
1,501223002,高雄市立圖書館彌陀公園分館,彌陀區,中正路281巷50號(前人行道),10,22.78538,120.24630
1,501217003,興達國小,茄萣區,民治路2號(前人行道),8,22.87568,120.19685
1,501217006,茄萣濕地遊客中心,茄萣區,正順北路180號,20,22.88315,120.19759
1,501217005,仁愛港東街口,茄萣區,仁愛路二段68號(對側人行道),10,22.89582,120.18502
1,501224004,路竹區戶政事務所,路竹區,國昌路86巷26號前,12,22.85536,120.25962
1,501221001,高雄市立圖書館湖內分館,湖內區,保生路101號前,10,22.90661,120.22380
1,501204015,大安公園,鹽埕區,大安街74號(西南側),15,22.62393,120.27848
1,501229004,旗山轉運站,旗山區,大同街23號東側,15,22.88379,120.48470
1,501229003,旗山武德殿,旗山區,華中街/中山路口(東南側人行道),19,22.88814,120.48033
1,501225001,阿蓮國中,阿蓮區,民生路178號(前人行道),14,22.88531,120.32566
1,501225003,阿蓮國小,阿蓮區,民族路163號,15,22.88278,120.33008
1,501230003,高雄市立圖書館美濃分館,美濃區,中正路一段53號南側,15,22.90015,120.54201
1,501229002,旗山老街(華中街),旗山區,華中街7號(西側人行道),12,22.88804,120.48166
1,501230001,美濃湖(民權路),美濃區,民權福美路73巷口東南側,15,22.90761,120.55159
1,501230002,雙峰公園停車場,美濃區,中山路一段888號(南側),15,22.90168,120.54212
1,501229001,鼓山國小(延平一路),旗山區,延平一路111號(東南側人行道),15,22.89834,120.48279
1,501229005,旗山區公所,旗山區,延平一路499號前,10,22.88859,120.48328
1,501215008,海洋濕地公園,林園區,半廓路6巷7-19號(左側人行道),14,22.49028,120.38649
1,501228006,西燕公園,燕巢區,中西路71巷16號(西南側),10,22.79395,120.35817
1,501216026,大遼友情路口(西北側),岡山區,大遼路/友情路(西北側),10,22.77847,120.31373
1,501203096,河堤明哲路口,三民區,河堤路/明哲路(西南側),22,22.66152,120.31160
1,501203097,明誠鼎愛街口,三民區,明誠一路/鼎愛街(東南側),11,22.66029,120.32129
1,501203098,灣仔內兒童遊戲場,三民區,愛國路/愛國路37巷(東南側),16,22.65016,120.32066
1,501203099,寶德里廣場,三民區,義昌路/褒忠街53巷(西北側),21,22.64143,120.33528
1,501001001,嘉義市政府,市區,中山路199號(對面),16,23.481634,120.453745
1,501001002,行政執行署,市區,中山路98號(前),10,23.482012,120.457342
1,501001003,嘉義高商(公園派出所),市區,中山路2號(前),16,23.482663,120.462988
1,501001004,嘉義高中(志航街),市區,啟明路122號(前),16,23.478707,120.462594
1,501001005,嘉義高中(大雅路),市區,大雅路二段738號(前),34,23.477031,120.465573
1,501001006,臺灣銀行嘉義分行,市區,中山路306號,20,23.4798596,120.4488291
1,501001007,彰化銀行嘉義分行,市區,中山路386號,10,23.47963,120.44583
1,501001009,嘉義火車站(出口),市區,中山路528號,42,23.47877,120.44089
1,501001010,新光三越遠東站(永和街口),市區,垂楊路575號,10,23.47283,120.44029
1,501001011,新光三越遠東站(廣寧街口),市區,垂楊路523號,9,23.47297,120.44153
1,501001012,嘉義舊市府(西榮街口),市區,垂楊路351號,14,23.47336,120.44604
1,501001013,文化公園停車場,市區,垂楊路434號,10,23.4738724,120.4493073
1,501001014,嘉義市議會,市區,北港路278號,15,23.47918,120.43182
1,501001015,檜意森活村,市區,忠孝路284號(旁),14,23.486138,120.453829
1,501001016,嘉義醫院(中興路),市區,北港路312號東側,20,23.48091,120.43012
1,501001017,友愛興通路口(德安停車場),市區,友愛興通路口,8,23.48465,120.43354
1,501001019,世賢八德站(自由路),市區,自由路492號,15,23.49265,120.43191
1,501001021,嘉樂福觀光夜市,市區,博愛路二段461號,14,23.47165,120.43119
1,501001022,金山玉山路口,市區,金山路102號,8,23.47179,120.42466
1,501001023,228國家紀念公園(自強街),市區,自強大富路口西側,14,23.464925,120.414697
1,501001024,中央廣場(北榮街口),市區,北榮街97號北側,15,23.481109,120.449457
1,501001025,中央噴水站,市區,中山路285號北側,18,23.480155,120.45028
1,501001026,嘉義家職,市區,體育路7號南側,20,23.47133,120.45854
1,501001027,兒童福利服務中心,市區,興業東路322號北側,13,23.469973,120.461705
1,501001028,文化中心,市區,忠孝路275號,15,23.487493,120.453047
1,501001029,嘉北火車站(前站出口),市區,保健街110號,8,23.499749,120.448592
1,501001030,文化公園(垂楊路),市區,垂楊路243號北側,30,23.474147,120.451325
1,501001031,民族停車場,市區,垂楊路223號北側,20,23.47416,120.455074
1,501001032,嘉義市體育場(2號出入口),市區,體育路29號東側,12,23.471687,120.460978
1,501001033,新光三越遠東站(仁愛路口),市區,垂楊路704號,10,23.4732456,120.4421274
1,501001034,嘉義女中(垂楊路),市區,垂楊路243號,30,23.47377,120.45081
1,501001035,大同技術學院,市區,彌陀路253號西側,13,23.469153,120.46538
1,501001036,嘉義高工,市區,彌陀路174號西南側,25,23.471501,120.464382
1,501001037,嘉義市體育館(彌陀路),市區,彌陀路381號東北側,11,23.473837,120.462379
1,501001038,華南高商,市區,光彩街122號(對面),19,23.479245,120.459596
1,501001039,北香湖公園(友愛路口),市區,文化路551號東側,16,23.49241,120.44506
1,501001040,港坪運動公園(大同路),市區,大同路491號北側,18,23.47603,120.42216
1,501206111,文華兒童公園,鳳山區,文化路/文雅街101巷(西北側),18,22.63455,120.35140
1,501206118,文山公兒三公園,鳳山區,文鳳路/澄清路口(東北側),18,22.64299,120.34680
1,501202071,福安公園,苓雅區,福安路/明德街口(東北側),17,22.62483,120.33109
1,501202072,三多和平一路口,苓雅區,三多二路/和平一路口(東北側),20,22.61993,120.32270
1,501206108,明鳳公園,鳳山區,公園街/明鳳十三街口(西北側),10,22.58875,120.33434
1,501216027,前峰國中,岡山區,樹人路1號,10,22.78879,120.28904
1,501216025,典寶溪A區滯洪池,岡山區,國軒路/劉厝路78巷路口(西側),10,22.78193,120.28615
1,501212034,中光街22巷口停車場,小港區,中光街/中光街22巷口(西北側),15,22.57151,120.35580
1,501212033,刺蔥腳濕地公園,小港區,高松路/松正路口(西北側),10,22.57080,120.37627
1,501210075,楠梓路1巷楠梓路口,楠梓區,楠梓路3號(西南側),10,22.72758,120.32961
1,501001041,玉山郵局(友忠路),市區,中興路672號東南側,17,23.471917,120.428923
1,501001043,嘉義市轉運中心,市區,中興路1號,10,23.48019,120.43972
1,501001044,新生路停車場(民族站),市區,民族路25號東側,13,23.476969,120.461243
1,500617002,捷運九德站(興華街),烏日區,興華街/自強街口(東北側),51,24.11022,120.63453
1,500617003,捷運烏日站(平等路),烏日區,平等路/光日路口,20,24.10833,120.62506
1,500606006,台灣大道文心路口(西北側),西屯區,台灣大道三段/文心路二段口(西北側),30,24.16300,120.64945
1,500606009,幸福兒童公園,西屯區,櫻城一街85號(東南側),10,24.17233,120.65211
1,500607005,公益河南路口(東南側),南屯區,公益路二段497號前,18,24.15133,120.63752
1,500606001,捷運文心櫻花站,西屯區,文心路三段107之17號旁,40,24.16802,120.65394
1,500606002,捷運市府站(出口1),西屯區,文心路二段/台灣大道二段口(西北側),25,24.16241,120.64912
1,500606003,捷運市府站(出口2),西屯區,大墩二十街口/文心路二段口(東北側),28,24.16146,120.64933
1,500607001,捷運水安宮站,南屯區,文心路一段/水安街口(北側),37,24.15324,120.64652
1,500606004,大有公園,西屯區,太原路一段/大有二街口(西北側),15,24.15983,120.65869
1,500608002,捷運四維國小站,北屯區,文心路四段/興安路一段(西南側),40,24.17107,120.69359
1,500608003,松榮平面停車場,北屯區,松竹路一段797號旁,15,24.18218,120.71756
1,500608005,景美公園(軍福十八路),北屯區,軍福十八路328號(對側人行道),15,24.17816,120.71083
1,500608006,北屯兒童公園棒球場,北屯區,文昌東十二街/北屯路291巷口(西南側),20,24.16792,120.69507
1,500607003,公益黎明路口(西南側),南屯區,公益路二段/黎明路二段口(西南側),19,24.15108,120.63510
1,500607004,公益永春東七路口(東南側),南屯區,公益路二段/永春東七路口(東南側),15,24.15092,120.63357
1,500608001,捷運舊社站,北屯區,松竹路一段/敦富路(西北側),14,24.18246,120.70738
1,500608004,捷運北屯總站,北屯區,敦富東街100號(北側人行道),20,24.18912,120.70828
1,500608007,文心昌平路口,北屯區,文心路四段753號東側,21,24.17167,120.69070
1,500606008,甘肅公園,西屯區,甘肅路一段203號(對側人行道),18,24.16889,120.65671
1,500606010,逢甲公園,西屯區,逢甲路239號(對側人行道),17,24.17632,120.64074
1,500606012,中平經貿路口,西屯區,中平路/經貿路(北側),10,24.17644,120.65906
1,500607008,文心公益路口(東南側),南屯區,文心路一段430號,24,24.15068,120.64692
1,500607006,惠智公園,南屯區,大墩十一街510巷2號(對側人行道),15,24.14919,120.63918
1,500606013,皇城帝寶,西屯區,皇城街50號,20,24.17382,120.66149
1,500617007,捷運烏日站(建國路),烏日區,光日路/建國路口(西北側),17,24.10914,120.62521
1,500607002,楓安公園,南屯區,楓和路/永春東二路(東南側),15,24.11755,120.63062
1,500607009,黎明大業路口,南屯區,黎明路二段497號,19,24.15357,120.63477
1,500607007,公益大進街口(東北側),南屯區,公益路二段42號(旁人行道),14,24.15102,120.65150
1,500606017,福星公園(弘孝路),西屯區,弘孝路/櫻花路口(東北側),21,24.17186,120.64955
1,500605001,健行忠太東路口,北區,健行路898號(對側人行道),20,24.15916,120.66798
1,500606019,秋紅谷(河南路),西屯區,河南路三段/市政北七路口(西北側),28,24.16614,120.63961
1,500617001,捷運九張犁站,烏日區,建國路/環中路六段口(西南側),12,24.11470,120.63921
